station,valid,lon,lat,tmpf, dwpf, relh, drct, sknt, p01i, alti, mslp, vsby, gust, skyc1, skyc2, skyc3, skyc4, skyl1, skyl2, skyl3, skyl4, presentwx, metar
PVC,2017-11-03 00:00,-70.2200,42.0700,M,M,M,180.00,11.00,M,30.24,M,10.00,M,CLR,M,M,M,M,M,M,M,M,KPVC 030000Z AUTO 18011KT 10SM CLR A3024 RMK MADISHF
PYM,2017-11-03 00:00,-70.7288,41.9090,M,M,M,170.00,5.00,M,30.24,M,10.00,M,FEW,M,M,M,600.00,M,M,M,M,KPYM 030000Z AUTO 17005KT 10SM FEW006 A3024 RMK MADISHF
OWD,2017-11-03 00:00,-71.1733,42.1912,M,M,M,170.00,4.00,M,30.21,M,10.00,M,CLR,M,M,M,M,M,M,M,M,KOWD 030000Z AUTO 17004KT 10SM CLR A3021 RMK MADISHF
EWB,2017-11-03 00:00,-70.9583,41.6764,M,M,M,180.00,4.00,M,30.23,M,10.00,M,FEW,M,M,M,499.00,M,M,M,M,KEWB 030000Z AUTO 18004KT 10SM FEW004 A3023 RMK MADISHF
CQX,2017-11-03 00:00,-69.9933,41.6875,M,M,M,180.00,3.00,M,30.26,M,10.00,M,CLR,M,M,M,M,M,M,M,M,KCQX 030000Z AUTO 18003KT 10SM CLR A3026 RMK VRB03KT  MADISHF
HYA,2017-11-03 00:00,-70.2800,41.6700,M,M,M,210.00,3.00,M,30.24,M,7.00,M,CLR,M,M,M,M,M,M,M,M,KHYA 030000Z AUTO 21003KT 7SM CLR A3024 RMK MADISHF
BED,2017-11-03 00:00,-71.2890,42.4699,M,M,M,180.00,10.00,M,30.19,M,10.00,M,CLR,M,M,M,M,M,M,M,M,KBED 030000Z AUTO 18010KT 10SM CLR A3019 RMK MADISHF
FIT,2017-11-03 00:00,-71.7558,42.5519,M,M,M,160.00,4.00,M,30.20,M,10.00,M,CLR,M,M,M,M,M,M,M,M,KFIT 030000Z AUTO 16004KT 10SM CLR A3020 RMK MADISHF
BOS,2017-11-03 00:00,-71.0097,42.3606,M,M,M,190.00,8.00,M,30.21,M,10.00,M,CLR,M,M,M,M,M,M,M,M,KBOS 030000Z AUTO 19008KT 10SM CLR A3021 RMK MADISHF
ORH,2017-11-03 00:00,-71.8757,42.2673,M,M,M,190.00,10.00,M,30.22,M,10.00,M,CLR,M,M,M,M,M,M,M,M,KORH 030000Z AUTO 19010KT 10SM CLR A3022 RMK MADISHF
CQX,2017-11-03 00:05,-69.9933,41.6875,M,M,M,0.00,0.00,M,30.26,M,10.00,M,CLR,M,M,M,M,M,M,M,M,KCQX 030005Z AUTO 00000KT 10SM CLR A3026 RMK MADISHF
ORE,2017-11-03 00:05,-72.2886,42.5701,M,M,M,0.00,0.00,M,30.19,M,10.00,M,SCT,BKN,M,M,2600.00,3900.00,M,M,M,KORE 030005Z AUTO 00000KT 10SM SCT026 BKN039 A3019 RMK MADISHF
BOS,2017-11-03 00:05,-71.0097,42.3606,M,M,M,200.00,8.00,M,30.21,M,10.00,M,CLR,M,M,M,M,M,M,M,M,KBOS 030005Z AUTO 20008KT 10SM CLR A3021 RMK MADISHF
ORH,2017-11-03 00:05,-71.8757,42.2673,M,M,M,190.00,10.00,M,30.22,M,10.00,15.00,CLR,M,M,M,M,M,M,M,M,KORH 030005Z AUTO 19010G15KT 10SM CLR A3022 RMK MADISHF
OWD,2017-11-03 00:05,-71.1733,42.1912,M,M,M,170.00,5.00,M,30.21,M,10.00,M,CLR,M,M,M,M,M,M,M,M,KOWD 030005Z AUTO 17005KT 10SM CLR A3021 RMK MADISHF
TAN,2017-11-03 00:05,-71.0211,41.8756,M,M,M,150.00,3.00,M,30.23,M,10.00,M,CLR,M,M,M,M,M,M,M,M,KTAN 030005Z AUTO 15003KT 10SM CLR A3023 RMK MADISHF
EWB,2017-11-03 00:05,-70.9583,41.6764,M,M,M,180.00,4.00,M,30.23,M,10.00,M,CLR,M,M,M,M,M,M,M,M,KEWB 030005Z AUTO 18004KT 10SM CLR A3023 RMK MADISHF
PYM,2017-11-03 00:05,-70.7288,41.9090,M,M,M,180.00,4.00,M,30.24,M,10.00,M,CLR,M,M,M,M,M,M,M,M,KPYM 030005Z AUTO 18004KT 10SM CLR A3024 RMK VRB04KT  MADISHF
PVC,2017-11-03 00:05,-70.2200,42.0700,M,M,M,170.00,11.00,M,30.24,M,10.00,M,CLR,M,M,M,M,M,M,M,M,KPVC 030005Z AUTO 17011KT 10SM CLR A3024 RMK MADISHF
BED,2017-11-03 00:05,-71.2890,42.4699,M,M,M,180.00,8.00,M,30.19,M,10.00,M,CLR,M,M,M,M,M,M,M,M,KBED 030005Z AUTO 18008KT 10SM CLR A3019 RMK MADISHF
HYA,2017-11-03 00:05,-70.2800,41.6700,M,M,M,220.00,3.00,M,30.25,M,6.00,M,CLR,M,M,M,M,M,M,M,BR,KHYA 030005Z AUTO 22003KT 6SM BR CLR A3025 RMK MADISHF
TAN,2017-11-03 00:10,-71.0211,41.8756,M,M,M,160.00,3.00,M,30.23,M,10.00,M,CLR,M,M,M,M,M,M,M,M,KTAN 030010Z AUTO 16003KT 10SM CLR A3023 RMK MADISHF
EWB,2017-11-03 00:10,-70.9583,41.6764,M,M,M,190.00,4.00,M,30.23,M,10.00,M,CLR,M,M,M,M,M,M,M,M,KEWB 030010Z AUTO 19004KT 10SM CLR A3023 RMK MADISHF
PYM,2017-11-03 00:10,-70.7288,41.9090,M,M,M,190.00,5.00,M,30.24,M,10.00,M,CLR,M,M,M,M,M,M,M,M,KPYM 030010Z AUTO 19005KT 10SM CLR A3024 RMK MADISHF
ORH,2017-11-03 00:10,-71.8757,42.2673,M,M,M,190.00,10.00,M,30.22,M,10.00,M,CLR,M,M,M,M,M,M,M,M,KORH 030010Z AUTO 19010KT 10SM CLR A3022 RMK MADISHF
ORE,2017-11-03 00:10,-72.2886,42.5701,M,M,M,0.00,0.00,M,30.19,M,10.00,M,BKN,BKN,M,M,2600.00,3900.00,M,M,M,KORE 030010Z AUTO 00000KT 10SM BKN026 BKN039 A3019 RMK MADISHF
PVC,2017-11-03 00:10,-70.2200,42.0700,M,M,M,180.00,11.00,M,30.24,M,10.00,M,CLR,M,M,M,M,M,M,M,M,KPVC 030010Z AUTO 18011KT 10SM CLR A3024 RMK MADISHF
OWD,2017-11-03 00:10,-71.1733,42.1912,M,M,M,160.00,6.00,M,30.21,M,10.00,M,CLR,M,M,M,M,M,M,M,M,KOWD 030010Z AUTO 16006KT 10SM CLR A3021 RMK MADISHF
HYA,2017-11-03 00:10,-70.2800,41.6700,M,M,M,200.00,4.00,M,30.25,M,5.00,M,CLR,M,M,M,M,M,M,M,BR,KHYA 030010Z AUTO 20004KT 5SM BR CLR A3025 RMK MADISHF
CQX,2017-11-03 00:10,-69.9933,41.6875,M,M,M,150.00,3.00,M,30.26,M,10.00,M,CLR,M,M,M,M,M,M,M,M,KCQX 030010Z AUTO 15003KT 10SM CLR A3026 RMK VRB03KT  MADISHF
BED,2017-11-03 00:10,-71.2890,42.4699,M,M,M,180.00,8.00,M,30.19,M,10.00,M,CLR,M,M,M,M,M,M,M,M,KBED 030010Z AUTO 18008KT 10SM CLR A3019 RMK MADISHF
FIT,2017-11-03 00:10,-71.7558,42.5519,M,M,M,170.00,3.00,M,30.20,M,10.00,M,CLR,M,M,M,M,M,M,M,M,KFIT 030010Z AUTO 17003KT 10SM CLR A3020 RMK MADISHF
BOS,2017-11-03 00:10,-71.0097,42.3606,M,M,M,180.00,8.00,M,30.21,M,10.00,M,CLR,M,M,M,M,M,M,M,M,KBOS 030010Z AUTO 18008KT 10SM CLR A3021 RMK MADISHF
PVC,2017-11-03 00:15,-70.2200,42.0700,M,M,M,180.00,10.00,M,30.24,M,10.00,M,CLR,M,M,M,M,M,M,M,M,KPVC 030015Z AUTO 18010KT 10SM CLR A3024 RMK MADISHF
PYM,2017-11-03 00:15,-70.7288,41.9090,M,M,M,180.00,5.00,M,30.24,M,10.00,M,CLR,M,M,M,M,M,M,M,M,KPYM 030015Z AUTO 18005KT 10SM CLR A3024 RMK MADISHF
FIT,2017-11-03 00:15,-71.7558,42.5519,M,M,M,160.00,3.00,M,30.20,M,10.00,M,CLR,M,M,M,M,M,M,M,M,KFIT 030015Z AUTO 16003KT 10SM CLR A3020 RMK MADISHF
EWB,2017-11-03 00:15,-70.9583,41.6764,M,M,M,200.00,4.00,M,30.23,M,10.00,M,CLR,M,M,M,M,M,M,M,M,KEWB 030015Z AUTO 20004KT 10SM CLR A3023 RMK MADISHF
ORH,2017-11-03 00:15,-71.8757,42.2673,M,M,M,190.00,10.00,M,30.22,M,10.00,M,CLR,M,M,M,M,M,M,M,M,KORH 030015Z AUTO 19010KT 10SM CLR A3022 RMK MADISHF
HYA,2017-11-03 00:15,-70.2800,41.6700,M,M,M,200.00,3.00,M,30.24,M,6.00,M,CLR,M,M,M,M,M,M,M,BR,KHYA 030015Z AUTO 20003KT 6SM BR CLR A3024 RMK MADISHF
ORE,2017-11-03 00:15,-72.2886,42.5701,M,M,M,0.00,0.00,M,30.19,M,10.00,M,SCT,BKN,M,M,2500.00,3900.00,M,M,M,KORE 030015Z AUTO 00000KT 10SM SCT025 BKN039 A3019 RMK MADISHF
TAN,2017-11-03 00:15,-71.0211,41.8756,M,M,M,160.00,4.00,M,30.23,M,10.00,M,CLR,M,M,M,M,M,M,M,M,KTAN 030015Z AUTO 16004KT 10SM CLR A3023 RMK MADISHF
OWD,2017-11-03 00:15,-71.1733,42.1912,M,M,M,170.00,4.00,M,30.21,M,10.00,M,CLR,M,M,M,M,M,M,M,M,KOWD 030015Z AUTO 17004KT 10SM CLR A3021 RMK MADISHF
BOS,2017-11-03 00:15,-71.0097,42.3606,M,M,M,190.00,9.00,M,30.21,M,10.00,M,CLR,M,M,M,M,M,M,M,M,KBOS 030015Z AUTO 19009KT 10SM CLR A3021 RMK MADISHF
BED,2017-11-03 00:15,-71.2890,42.4699,M,M,M,190.00,9.00,M,30.19,M,10.00,M,CLR,M,M,M,M,M,M,M,M,KBED 030015Z AUTO 19009KT 10SM CLR A3019 RMK MADISHF
GHG,2017-11-03 00:15,-70.6721,42.0982,62.60,62.60,100.00,M,5.00,0.00,30.23,M,10.00,M,CLR,M,M,M,M,M,M,M,M,KGHG 030015Z AUTO VRB05KT 10SM CLR 17/17 A3023 RMK AO2
FMH,2017-11-03 00:15,-70.5215,41.6585,59.00,59.00,100.00,160.00,6.00,0.00,30.25,M,9.00,M,CLR,M,M,M,M,M,M,M,M,KFMH 030015Z 16006KT 9SM SKC 15/15 A3025 RMK AO2
FIT,2017-11-03 00:20,-71.7558,42.5519,M,M,M,170.00,4.00,M,30.20,M,10.00,M,CLR,M,M,M,M,M,M,M,M,KFIT 030020Z AUTO 17004KT 10SM CLR A3020 RMK MADISHF
BED,2017-11-03 00:20,-71.2890,42.4699,M,M,M,180.00,8.00,M,30.19,M,10.00,M,CLR,M,M,M,M,M,M,M,M,KBED 030020Z AUTO 18008KT 10SM CLR A3019 RMK MADISHF
ORH,2017-11-03 00:20,-71.8757,42.2673,M,M,M,190.00,10.00,M,30.21,M,10.00,M,CLR,M,M,M,M,M,M,M,M,KORH 030020Z AUTO 19010KT 10SM CLR A3021 RMK MADISHF
EWB,2017-11-03 00:20,-70.9583,41.6764,M,M,M,190.00,5.00,M,30.23,M,10.00,M,CLR,M,M,M,M,M,M,M,M,KEWB 030020Z AUTO 19005KT 10SM CLR A3023 RMK MADISHF
PVC,2017-11-03 00:20,-70.2200,42.0700,M,M,M,180.00,9.00,M,30.24,M,10.00,M,CLR,M,M,M,M,M,M,M,M,KPVC 030020Z AUTO 18009KT 10SM CLR A3024 RMK MADISHF
HYA,2017-11-03 00:20,-70.2800,41.6700,M,M,M,190.00,3.00,M,30.24,M,7.00,M,CLR,M,M,M,M,M,M,M,M,KHYA 030020Z AUTO 19003KT 7SM CLR A3024 RMK MADISHF
PYM,2017-11-03 00:20,-70.7288,41.9090,M,M,M,200.00,4.00,M,30.24,M,10.00,M,CLR,M,M,M,M,M,M,M,M,KPYM 030020Z AUTO 20004KT 10SM CLR A3024 RMK MADISHF
BOS,2017-11-03 00:20,-71.0097,42.3606,M,M,M,190.00,9.00,M,30.21,M,10.00,M,CLR,M,M,M,M,M,M,M,M,KBOS 030020Z AUTO 19009KT 10SM CLR A3021 RMK MADISHF
ORE,2017-11-03 00:20,-72.2886,42.5701,M,M,M,0.00,0.00,M,30.19,M,10.00,M,SCT,SCT,M,M,2500.00,3900.00,M,M,M,KORE 030020Z AUTO 00000KT 10SM SCT025 SCT039 A3019 RMK MADISHF
OWD,2017-11-03 00:20,-71.1733,42.1912,M,M,M,170.00,5.00,M,30.21,M,10.00,M,FEW,M,M,M,900.00,M,M,M,M,KOWD 030020Z AUTO 17005KT 10SM FEW009 A3021 RMK MADISHF
CQX,2017-11-03 00:20,-69.9933,41.6875,59.00,57.90,96.13,M,4.00,0.00,30.27,M,10.00,M,FEW,M,M,M,400.00,M,M,M,M,KCQX 030020Z AUTO VRB04KT 10SM FEW004 15/14 A3027 RMK AO2 T01500144
OWD,2017-11-03 00:24,-71.1733,42.1912,63.00,61.00,93.18,160.00,4.00,0.00,30.21,M,10.00,M,FEW,M,M,M,900.00,M,M,M,M,KOWD 030024Z AUTO 16004KT 10SM FEW009 17/16 A3021 RMK AO2 T01720161
PVC,2017-11-03 00:25,-70.2200,42.0700,M,M,M,180.00,9.00,M,30.24,M,10.00,M,CLR,M,M,M,M,M,M,M,M,KPVC 030025Z AUTO 18009KT 10SM CLR A3024 RMK MADISHF
ORE,2017-11-03 00:25,-72.2886,42.5701,M,M,M,0.00,0.00,M,30.18,M,10.00,M,SCT,SCT,M,M,2500.00,3900.00,M,M,M,KORE 030025Z AUTO 00000KT 10SM SCT025 SCT039 A3018 RMK MADISHF
ORH,2017-11-03 00:25,-71.8757,42.2673,M,M,M,190.00,11.00,M,30.21,M,10.00,M,CLR,M,M,M,M,M,M,M,M,KORH 030025Z AUTO 19011KT 10SM CLR A3021 RMK MADISHF
HYA,2017-11-03 00:25,-70.2800,41.6700,M,M,M,0.00,0.00,M,30.24,M,6.00,M,CLR,M,M,M,M,M,M,M,BR,KHYA 030025Z AUTO 00000KT 6SM BR CLR A3024 RMK MADISHF
BOS,2017-11-03 00:25,-71.0097,42.3606,M,M,M,190.00,8.00,M,30.21,M,10.00,M,CLR,M,M,M,M,M,M,M,M,KBOS 030025Z AUTO 19008KT 10SM CLR A3021 RMK MADISHF
PYM,2017-11-03 00:25,-70.7288,41.9090,M,M,M,180.00,3.00,M,30.23,M,10.00,M,FEW,M,M,M,400.00,M,M,M,M,KPYM 030025Z AUTO 18003KT 10SM FEW004 A3023 RMK MADISHF
OWD,2017-11-03 00:25,-71.1733,42.1912,M,M,M,160.00,4.00,M,30.21,M,10.00,M,SCT,M,M,M,900.00,M,M,M,M,KOWD 030025Z AUTO 16004KT 10SM SCT009 A3021 RMK MADISHF
EWB,2017-11-03 00:25,-70.9583,41.6764,M,M,M,180.00,4.00,M,30.22,M,10.00,M,CLR,M,M,M,M,M,M,M,M,KEWB 030025Z AUTO 18004KT 10SM CLR A3022 RMK MADISHF
TAN,2017-11-03 00:25,-71.0211,41.8756,M,M,M,170.00,3.00,M,30.23,M,10.00,M,CLR,M,M,M,M,M,M,M,M,KTAN 030025Z AUTO 17003KT 10SM CLR A3023 RMK MADISHF
CQX,2017-11-03 00:25,-69.9933,41.6875,M,M,M,0.00,0.00,M,30.27,M,10.00,M,FEW,M,M,M,300.00,M,M,M,M,KCQX 030025Z AUTO 00000KT 10SM FEW003 A3027 RMK MADISHF
BED,2017-11-03 00:25,-71.2890,42.4699,M,M,M,180.00,7.00,M,30.18,M,10.00,M,CLR,M,M,M,M,M,M,M,M,KBED 030025Z AUTO 18007KT 10SM CLR A3018 RMK MADISHF
PVC,2017-11-03 00:30,-70.2200,42.0700,M,M,M,170.00,10.00,M,30.24,M,10.00,M,CLR,M,M,M,M,M,M,M,M,KPVC 030030Z AUTO 17010KT 10SM CLR A3024 RMK MADISHF
TAN,2017-11-03 00:30,-71.0211,41.8756,M,M,M,170.00,3.00,M,30.23,M,10.00,M,CLR,M,M,M,M,M,M,M,M,KTAN 030030Z AUTO 17003KT 10SM CLR A3023 RMK MADISHF
BOS,2017-11-03 00:30,-71.0097,42.3606,M,M,M,180.00,7.00,M,30.21,M,10.00,M,CLR,M,M,M,M,M,M,M,M,KBOS 030030Z AUTO 18007KT 10SM CLR A3021 RMK MADISHF
BED,2017-11-03 00:30,-71.2890,42.4699,M,M,M,180.00,9.00,M,30.18,M,10.00,M,CLR,M,M,M,M,M,M,M,M,KBED 030030Z AUTO 18009KT 10SM CLR A3018 RMK MADISHF
PYM,2017-11-03 00:30,-70.7288,41.9090,M,M,M,180.00,3.00,M,30.23,M,10.00,M,FEW,M,M,M,400.00,M,M,M,M,KPYM 030030Z AUTO 18003KT 10SM FEW004 A3023 RMK VRB03KT  MADISHF
ORE,2017-11-03 00:30,-72.2886,42.5701,M,M,M,0.00,0.00,M,30.18,M,10.00,M,FEW,BKN,M,M,2500.00,3900.00,M,M,M,KORE 030030Z AUTO 00000KT 10SM FEW025 BKN039 A3018 RMK MADISHF
OWD,2017-11-03 00:30,-71.1733,42.1912,M,M,M,160.00,4.00,M,30.21,M,10.00,M,SCT,M,M,M,900.00,M,M,M,M,KOWD 030030Z AUTO 16004KT 10SM SCT009 A3021 RMK MADISHF
CQX,2017-11-03 00:30,-69.9933,41.6875,M,M,M,170.00,3.00,M,30.27,M,10.00,M,CLR,M,M,M,M,M,M,M,M,KCQX 030030Z AUTO 17003KT 10SM CLR A3027 RMK MADISHF
HYA,2017-11-03 00:30,-70.2800,41.6700,M,M,M,0.00,0.00,M,30.24,M,6.00,M,CLR,M,M,M,M,M,M,M,BR,KHYA 030030Z AUTO 00000KT 6SM BR CLR A3024 RMK MADISHF
EWB,2017-11-03 00:30,-70.9583,41.6764,M,M,M,180.00,5.00,M,30.22,M,10.00,M,CLR,M,M,M,M,M,M,M,M,KEWB 030030Z AUTO 18005KT 10SM CLR A3022 RMK MADISHF
ORH,2017-11-03 00:30,-71.8757,42.2673,M,M,M,190.00,10.00,M,30.21,M,10.00,M,CLR,M,M,M,M,M,M,M,M,KORH 030030Z AUTO 19010KT 10SM CLR A3021 RMK MADISHF
FIT,2017-11-03 00:30,-71.7558,42.5519,M,M,M,160.00,4.00,M,30.20,M,10.00,M,CLR,M,M,M,M,M,M,M,M,KFIT 030030Z AUTO 16004KT 10SM CLR A3020 RMK MADISHF
OWD,2017-11-03 00:35,-71.1733,42.1912,M,M,M,150.00,4.00,M,30.21,M,10.00,M,SCT,M,M,M,800.00,M,M,M,M,KOWD 030035Z AUTO 15004KT 10SM SCT008 A3021 RMK MADISHF
ORE,2017-11-03 00:35,-72.2886,42.5701,M,M,M,180.00,5.00,M,30.18,M,10.00,M,FEW,SCT,M,M,2500.00,3900.00,M,M,M,KORE 030035Z AUTO 18005KT 10SM FEW025 SCT039 A3018 RMK MADISHF
PVC,2017-11-03 00:35,-70.2200,42.0700,M,M,M,170.00,12.00,M,30.24,M,10.00,M,CLR,M,M,M,M,M,M,M,M,KPVC 030035Z AUTO 17012KT 10SM CLR A3024 RMK MADISHF
EWB,2017-11-03 00:35,-70.9583,41.6764,M,M,M,190.00,4.00,M,30.23,M,10.00,M,CLR,M,M,M,M,M,M,M,M,KEWB 030035Z AUTO 19004KT 10SM CLR A3023 RMK MADISHF
TAN,2017-11-03 00:35,-71.0211,41.8756,M,M,M,180.00,4.00,M,30.23,M,10.00,M,CLR,M,M,M,M,M,M,M,M,KTAN 030035Z AUTO 18004KT 10SM CLR A3023 RMK MADISHF
FIT,2017-11-03 00:35,-71.7558,42.5519,M,M,M,150.00,4.00,M,30.20,M,10.00,M,CLR,M,M,M,M,M,M,M,M,KFIT 030035Z AUTO 15004KT 10SM CLR A3020 RMK MADISHF
BED,2017-11-03 00:35,-71.2890,42.4699,M,M,M,180.00,8.00,M,30.18,M,10.00,M,CLR,M,M,M,M,M,M,M,M,KBED 030035Z AUTO 18008KT 10SM CLR A3018 RMK MADISHF
ORH,2017-11-03 00:35,-71.8757,42.2673,M,M,M,200.00,10.00,M,30.21,M,10.00,M,CLR,M,M,M,M,M,M,M,M,KORH 030035Z AUTO 20010KT 10SM CLR A3021 RMK MADISHF
HYA,2017-11-03 00:35,-70.2800,41.6700,M,M,M,0.00,0.00,M,30.24,M,6.00,M,FEW,M,M,M,3500.00,M,M,M,BR,KHYA 030035Z AUTO 00000KT 6SM BR FEW035 A3024 RMK MADISHF
BOS,2017-11-03 00:35,-71.0097,42.3606,M,M,M,190.00,7.00,M,30.21,M,10.00,M,CLR,M,M,M,M,M,M,M,M,KBOS 030035Z AUTO 19007KT 10SM CLR A3021 RMK MADISHF
PYM,2017-11-03 00:35,-70.7288,41.9090,M,M,M,180.00,3.00,M,30.23,M,10.00,M,CLR,M,M,M,M,M,M,M,M,KPYM 030035Z AUTO 18003KT 10SM CLR A3023 RMK MADISHF
CQX,2017-11-03 00:35,-69.9933,41.6875,M,M,M,170.00,4.00,M,30.26,M,9.00,M,CLR,M,M,M,M,M,M,M,M,KCQX 030035Z AUTO 17004KT 9SM CLR A3026 RMK VRB04KT  MADISHF
FMH,2017-11-03 00:35,-70.5215,41.6585,59.00,59.00,100.00,160.00,7.00,0.00,30.25,M,8.00,M,CLR,M,M,M,M,M,M,M,M,KFMH 030035Z 16007KT 8SM SKC 15/15 A3025 RMK AO2
GHG,2017-11-03 00:35,-70.6721,42.0982,62.60,62.60,100.00,190.00,5.00,0.00,30.22,M,10.00,M,CLR,M,M,M,M,M,M,M,M,KGHG 030035Z AUTO 19005KT 10SM CLR 17/17 A3022 RMK AO2
TAN,2017-11-03 00:40,-71.0211,41.8756,M,M,M,180.00,3.00,M,30.23,M,10.00,M,CLR,M,M,M,M,M,M,M,M,KTAN 030040Z AUTO 18003KT 10SM CLR A3023 RMK MADISHF
FIT,2017-11-03 00:40,-71.7558,42.5519,M,M,M,160.00,3.00,M,30.20,M,10.00,M,CLR,M,M,M,M,M,M,M,M,KFIT 030040Z AUTO 16003KT 10SM CLR A3020 RMK VRB03KT  MADISHF
PVC,2017-11-03 00:40,-70.2200,42.0700,M,M,M,170.00,9.00,M,30.23,M,10.00,M,CLR,M,M,M,M,M,M,M,M,KPVC 030040Z AUTO 17009KT 10SM CLR A3023 RMK MADISHF
EWB,2017-11-03 00:40,-70.9583,41.6764,M,M,M,220.00,4.00,M,30.23,M,10.00,M,CLR,M,M,M,M,M,M,M,M,KEWB 030040Z AUTO 22004KT 10SM CLR A3023 RMK MADISHF
BED,2017-11-03 00:40,-71.2890,42.4699,M,M,M,180.00,7.00,M,30.18,M,10.00,M,CLR,M,M,M,M,M,M,M,M,KBED 030040Z AUTO 18007KT 10SM CLR A3018 RMK MADISHF
BOS,2017-11-03 00:40,-71.0097,42.3606,M,M,M,180.00,6.00,M,30.21,M,10.00,M,CLR,M,M,M,M,M,M,M,M,KBOS 030040Z AUTO 18006KT 10SM CLR A3021 RMK MADISHF
ORH,2017-11-03 00:40,-71.8757,42.2673,M,M,M,200.00,10.00,M,30.21,M,10.00,M,CLR,M,M,M,M,M,M,M,M,KORH 030040Z AUTO 20010KT 10SM CLR A3021 RMK MADISHF
CQX,2017-11-03 00:40,-69.9933,41.6875,M,M,M,0.00,0.00,M,30.26,M,9.00,M,CLR,M,M,M,M,M,M,M,M,KCQX 030040Z AUTO 00000KT 9SM CLR A3026 RMK MADISHF
HYA,2017-11-03 00:40,-70.2800,41.6700,M,M,M,0.00,0.00,M,30.24,M,6.00,M,SCT,M,M,M,3500.00,M,M,M,BR,KHYA 030040Z AUTO 00000KT 6SM BR SCT035 A3024 RMK MADISHF
OWD,2017-11-03 00:40,-71.1733,42.1912,M,M,M,170.00,4.00,M,30.21,M,10.00,M,BKN,M,M,M,800.00,M,M,M,M,KOWD 030040Z AUTO 17004KT 10SM BKN008 A3021 RMK MADISHF
ORE,2017-11-03 00:40,-72.2886,42.5701,M,M,M,190.00,5.00,M,30.18,M,10.00,M,FEW,M,M,M,3900.00,M,M,M,M,KORE 030040Z AUTO 19005KT 10SM FEW039 A3018 RMK MADISHF
PYM,2017-11-03 00:40,-70.7288,41.9090,M,M,M,180.00,4.00,M,30.23,M,10.00,M,CLR,M,M,M,M,M,M,M,M,KPYM 030040Z AUTO 18004KT 10SM CLR A3023 RMK VRB04KT  MADISHF
OWD,2017-11-03 00:44,-71.1733,42.1912,64.00,61.00,89.97,160.00,5.00,0.00,30.20,M,10.00,M,BKN,M,M,M,800.00,M,M,M,M,KOWD 030044Z AUTO 16005KT 10SM BKN008 18/16 A3020 RMK AO2 T01780161
ORE,2017-11-03 00:45,-72.2886,42.5701,M,M,M,170.00,6.00,M,30.18,M,10.00,M,FEW,M,M,M,3900.00,M,M,M,M,KORE 030045Z AUTO 17006KT 10SM FEW039 A3018 RMK MADISHF
ORH,2017-11-03 00:45,-71.8757,42.2673,M,M,M,200.00,10.00,M,30.21,M,10.00,M,CLR,M,M,M,M,M,M,M,M,KORH 030045Z AUTO 20010KT 10SM CLR A3021 RMK MADISHF
PYM,2017-11-03 00:45,-70.7288,41.9090,M,M,M,180.00,3.00,M,30.23,M,10.00,M,CLR,M,M,M,M,M,M,M,M,KPYM 030045Z AUTO 18003KT 10SM CLR A3023 RMK MADISHF
HYA,2017-11-03 00:45,-70.2800,41.6700,M,M,M,180.00,3.00,M,30.24,M,7.00,M,SCT,M,M,M,3500.00,M,M,M,M,KHYA 030045Z AUTO 18003KT 7SM SCT035 A3024 RMK MADISHF
EWB,2017-11-03 00:45,-70.9583,41.6764,M,M,M,220.00,4.00,M,30.23,M,10.00,M,CLR,M,M,M,M,M,M,M,M,KEWB 030045Z AUTO 22004KT 10SM CLR A3023 RMK MADISHF
PVC,2017-11-03 00:45,-70.2200,42.0700,M,M,M,170.00,9.00,M,30.23,M,10.00,M,CLR,M,M,M,M,M,M,M,M,KPVC 030045Z AUTO 17009KT 10SM CLR A3023 RMK MADISHF
CQX,2017-11-03 00:45,-69.9933,41.6875,M,M,M,180.00,3.00,M,30.26,M,9.00,M,CLR,M,M,M,M,M,M,M,M,KCQX 030045Z AUTO 18003KT 9SM CLR A3026 RMK VRB03KT  MADISHF
OWD,2017-11-03 00:45,-71.1733,42.1912,M,M,M,150.00,5.00,M,30.20,M,10.00,M,BKN,M,M,M,800.00,M,M,M,M,KOWD 030045Z AUTO 15005KT 10SM BKN008 A3020 RMK VRB05KT  MADISHF
BOS,2017-11-03 00:45,-71.0097,42.3606,M,M,M,180.00,6.00,M,30.20,M,10.00,M,CLR,M,M,M,M,M,M,M,M,KBOS 030045Z AUTO 18006KT 10SM CLR A3020 RMK MADISHF
TAN,2017-11-03 00:45,-71.0211,41.8756,M,M,M,170.00,3.00,M,30.22,M,10.00,M,CLR,M,M,M,M,M,M,M,M,KTAN 030045Z AUTO 17003KT 10SM CLR A3022 RMK MADISHF
BED,2017-11-03 00:45,-71.2890,42.4699,M,M,M,190.00,6.00,M,30.18,M,10.00,M,CLR,M,M,M,M,M,M,M,M,KBED 030045Z AUTO 19006KT 10SM CLR A3018 RMK MADISHF
OWD,2017-11-03 00:50,-71.1733,42.1912,M,M,M,170.00,4.00,M,30.21,M,10.00,M,BKN,M,M,M,800.00,M,M,M,M,KOWD 030050Z AUTO 17004KT 10SM BKN008 A3021 RMK CIG 7V11  MADISHF
TAN,2017-11-03 00:50,-71.0211,41.8756,M,M,M,150.00,3.00,M,30.22,M,10.00,M,CLR,M,M,M,M,M,M,M,M,KTAN 030050Z AUTO 15003KT 10SM CLR A3022 RMK MADISHF
CQX,2017-11-03 00:50,-69.9933,41.6875,M,M,M,170.00,3.00,M,30.26,M,9.00,M,CLR,M,M,M,M,M,M,M,M,KCQX 030050Z AUTO 17003KT 9SM CLR A3026 RMK VRB03KT  MADISHF
PYM,2017-11-03 00:50,-70.7288,41.9090,M,M,M,190.00,4.00,M,30.23,M,10.00,M,CLR,M,M,M,M,M,M,M,M,KPYM 030050Z AUTO 19004KT 10SM CLR A3023 RMK MADISHF
FIT,2017-11-03 00:50,-71.7558,42.5519,M,M,M,160.00,4.00,M,30.20,M,10.00,M,CLR,M,M,M,M,M,M,M,M,KFIT 030050Z AUTO 16004KT 10SM CLR A3020 RMK MADISHF
ORH,2017-11-03 00:50,-71.8757,42.2673,M,M,M,200.00,10.00,M,30.21,M,10.00,M,CLR,M,M,M,M,M,M,M,M,KORH 030050Z AUTO 20010KT 10SM CLR A3021 RMK MADISHF
HYA,2017-11-03 00:50,-70.2800,41.6700,M,M,M,180.00,4.00,M,30.24,M,7.00,M,FEW,M,M,M,3500.00,M,M,M,M,KHYA 030050Z AUTO 18004KT 7SM FEW035 A3024 RMK MADISHF
BOS,2017-11-03 00:50,-71.0097,42.3606,M,M,M,180.00,7.00,M,30.21,M,10.00,M,CLR,M,M,M,M,M,M,M,M,KBOS 030050Z AUTO 18007KT 10SM CLR A3021 RMK MADISHF
PVC,2017-11-03 00:50,-70.2200,42.0700,M,M,M,170.00,9.00,M,30.23,M,10.00,M,CLR,M,M,M,M,M,M,M,M,KPVC 030050Z AUTO 17009KT 10SM CLR A3023 RMK MADISHF
EWB,2017-11-03 00:50,-70.9583,41.6764,M,M,M,200.00,4.00,M,30.23,M,10.00,M,CLR,M,M,M,M,M,M,M,M,KEWB 030050Z AUTO 20004KT 10SM CLR A3023 RMK MADISHF
BED,2017-11-03 00:50,-71.2890,42.4699,M,M,M,200.00,6.00,M,30.18,M,10.00,M,CLR,M,M,M,M,M,M,M,M,KBED 030050Z AUTO 20006KT 10SM CLR A3018 RMK MADISHF
TAN,2017-11-03 00:52,-71.0211,41.8756,61.00,57.90,89.52,150.00,3.00,0.00,30.22,1023.50,10.00,M,CLR,M,M,M,M,M,M,M,M,KTAN 030052Z AUTO 15003KT 10SM CLR 16/14 A3022 RMK AO2 SLP235 T01610144
ORE,2017-11-03 00:52,-72.2886,42.5701,59.00,57.00,93.07,M,3.00,0.00,30.18,1022.20,10.00,M,FEW,M,M,M,3900.00,M,M,M,M,KORE 030052Z AUTO VRB03KT 10SM FEW039 15/14 A3018 RMK AO2 SLP222 T01500139 TSNO
FIT,2017-11-03 00:52,-71.7558,42.5519,64.00,59.00,83.78,170.00,4.00,0.00,30.20,1022.70,10.00,M,CLR,M,M,M,M,M,M,M,M,KFIT 030052Z AUTO 17004KT 10SM CLR 18/15 A3020 RMK AO2 SLP227 T01780150
CQX,2017-11-03 00:52,-69.9933,41.6875,59.00,57.90,96.13,M,3.00,0.00,30.26,1024.80,9.00,M,CLR,M,M,M,M,M,M,M,M,KCQX 030052Z AUTO VRB03KT 9SM CLR 15/14 A3026 RMK AO2 SLP248 T01500144
PYM,2017-11-03 00:52,-70.7288,41.9090,62.10,60.10,93.16,200.00,4.00,0.00,30.24,1023.80,10.00,M,CLR,M,M,M,M,M,M,M,M,KPYM 030052Z AUTO 20004KT 10SM CLR 17/16 A3024 RMK AO2 SLP238 T01670156
OWD,2017-11-03 00:53,-71.1733,42.1912,63.00,61.00,93.18,170.00,6.00,0.00,30.20,1022.70,10.00,M,BKN,M,M,M,800.00,M,M,M,M,KOWD 030053Z AUTO 17006KT 10SM BKN008 17/16 A3020 RMK AO2 CIG 007V011 SLP227 T01720161
EWB,2017-11-03 00:53,-70.9583,41.6764,60.10,59.00,96.15,210.00,4.00,0.00,30.23,1023.50,10.00,M,CLR,M,M,M,M,M,M,M,M,KEWB 030053Z 21004KT 10SM CLR 16/15 A3023 RMK AO2 SLP235 T01560150
ORH,2017-11-03 00:54,-71.8757,42.2673,59.00,55.90,89.44,200.00,9.00,0.00,30.21,1023.30,10.00,M,CLR,M,M,M,M,M,M,M,M,KORH 030054Z 20009KT 10SM CLR 15/13 A3021 RMK AO2 SLP233 T01500133
BOS,2017-11-03 00:54,-71.0097,42.3606,61.00,59.00,93.12,180.00,7.00,0.00,30.21,1022.80,10.00,M,FEW,FEW,SCT,M,1700.00,13000.00,23000.00,M,M,KBOS 030054Z 18007KT 10SM FEW017 FEW130 SCT230 16/15 A3021 RMK AO2 SLP228 T01610150
TAN,2017-11-03 00:55,-71.0211,41.8756,M,M,M,0.00,0.00,M,30.23,M,10.00,M,CLR,M,M,M,M,M,M,M,M,KTAN 030055Z AUTO 00000KT 10SM CLR A3023 RMK MADISHF
PVC,2017-11-03 00:55,-70.2200,42.0700,M,M,M,170.00,11.00,M,30.24,M,10.00,M,CLR,M,M,M,M,M,M,M,M,KPVC 030055Z AUTO 17011KT 10SM CLR A3024 RMK MADISHF
FIT,2017-11-03 00:55,-71.7558,42.5519,M,M,M,160.00,4.00,M,30.20,M,10.00,M,CLR,M,M,M,M,M,M,M,M,KFIT 030055Z AUTO 16004KT 10SM CLR A3020 RMK MADISHF
ORE,2017-11-03 00:55,-72.2886,42.5701,M,M,M,0.00,0.00,M,30.18,M,10.00,M,SCT,M,M,M,3900.00,M,M,M,M,KORE 030055Z AUTO 00000KT 10SM SCT039 A3018 RMK MADISHF
BED,2017-11-03 00:55,-71.2890,42.4699,M,M,M,190.00,6.00,M,30.18,M,10.00,M,CLR,M,M,M,M,M,M,M,M,KBED 030055Z AUTO 19006KT 10SM CLR A3018 RMK MADISHF
ORH,2017-11-03 00:55,-71.8757,42.2673,M,M,M,190.00,9.00,M,30.21,M,10.00,M,CLR,M,M,M,M,M,M,M,M,KORH 030055Z AUTO 19009KT 10SM CLR A3021 RMK MADISHF
BOS,2017-11-03 00:55,-71.0097,42.3606,M,M,M,180.00,7.00,M,30.21,M,10.00,M,CLR,M,M,M,M,M,M,M,M,KBOS 030055Z AUTO 18007KT 10SM CLR A3021 RMK MADISHF
OWD,2017-11-03 00:55,-71.1733,42.1912,M,M,M,170.00,6.00,M,30.20,M,10.00,M,BKN,M,M,M,800.00,M,M,M,M,KOWD 030055Z AUTO 17006KT 10SM BKN008 A3020 RMK CIG 7V11  MADISHF
CQX,2017-11-03 00:55,-69.9933,41.6875,M,M,M,190.00,3.00,M,30.26,M,9.00,M,CLR,M,M,M,M,M,M,M,M,KCQX 030055Z AUTO 19003KT 9SM CLR A3026 RMK VRB03KT  MADISHF
HYA,2017-11-03 00:55,-70.2800,41.6700,M,M,M,180.00,4.00,M,30.24,M,7.00,M,FEW,M,M,M,3500.00,M,M,M,M,KHYA 030055Z AUTO 18004KT 7SM FEW035 A3024 RMK MADISHF
EWB,2017-11-03 00:55,-70.9583,41.6764,M,M,M,220.00,4.00,M,30.23,M,10.00,M,CLR,M,M,M,M,M,M,M,M,KEWB 030055Z AUTO 22004KT 10SM CLR A3023 RMK MADISHF
GHG,2017-11-03 00:55,-70.6721,42.0982,62.60,62.60,100.00,M,4.00,0.00,30.22,M,10.00,M,CLR,M,M,M,M,M,M,M,M,KGHG 030055Z AUTO VRB04KT 10SM CLR 17/17 A3022 RMK AO2
FMH,2017-11-03 00:55,-70.5215,41.6585,59.00,59.00,100.00,160.00,6.00,0.00,30.25,M,9.00,M,BKN,M,M,M,300.00,M,M,M,M,KFMH 030055Z AUTO 16006KT 9SM BKN003 15/15 A3025 RMK AO2
MQE,2017-11-03 00:56,-71.1142,42.2121,60.10,57.90,92.43,180.00,13.00,0.00,30.20,1023.80,M,M,M,M,M,M,M,M,M,M,M,KMQE 030056Z AUTO 18013KT 16/14 A3020 RMK AO1 SLP238 T01560144
HYA,2017-11-03 00:56,-70.2800,41.6700,61.00,60.10,96.85,170.00,4.00,0.00,30.24,1024.00,7.00,M,FEW,M,M,M,3500.00,M,M,M,M,KHYA 030056Z 17004KT 7SM FEW035 16/16 A3024 RMK AO2 SLP240 T01610156
BED,2017-11-03 00:56,-71.2890,42.4699,62.10,59.00,89.57,200.00,6.00,0.00,30.19,1023.40,10.00,M,CLR,M,M,M,M,M,M,M,M,KBED 030056Z 20006KT 10SM CLR 17/15 A3019 RMK AO2 SLP234 T01670150
PVC,2017-11-03 00:56,-70.2200,42.0700,61.00,60.10,96.85,170.00,10.00,0.00,30.23,1023.80,10.00,M,CLR,M,M,M,M,M,M,M,M,KPVC 030056Z AUTO 17010KT 10SM CLR 16/16 A3023 RMK AO2 SLP238 T01610156
PVC,2017-11-03 01:00,-70.2200,42.0700,M,M,M,170.00,10.00,M,30.23,M,10.00,M,CLR,M,M,M,M,M,M,M,M,KPVC 030100Z AUTO 17010KT 10SM CLR A3023 RMK MADISHF
CQX,2017-11-03 01:00,-69.9933,41.6875,M,M,M,200.00,4.00,M,30.26,M,10.00,M,CLR,M,M,M,M,M,M,M,M,KCQX 030100Z AUTO 20004KT 10SM CLR A3026 RMK VRB04KT  MADISHF
ORH,2017-11-03 01:00,-71.8757,42.2673,M,M,M,190.00,10.00,M,30.21,M,10.00,M,CLR,M,M,M,M,M,M,M,M,KORH 030100Z AUTO 19010KT 10SM CLR A3021 RMK MADISHF
BOS,2017-11-03 01:00,-71.0097,42.3606,M,M,M,180.00,7.00,M,30.20,M,10.00,M,CLR,M,M,M,M,M,M,M,M,KBOS 030100Z AUTO 18007KT 10SM CLR A3020 RMK MADISHF
OWD,2017-11-03 01:00,-71.1733,42.1912,M,M,M,160.00,6.00,M,30.21,M,10.00,M,BKN,M,M,M,800.00,M,M,M,M,KOWD 030100Z AUTO 16006KT 10SM BKN008 A3021 RMK MADISHF
HYA,2017-11-03 01:00,-70.2800,41.6700,M,M,M,180.00,4.00,M,30.24,M,7.00,M,FEW,M,M,M,3500.00,M,M,M,M,KHYA 030100Z AUTO 18004KT 7SM FEW035 A3024 RMK MADISHF
EWB,2017-11-03 01:00,-70.9583,41.6764,M,M,M,210.00,3.00,M,30.23,M,10.00,M,CLR,M,M,M,M,M,M,M,M,KEWB 030100Z AUTO 21003KT 10SM CLR A3023 RMK MADISHF
PYM,2017-11-03 01:00,-70.7288,41.9090,M,M,M,190.00,3.00,M,30.23,M,10.00,M,CLR,M,M,M,M,M,M,M,M,KPYM 030100Z AUTO 19003KT 10SM CLR A3023 RMK MADISHF
BED,2017-11-03 01:00,-71.2890,42.4699,M,M,M,200.00,5.00,M,30.19,M,10.00,M,CLR,M,M,M,M,M,M,M,M,KBED 030100Z AUTO 20005KT 10SM CLR A3019 RMK MADISHF
TAN,2017-11-03 01:00,-71.0211,41.8756,M,M,M,0.00,0.00,M,30.22,M,9.00,M,CLR,M,M,M,M,M,M,M,M,KTAN 030100Z AUTO 00000KT 9SM CLR A3022 RMK MADISHF
ORE,2017-11-03 01:00,-72.2886,42.5701,M,M,M,240.00,3.00,M,30.18,M,10.00,M,FEW,M,M,M,3900.00,M,M,M,M,KORE 030100Z AUTO 24003KT 10SM FEW039 A3018 RMK VRB03KT  MADISHF
BOS,2017-11-03 01:05,-71.0097,42.3606,M,M,M,180.00,7.00,M,30.20,M,10.00,M,CLR,M,M,M,M,M,M,M,M,KBOS 030105Z AUTO 18007KT 10SM CLR A3020 RMK MADISHF
HYA,2017-11-03 01:05,-70.2800,41.6700,M,M,M,180.00,4.00,M,30.24,M,7.00,M,FEW,M,M,M,3500.00,M,M,M,M,KHYA 030105Z AUTO 18004KT 7SM FEW035 A3024 RMK MADISHF
OWD,2017-11-03 01:05,-71.1733,42.1912,M,M,M,170.00,5.00,M,30.21,M,10.00,M,BKN,M,M,M,800.00,M,M,M,M,KOWD 030105Z AUTO 17005KT 10SM BKN008 A3021 RMK MADISHF
BED,2017-11-03 01:05,-71.2890,42.4699,M,M,M,190.00,6.00,M,30.19,M,10.00,M,CLR,M,M,M,M,M,M,M,M,KBED 030105Z AUTO 19006KT 10SM CLR A3019 RMK MADISHF
ORE,2017-11-03 01:05,-72.2886,42.5701,M,M,M,0.00,0.00,M,30.18,M,10.00,M,FEW,M,M,M,3900.00,M,M,M,M,KORE 030105Z AUTO 00000KT 10SM FEW039 A3018 RMK MADISHF
PVC,2017-11-03 01:05,-70.2200,42.0700,M,M,M,170.00,11.00,M,30.23,M,10.00,M,CLR,M,M,M,M,M,M,M,M,KPVC 030105Z AUTO 17011KT 10SM CLR A3023 RMK MADISHF
EWB,2017-11-03 01:05,-70.9583,41.6764,M,M,M,210.00,4.00,M,30.22,M,10.00,M,CLR,M,M,M,M,M,M,M,M,KEWB 030105Z AUTO 21004KT 10SM CLR A3022 RMK MADISHF
ORH,2017-11-03 01:05,-71.8757,42.2673,M,M,M,200.00,10.00,M,30.21,M,10.00,M,FEW,M,M,M,700.00,M,M,M,M,KORH 030105Z AUTO 20010KT 10SM FEW007 A3021 RMK MADISHF
CQX,2017-11-03 01:05,-69.9933,41.6875,M,M,M,190.00,4.00,M,30.26,M,9.00,M,CLR,M,M,M,M,M,M,M,M,KCQX 030105Z AUTO 19004KT 9SM CLR A3026 RMK VRB04KT  MADISHF
FIT,2017-11-03 01:05,-71.7558,42.5519,M,M,M,160.00,3.00,M,30.19,M,10.00,M,CLR,M,M,M,M,M,M,M,M,KFIT 030105Z AUTO 16003KT 10SM CLR A3019 RMK MADISHF
PYM,2017-11-03 01:05,-70.7288,41.9090,M,M,M,190.00,4.00,M,30.23,M,10.00,M,CLR,M,M,M,M,M,M,M,M,KPYM 030105Z AUTO 19004KT 10SM CLR A3023 RMK MADISHF
TAN,2017-11-03 01:05,-71.0211,41.8756,M,M,M,0.00,0.00,M,30.22,M,6.00,M,CLR,M,M,M,M,M,M,M,BR,KTAN 030105Z AUTO 00000KT 6SM BR CLR A3022 RMK MADISHF
ORH,2017-11-03 01:07,-71.8757,42.2673,59.00,55.90,89.44,190.00,12.00,0.00,30.21,M,10.00,M,FEW,M,M,M,700.00,M,M,M,M,KORH 030107Z AUTO 19012KT 10SM FEW007 15/13 A3021 RMK AO2 T01500133
TAN,2017-11-03 01:09,-71.0211,41.8756,57.90,55.90,93.04,180.00,3.00,0.00,30.22,M,1.75,M,CLR,M,M,M,M,M,M,M,BR,KTAN 030109Z AUTO 18003KT 1 3/4SM BR CLR 14/13 A3022 RMK AO2 VIS 3/4V5 T01440133
EWB,2017-11-03 01:10,-70.9583,41.6764,M,M,M,210.00,4.00,M,30.23,M,9.00,M,CLR,M,M,M,M,M,M,M,M,KEWB 030110Z AUTO 21004KT 9SM CLR A3023 RMK MADISHF
BOS,2017-11-03 01:10,-71.0097,42.3606,M,M,M,190.00,7.00,M,30.21,M,10.00,M,CLR,M,M,M,M,M,M,M,M,KBOS 030110Z AUTO 19007KT 10SM CLR A3021 RMK MADISHF
TAN,2017-11-03 01:10,-71.0211,41.8756,M,M,M,0.00,0.00,M,30.22,M,1.75,M,CLR,M,M,M,M,M,M,M,BR,KTAN 030110Z AUTO 00000KT 2SM BR CLR A3022 RMK MADISHF
FIT,2017-11-03 01:10,-71.7558,42.5519,M,M,M,150.00,3.00,M,30.19,M,10.00,M,CLR,M,M,M,M,M,M,M,M,KFIT 030110Z AUTO 15003KT 10SM CLR A3019 RMK MADISHF
ORE,2017-11-03 01:10,-72.2886,42.5701,M,M,M,0.00,0.00,M,30.18,M,10.00,M,FEW,M,M,M,3999.00,M,M,M,M,KORE 030110Z AUTO 00000KT 10SM FEW039 A3018 RMK MADISHF
PYM,2017-11-03 01:10,-70.7288,41.9090,M,M,M,190.00,3.00,M,30.23,M,10.00,M,CLR,M,M,M,M,M,M,M,M,KPYM 030110Z AUTO 19003KT 10SM CLR A3023 RMK MADISHF
PVC,2017-11-03 01:10,-70.2200,42.0700,M,M,M,170.00,10.00,M,30.24,M,10.00,M,CLR,M,M,M,M,M,M,M,M,KPVC 030110Z AUTO 17010KT 10SM CLR A3024 RMK MADISHF
ORH,2017-11-03 01:10,-71.8757,42.2673,M,M,M,M,M,M,30.21,M,10.00,M,FEW,M,M,M,700.00,M,M,M,M,KORH 030110Z AUTO /////KT 10SM FEW007 A3021 RMK MADISHF
OWD,2017-11-03 01:10,-71.1733,42.1912,M,M,M,170.00,6.00,M,30.21,M,10.00,M,SCT,M,M,M,800.00,M,M,M,M,KOWD 030110Z AUTO 17006KT 10SM SCT008 A3021 RMK MADISHF
HYA,2017-11-03 01:10,-70.2800,41.6700,M,M,M,170.00,4.00,M,30.24,M,7.00,M,CLR,M,M,M,M,M,M,M,M,KHYA 030110Z AUTO 17004KT 7SM CLR A3024 RMK MADISHF
BED,2017-11-03 01:10,-71.2890,42.4699,M,M,M,190.00,7.00,M,30.19,M,10.00,M,CLR,M,M,M,M,M,M,M,M,KBED 030110Z AUTO 19007KT 10SM CLR A3019 RMK MADISHF
OWD,2017-11-03 01:14,-71.1733,42.1912,63.00,61.00,93.18,170.00,5.00,0.00,30.21,M,10.00,M,FEW,M,M,M,800.00,M,M,M,M,KOWD 030114Z AUTO 17005KT 10SM FEW008 17/16 A3021 RMK AO2 T01720161
FIT,2017-11-03 01:15,-71.7558,42.5519,M,M,M,140.00,4.00,M,30.19,M,10.00,M,CLR,M,M,M,M,M,M,M,M,KFIT 030115Z AUTO 14004KT 10SM CLR A3019 RMK MADISHF
PVC,2017-11-03 01:15,-70.2200,42.0700,M,M,M,170.00,9.00,M,30.24,M,10.00,M,CLR,M,M,M,M,M,M,M,M,KPVC 030115Z AUTO 17009KT 10SM CLR A3024 RMK MADISHF
BED,2017-11-03 01:15,-71.2890,42.4699,M,M,M,180.00,7.00,M,30.19,M,10.00,M,CLR,M,M,M,M,M,M,M,M,KBED 030115Z AUTO 18007KT 10SM CLR A3019 RMK MADISHF
ORH,2017-11-03 01:15,-71.8757,42.2673,M,M,M,M,M,M,30.21,M,10.00,M,FEW,M,M,M,600.00,M,M,M,M,KORH 030115Z AUTO /////KT 10SM FEW006 A3021 RMK MADISHF
EWB,2017-11-03 01:15,-70.9583,41.6764,M,M,M,190.00,4.00,M,30.22,M,7.00,M,CLR,M,M,M,M,M,M,M,M,KEWB 030115Z AUTO 19004KT 7SM CLR A3022 RMK MADISHF
OWD,2017-11-03 01:15,-71.1733,42.1912,M,M,M,170.00,5.00,M,30.20,M,10.00,M,FEW,M,M,M,800.00,M,M,M,M,KOWD 030115Z AUTO 17005KT 10SM FEW008 A3020 RMK MADISHF
TAN,2017-11-03 01:15,-71.0211,41.8756,M,M,M,140.00,3.00,M,30.22,M,1.50,M,CLR,M,M,M,M,M,M,M,BR,KTAN 030115Z AUTO 14003KT 1 1/2SM BR CLR A3022 RMK MADISHF
HYA,2017-11-03 01:15,-70.2800,41.6700,M,M,M,170.00,5.00,M,30.24,M,7.00,M,CLR,M,M,M,M,M,M,M,M,KHYA 030115Z AUTO 17005KT 7SM CLR A3024 RMK MADISHF
CQX,2017-11-03 01:15,-69.9933,41.6875,M,M,M,200.00,4.00,M,30.26,M,10.00,M,CLR,M,M,M,M,M,M,M,M,KCQX 030115Z AUTO 20004KT 10SM CLR A3026 RMK MADISHF
PYM,2017-11-03 01:15,-70.7288,41.9090,M,M,M,180.00,4.00,M,30.23,M,10.00,M,CLR,M,M,M,M,M,M,M,M,KPYM 030115Z AUTO 18004KT 10SM CLR A3023 RMK MADISHF
BOS,2017-11-03 01:15,-71.0097,42.3606,M,M,M,180.00,7.00,M,30.20,M,10.00,M,CLR,M,M,M,M,M,M,M,M,KBOS 030115Z AUTO 18007KT 10SM CLR A3020 RMK MADISHF
ORE,2017-11-03 01:15,-72.2886,42.5701,M,M,M,0.00,0.00,M,30.18,M,10.00,M,FEW,M,M,M,3999.00,M,M,M,M,KORE 030115Z AUTO 00000KT 10SM FEW039 A3018 RMK MADISHF
GHG,2017-11-03 01:15,-70.6721,42.0982,60.80,60.80,100.00,200.00,4.00,0.00,30.22,M,10.00,M,CLR,M,M,M,M,M,M,M,M,KGHG 030115Z AUTO 20004KT 10SM CLR 16/16 A3022 RMK AO2
FMH,2017-11-03 01:15,-70.5215,41.6585,59.00,59.00,100.00,220.00,4.00,0.00,30.25,M,10.00,M,FEW,M,M,M,300.00,M,M,M,M,KFMH 030115Z AUTO 22004KT 10SM FEW003 15/15 A3025 RMK AO2
PVC,2017-11-03 01:20,-70.2200,42.0700,M,M,M,170.00,8.00,M,30.24,M,10.00,M,CLR,M,M,M,M,M,M,M,M,KPVC 030120Z AUTO 17008KT 10SM CLR A3024 RMK MADISHF
CQX,2017-11-03 01:20,-69.9933,41.6875,M,M,M,200.00,5.00,M,30.26,M,10.00,M,CLR,M,M,M,M,M,M,M,M,KCQX 030120Z AUTO 20005KT 10SM CLR A3026 RMK VRB05KT  MADISHF
HYA,2017-11-03 01:20,-70.2800,41.6700,M,M,M,170.00,3.00,M,30.24,M,7.00,M,CLR,M,M,M,M,M,M,M,M,KHYA 030120Z AUTO 17003KT 7SM CLR A3024 RMK MADISHF
ORE,2017-11-03 01:20,-72.2886,42.5701,M,M,M,0.00,0.00,M,30.18,M,10.00,M,FEW,M,M,M,3999.00,M,M,M,M,KORE 030120Z AUTO 00000KT 10SM FEW039 A3018 RMK MADISHF
ORH,2017-11-03 01:20,-71.8757,42.2673,M,M,M,M,M,M,30.21,M,10.00,16.00,FEW,M,M,M,600.00,M,M,M,M,KORH 030120Z AUTO /////G16KT 10SM FEW006 A3021 RMK MADISHF
EWB,2017-11-03 01:20,-70.9583,41.6764,M,M,M,170.00,4.00,M,30.22,M,7.00,M,CLR,M,M,M,M,M,M,M,M,KEWB 030120Z AUTO 17004KT 7SM CLR A3022 RMK MADISHF
PYM,2017-11-03 01:20,-70.7288,41.9090,M,M,M,200.00,3.00,M,30.23,M,10.00,M,CLR,M,M,M,M,M,M,M,M,KPYM 030120Z AUTO 20003KT 10SM CLR A3023 RMK MADISHF
BOS,2017-11-03 01:20,-71.0097,42.3606,M,M,M,190.00,7.00,M,30.21,M,10.00,M,FEW,M,M,M,1699.00,M,M,M,M,KBOS 030120Z AUTO 19007KT 10SM FEW016 A3021 RMK MADISHF
OWD,2017-11-03 01:20,-71.1733,42.1912,M,M,M,160.00,6.00,M,30.20,M,10.00,M,FEW,M,M,M,800.00,M,M,M,M,KOWD 030120Z AUTO 16006KT 10SM FEW008 A3020 RMK MADISHF
BED,2017-11-03 01:20,-71.2890,42.4699,M,M,M,180.00,7.00,M,30.19,M,10.00,M,CLR,M,M,M,M,M,M,M,M,KBED 030120Z AUTO 18007KT 10SM CLR A3019 RMK MADISHF
TAN,2017-11-03 01:20,-71.0211,41.8756,57.90,55.90,93.04,140.00,3.00,0.00,30.22,M,3.00,M,CLR,M,M,M,M,M,M,M,BR,KTAN 030120Z AUTO 14003KT 3SM BR CLR 14/13 A3022 RMK AO2 T01440133
PVC,2017-11-03 01:25,-70.2200,42.0700,M,M,M,170.00,8.00,M,30.24,M,10.00,M,CLR,M,M,M,M,M,M,M,M,KPVC 030125Z AUTO 17008KT 10SM CLR A3024 RMK MADISHF
TAN,2017-11-03 01:25,-71.0211,41.8756,M,M,M,0.00,0.00,M,30.22,M,4.00,M,CLR,M,M,M,M,M,M,M,BR,KTAN 030125Z AUTO 00000KT 4SM BR CLR A3022 RMK MADISHF
ORE,2017-11-03 01:25,-72.2886,42.5701,M,M,M,0.00,0.00,M,30.18,M,10.00,M,FEW,FEW,M,M,3999.00,12000.00,M,M,M,KORE 030125Z AUTO 00000KT 10SM FEW039 FEW120 A3018 RMK MADISHF
BOS,2017-11-03 01:25,-71.0097,42.3606,M,M,M,190.00,8.00,M,30.21,M,10.00,M,FEW,M,M,M,1300.00,M,M,M,M,KBOS 030125Z AUTO 19008KT 10SM FEW013 A3021 RMK MADISHF
OWD,2017-11-03 01:25,-71.1733,42.1912,M,M,M,170.00,6.00,M,30.20,M,10.00,M,FEW,M,M,M,800.00,M,M,M,M,KOWD 030125Z AUTO 17006KT 10SM FEW008 A3020 RMK MADISHF
HYA,2017-11-03 01:25,-70.2800,41.6700,M,M,M,170.00,4.00,M,30.24,M,7.00,M,CLR,M,M,M,M,M,M,M,M,KHYA 030125Z AUTO 17004KT 7SM CLR A3024 RMK MADISHF
ORH,2017-11-03 01:25,-71.8757,42.2673,M,M,M,M,M,M,30.21,M,10.00,M,FEW,M,M,M,600.00,M,M,M,M,KORH 030125Z AUTO /////KT 10SM FEW006 A3021 RMK MADISHF
FIT,2017-11-03 01:25,-71.7558,42.5519,M,M,M,140.00,3.00,M,30.20,M,10.00,M,CLR,M,M,M,M,M,M,M,M,KFIT 030125Z AUTO 14003KT 10SM CLR A3020 RMK MADISHF
CQX,2017-11-03 01:25,-69.9933,41.6875,M,M,M,220.00,4.00,M,30.26,M,10.00,M,CLR,M,M,M,M,M,M,M,M,KCQX 030125Z AUTO 22004KT 10SM CLR A3026 RMK MADISHF
BED,2017-11-03 01:25,-71.2890,42.4699,M,M,M,180.00,6.00,M,30.19,M,10.00,M,CLR,M,M,M,M,M,M,M,M,KBED 030125Z AUTO 18006KT 10SM CLR A3019 RMK MADISHF
EWB,2017-11-03 01:25,-70.9583,41.6764,M,M,M,180.00,4.00,M,30.22,M,9.00,M,CLR,M,M,M,M,M,M,M,M,KEWB 030125Z AUTO 18004KT 9SM CLR A3022 RMK MADISHF
PYM,2017-11-03 01:25,-70.7288,41.9090,M,M,M,180.00,3.00,M,30.23,M,10.00,M,CLR,M,M,M,M,M,M,M,M,KPYM 030125Z AUTO 18003KT 10SM CLR A3023 RMK MADISHF
TAN,2017-11-03 01:28,-71.0211,41.8756,55.90,55.00,96.78,0.00,0.00,0.00,30.22,M,1.50,M,FEW,M,M,M,600.00,M,M,M,BR,KTAN 030128Z AUTO 00000KT 1 1/2SM BR FEW006 13/13 A3022 RMK AO2 VIS 1/2V5 T01330128
PVC,2017-11-03 01:30,-70.2200,42.0700,M,M,M,170.00,9.00,M,30.24,M,10.00,M,CLR,M,M,M,M,M,M,M,M,KPVC 030130Z AUTO 17009KT 10SM CLR A3024 RMK MADISHF
BOS,2017-11-03 01:30,-71.0097,42.3606,M,M,M,190.00,8.00,M,30.20,M,10.00,M,FEW,M,M,M,1300.00,M,M,M,M,KBOS 030130Z AUTO 19008KT 10SM FEW013 A3020 RMK MADISHF
TAN,2017-11-03 01:30,-71.0211,41.8756,M,M,M,0.00,0.00,M,30.22,M,1.25,M,FEW,M,M,M,600.00,M,M,M,BR,KTAN 030130Z AUTO 00000KT 1 1/2SM BR FEW006 A3022 RMK MADISHF
ORE,2017-11-03 01:30,-72.2886,42.5701,M,M,M,180.00,3.00,M,30.18,M,10.00,M,FEW,M,M,M,12000.00,M,M,M,M,KORE 030130Z AUTO 18003KT 10SM FEW120 A3018 RMK MADISHF
EWB,2017-11-03 01:30,-70.9583,41.6764,M,M,M,220.00,3.00,M,30.22,M,10.00,M,CLR,M,M,M,M,M,M,M,M,KEWB 030130Z AUTO 22003KT 10SM CLR A3022 RMK MADISHF
ORH,2017-11-03 01:30,-71.8757,42.2673,M,M,M,M,M,M,30.20,M,10.00,M,FEW,M,M,M,499.00,M,M,M,M,KORH 030130Z AUTO /////KT 10SM FEW004 A3020 RMK MADISHF
PYM,2017-11-03 01:30,-70.7288,41.9090,M,M,M,200.00,4.00,M,30.23,M,10.00,M,CLR,M,M,M,M,M,M,M,M,KPYM 030130Z AUTO 20004KT 10SM CLR A3023 RMK MADISHF
OWD,2017-11-03 01:30,-71.1733,42.1912,M,M,M,160.00,4.00,M,30.21,M,10.00,M,FEW,M,M,M,800.00,M,M,M,M,KOWD 030130Z AUTO 16004KT 10SM FEW008 A3021 RMK MADISHF
FIT,2017-11-03 01:30,-71.7558,42.5519,M,M,M,130.00,3.00,M,30.20,M,10.00,M,CLR,M,M,M,M,M,M,M,M,KFIT 030130Z AUTO 13003KT 10SM CLR A3020 RMK MADISHF
BED,2017-11-03 01:30,-71.2890,42.4699,M,M,M,170.00,7.00,M,30.18,M,10.00,M,CLR,M,M,M,M,M,M,M,M,KBED 030130Z AUTO 17007KT 10SM CLR A3018 RMK MADISHF
HYA,2017-11-03 01:30,-70.2800,41.6700,M,M,M,180.00,3.00,M,30.24,M,7.00,M,CLR,M,M,M,M,M,M,M,M,KHYA 030130Z AUTO 18003KT 7SM CLR A3024 RMK MADISHF
TAN,2017-11-03 01:31,-71.0211,41.8756,55.90,55.00,96.78,0.00,0.00,0.00,30.22,M,1.00,M,VV ,M,M,M,500.00,M,M,M,BR,KTAN 030131Z AUTO 00000KT 1SM BR VV005 13/13 A3022 RMK AO2 VIS 1/2V4 T01330128
ORE,2017-11-03 01:35,-72.2886,42.5701,M,M,M,180.00,4.00,M,30.18,M,10.00,M,FEW,SCT,M,M,3999.00,12000.00,M,M,M,KORE 030135Z AUTO 18004KT 10SM FEW039 SCT120 A3018 RMK MADISHF
FIT,2017-11-03 01:35,-71.7558,42.5519,M,M,M,130.00,4.00,M,30.20,M,10.00,M,CLR,M,M,M,M,M,M,M,M,KFIT 030135Z AUTO 13004KT 10SM CLR A3020 RMK MADISHF
PVC,2017-11-03 01:35,-70.2200,42.0700,M,M,M,170.00,8.00,M,30.24,M,10.00,M,CLR,M,M,M,M,M,M,M,M,KPVC 030135Z AUTO 17008KT 10SM CLR A3024 RMK MADISHF
OWD,2017-11-03 01:35,-71.1733,42.1912,M,M,M,170.00,4.00,M,30.20,M,10.00,M,FEW,M,M,M,800.00,M,M,M,M,KOWD 030135Z AUTO 17004KT 10SM FEW008 A3020 RMK MADISHF
EWB,2017-11-03 01:35,-70.9583,41.6764,M,M,M,200.00,3.00,M,30.22,M,10.00,M,CLR,M,M,M,M,M,M,M,M,KEWB 030135Z AUTO 20003KT 10SM CLR A3022 RMK MADISHF
ORH,2017-11-03 01:35,-71.8757,42.2673,M,M,M,M,M,M,30.20,M,10.00,M,SCT,M,M,M,499.00,M,M,M,M,KORH 030135Z AUTO /////KT 10SM SCT004 A3020 RMK MADISHF
CQX,2017-11-03 01:35,-69.9933,41.6875,M,M,M,200.00,5.00,M,30.26,M,10.00,M,CLR,M,M,M,M,M,M,M,M,KCQX 030135Z AUTO 20005KT 10SM CLR A3026 RMK VRB05KT  MADISHF
PYM,2017-11-03 01:35,-70.7288,41.9090,M,M,M,190.00,3.00,M,30.23,M,10.00,M,CLR,M,M,M,M,M,M,M,M,KPYM 030135Z AUTO 19003KT 10SM CLR A3023 RMK MADISHF
HYA,2017-11-03 01:35,-70.2800,41.6700,M,M,M,160.00,3.00,M,30.24,M,7.00,M,CLR,M,M,M,M,M,M,M,M,KHYA 030135Z AUTO 16003KT 7SM CLR A3024 RMK MADISHF
BED,2017-11-03 01:35,-71.2890,42.4699,M,M,M,170.00,6.00,M,30.18,M,10.00,M,CLR,M,M,M,M,M,M,M,M,KBED 030135Z AUTO 17006KT 10SM CLR A3018 RMK MADISHF
BOS,2017-11-03 01:35,-71.0097,42.3606,M,M,M,180.00,8.00,M,30.21,M,10.00,M,FEW,M,M,M,1300.00,M,M,M,M,KBOS 030135Z AUTO 18008KT 10SM FEW013 A3021 RMK MADISHF
FMH,2017-11-03 01:35,-70.5215,41.6585,59.00,59.00,100.00,180.00,6.00,0.00,30.25,M,10.00,M,CLR,M,M,M,M,M,M,M,M,KFMH 030135Z AUTO 18006KT 10SM CLR 15/15 A3025 RMK AO2
GHG,2017-11-03 01:35,-70.6721,42.0982,60.80,60.80,100.00,200.00,4.00,0.00,30.22,M,10.00,M,CLR,M,M,M,M,M,M,M,M,KGHG 030135Z AUTO 20004KT 10SM CLR 16/16 A3022 RMK AO2
TAN,2017-11-03 01:39,-71.0211,41.8756,57.90,55.90,93.04,180.00,3.00,0.00,30.22,M,1.50,M,CLR,M,M,M,M,M,M,M,BR,KTAN 030139Z AUTO 18003KT 1 1/2SM BR CLR 14/13 A3022 RMK AO2 T01440133
CQX,2017-11-03 01:40,-69.9933,41.6875,M,M,M,200.00,3.00,M,30.26,M,9.00,M,CLR,M,M,M,M,M,M,M,M,KCQX 030140Z AUTO 20003KT 9SM CLR A3026 RMK VRB03KT  MADISHF
BOS,2017-11-03 01:40,-71.0097,42.3606,M,M,M,190.00,8.00,M,30.21,M,10.00,M,FEW,M,M,M,1300.00,M,M,M,M,KBOS 030140Z AUTO 19008KT 10SM FEW013 A3021 RMK MADISHF
ORE,2017-11-03 01:40,-72.2886,42.5701,M,M,M,180.00,6.00,M,30.18,M,10.00,M,FEW,SCT,M,M,3999.00,12000.00,M,M,M,KORE 030140Z AUTO 18006KT 10SM FEW039 SCT120 A3018 RMK MADISHF
HYA,2017-11-03 01:40,-70.2800,41.6700,M,M,M,0.00,0.00,M,30.23,M,7.00,M,CLR,M,M,M,M,M,M,M,M,KHYA 030140Z AUTO 00000KT 7SM CLR A3023 RMK MADISHF
PVC,2017-11-03 01:40,-70.2200,42.0700,M,M,M,170.00,8.00,M,30.24,M,10.00,M,CLR,M,M,M,M,M,M,M,M,KPVC 030140Z AUTO 17008KT 10SM CLR A3024 RMK MADISHF
PYM,2017-11-03 01:40,-70.7288,41.9090,M,M,M,190.00,4.00,M,30.23,M,10.00,M,CLR,M,M,M,M,M,M,M,M,KPYM 030140Z AUTO 19004KT 10SM CLR A3023 RMK MADISHF
OWD,2017-11-03 01:40,-71.1733,42.1912,M,M,M,160.00,5.00,M,30.21,M,10.00,M,FEW,M,M,M,900.00,M,M,M,M,KOWD 030140Z AUTO 16005KT 10SM FEW009 A3021 RMK MADISHF
EWB,2017-11-03 01:40,-70.9583,41.6764,M,M,M,200.00,4.00,M,30.22,M,10.00,M,CLR,M,M,M,M,M,M,M,M,KEWB 030140Z AUTO 20004KT 10SM CLR A3022 RMK MADISHF
BED,2017-11-03 01:40,-71.2890,42.4699,M,M,M,170.00,5.00,M,30.18,M,10.00,M,CLR,M,M,M,M,M,M,M,M,KBED 030140Z AUTO 17005KT 10SM CLR A3018 RMK MADISHF
ORH,2017-11-03 01:40,-71.8757,42.2673,M,M,M,M,M,M,30.20,M,10.00,M,SCT,M,M,M,499.00,M,M,M,M,KORH 030140Z AUTO /////KT 10SM SCT004 A3020 RMK MADISHF
TAN,2017-11-03 01:40,-71.0211,41.8756,M,M,M,0.00,0.00,M,30.22,M,1.75,M,CLR,M,M,M,M,M,M,M,BR,KTAN 030140Z AUTO 00000KT 2SM BR CLR A3022 RMK MADISHF
TAN,2017-11-03 01:43,-71.0211,41.8756,57.90,55.90,93.04,0.00,0.00,0.00,30.22,M,3.00,M,CLR,M,M,M,M,M,M,M,BR,KTAN 030143Z AUTO 00000KT 3SM BR CLR 14/13 A3022 RMK AO2 T01440133
ORE,2017-11-03 01:45,-72.2886,42.5701,M,M,M,180.00,4.00,M,30.18,M,10.00,M,FEW,SCT,M,M,3999.00,12000.00,M,M,M,KORE 030145Z AUTO 18004KT 10SM FEW039 SCT120 A3018 RMK VRB04KT  MADISHF
BED,2017-11-03 01:45,-71.2890,42.4699,M,M,M,170.00,6.00,M,30.18,M,10.00,M,CLR,M,M,M,M,M,M,M,M,KBED 030145Z AUTO 17006KT 10SM CLR A3018 RMK MADISHF
BOS,2017-11-03 01:45,-71.0097,42.3606,M,M,M,180.00,8.00,M,30.21,M,10.00,M,FEW,M,M,M,1300.00,M,M,M,M,KBOS 030145Z AUTO 18008KT 10SM FEW013 A3021 RMK MADISHF
FIT,2017-11-03 01:45,-71.7558,42.5519,M,M,M,130.00,4.00,M,30.20,M,10.00,M,CLR,M,M,M,M,M,M,M,M,KFIT 030145Z AUTO 13004KT 10SM CLR A3020 RMK MADISHF
CQX,2017-11-03 01:45,-69.9933,41.6875,M,M,M,200.00,3.00,M,30.26,M,9.00,M,CLR,M,M,M,M,M,M,M,M,KCQX 030145Z AUTO 20003KT 9SM CLR A3026 RMK MADISHF
PVC,2017-11-03 01:45,-70.2200,42.0700,M,M,M,170.00,8.00,M,30.24,M,10.00,M,CLR,M,M,M,M,M,M,M,M,KPVC 030145Z AUTO 17008KT 10SM CLR A3024 RMK MADISHF
TAN,2017-11-03 01:45,-71.0211,41.8756,M,M,M,150.00,3.00,M,30.22,M,5.00,M,CLR,M,M,M,M,M,M,M,BR,KTAN 030145Z AUTO 15003KT 5SM BR CLR A3022 RMK VRB03KT  MADISHF
ORH,2017-11-03 01:45,-71.8757,42.2673,M,M,M,200.00,10.00,M,30.20,M,10.00,M,SCT,M,M,M,499.00,M,M,M,M,KORH 030145Z AUTO 20010KT 10SM SCT004 A3020 RMK MADISHF
OWD,2017-11-03 01:45,-71.1733,42.1912,M,M,M,170.00,5.00,M,30.20,M,10.00,M,FEW,M,M,M,900.00,M,M,M,M,KOWD 030145Z AUTO 17005KT 10SM FEW009 A3020 RMK MADISHF
EWB,2017-11-03 01:45,-70.9583,41.6764,M,M,M,200.00,3.00,M,30.22,M,10.00,M,CLR,M,M,M,M,M,M,M,M,KEWB 030145Z AUTO 20003KT 10SM CLR A3022 RMK MADISHF
HYA,2017-11-03 01:45,-70.2800,41.6700,M,M,M,160.00,5.00,M,30.23,M,6.00,M,CLR,M,M,M,M,M,M,M,BR,KHYA 030145Z AUTO 16005KT 6SM BR CLR A3023 RMK MADISHF
BOS,2017-11-03 01:50,-71.0097,42.3606,M,M,M,180.00,7.00,M,30.21,M,10.00,M,FEW,M,M,M,1300.00,M,M,M,M,KBOS 030150Z AUTO 18007KT 10SM FEW013 A3021 RMK MADISHF
OWD,2017-11-03 01:50,-71.1733,42.1912,M,M,M,160.00,4.00,M,30.20,M,10.00,M,SCT,M,M,M,800.00,M,M,M,M,KOWD 030150Z AUTO 16004KT 10SM SCT008 A3020 RMK MADISHF
BED,2017-11-03 01:50,-71.2890,42.4699,M,M,M,170.00,7.00,M,30.18,M,10.00,M,CLR,M,M,M,M,M,M,M,M,KBED 030150Z AUTO 17007KT 10SM CLR A3018 RMK MADISHF
ORH,2017-11-03 01:50,-71.8757,42.2673,M,M,M,200.00,10.00,M,30.20,M,10.00,M,SCT,M,M,M,499.00,M,M,M,M,KORH 030150Z AUTO 20010KT 10SM SCT004 A3020 RMK MADISHF
TAN,2017-11-03 01:50,-71.0211,41.8756,M,M,M,180.00,3.00,M,30.22,M,8.00,M,CLR,M,M,M,M,M,M,M,M,KTAN 030150Z AUTO 18003KT 8SM CLR A3022 RMK VRB03KT  MADISHF
PVC,2017-11-03 01:50,-70.2200,42.0700,M,M,M,170.00,8.00,M,30.24,M,10.00,M,CLR,M,M,M,M,M,M,M,M,KPVC 030150Z AUTO 17008KT 10SM CLR A3024 RMK MADISHF
PYM,2017-11-03 01:50,-70.7288,41.9090,M,M,M,0.00,0.00,M,30.23,M,10.00,M,CLR,M,M,M,M,M,M,M,M,KPYM 030150Z AUTO 00000KT 10SM CLR A3023 RMK MADISHF
FIT,2017-11-03 01:50,-71.7558,42.5519,M,M,M,130.00,4.00,M,30.20,M,10.00,M,CLR,M,M,M,M,M,M,M,M,KFIT 030150Z AUTO 13004KT 10SM CLR A3020 RMK MADISHF
EWB,2017-11-03 01:50,-70.9583,41.6764,M,M,M,210.00,3.00,M,30.22,M,10.00,M,CLR,M,M,M,M,M,M,M,M,KEWB 030150Z AUTO 21003KT 10SM CLR A3022 RMK MADISHF
HYA,2017-11-03 01:50,-70.2800,41.6700,M,M,M,160.00,4.00,M,30.23,M,6.00,M,CLR,M,M,M,M,M,M,M,BR,KHYA 030150Z AUTO 16004KT 6SM BR CLR A3023 RMK MADISHF
CQX,2017-11-03 01:50,-69.9933,41.6875,M,M,M,190.00,4.00,M,30.26,M,9.00,M,CLR,M,M,M,M,M,M,M,M,KCQX 030150Z AUTO 19004KT 9SM CLR A3026 RMK MADISHF
ORE,2017-11-03 01:50,-72.2886,42.5701,M,M,M,0.00,0.00,M,30.18,M,10.00,M,FEW,SCT,M,M,3999.00,12000.00,M,M,M,KORE 030150Z AUTO 00000KT 10SM FEW039 SCT120 A3018 RMK MADISHF
TAN,2017-11-03 01:52,-71.0211,41.8756,60.10,57.90,92.43,0.00,0.00,0.00,30.22,1023.30,8.00,M,CLR,M,M,M,M,M,M,M,M,KTAN 030152Z AUTO 00000KT 8SM CLR 16/14 A3022 RMK AO2 SLP233 T01560144
ORE,2017-11-03 01:52,-72.2886,42.5701,55.90,55.90,100.00,0.00,0.00,0.00,30.18,1022.10,10.00,M,FEW,SCT,M,M,4000.00,12000.00,M,M,M,KORE 030152Z AUTO 00000KT 10SM FEW040 SCT120 13/13 A3018 RMK AO2 SLP221 T01330133 TSNO
PYM,2017-11-03 01:52,-70.7288,41.9090,61.00,59.00,93.12,190.00,4.00,0.00,30.23,1023.70,10.00,M,CLR,M,M,M,M,M,M,M,M,KPYM 030152Z AUTO 19004KT 10SM CLR 16/15 A3023 RMK AO2 SLP237 T01610150
CQX,2017-11-03 01:52,-69.9933,41.6875,59.00,59.00,100.00,M,4.00,0.00,30.26,1024.80,9.00,M,CLR,M,M,M,M,M,M,M,M,KCQX 030152Z AUTO VRB04KT 9SM CLR 15/15 A3026 RMK AO2 SLP248 T01500150
FIT,2017-11-03 01:52,-71.7558,42.5519,63.00,60.10,90.25,130.00,4.00,0.00,30.20,1022.60,10.00,M,CLR,M,M,M,M,M,M,M,M,KFIT 030152Z AUTO 13004KT 10SM CLR 17/16 A3020 RMK AO2 SLP226 T01720156
OWD,2017-11-03 01:53,-71.1733,42.1912,63.00,61.00,93.18,170.00,5.00,0.00,30.20,1022.70,10.00,M,SCT,M,M,M,800.00,M,M,M,M,KOWD 030153Z AUTO 17005KT 10SM SCT008 17/16 A3020 RMK AO2 SLP227 T01720161
EWB,2017-11-03 01:53,-70.9583,41.6764,60.10,59.00,96.15,0.00,0.00,0.00,30.22,1023.20,10.00,M,CLR,M,M,M,M,M,M,M,M,KEWB 030153Z 00000KT 10SM CLR 16/15 A3022 RMK AO2 SLP232 T01560150
ORH,2017-11-03 01:54,-71.8757,42.2673,59.00,55.90,89.44,210.00,12.00,0.00,30.20,1022.80,10.00,M,SCT,M,M,M,500.00,M,M,M,M,KORH 030154Z AUTO 21012KT 10SM SCT005 15/13 A3020 RMK AO2 SLP228 T01500133
BOS,2017-11-03 01:54,-71.0097,42.3606,61.00,59.00,93.12,180.00,8.00,0.00,30.21,1022.90,10.00,M,FEW,FEW,SCT,M,1300.00,13000.00,23000.00,M,M,KBOS 030154Z 18008KT 10SM FEW013 FEW130 SCT230 16/15 A3021 RMK AO2 SLP229 T01610150
CQX,2017-11-03 01:55,-69.9933,41.6875,M,M,M,190.00,4.00,M,30.26,M,9.00,M,CLR,M,M,M,M,M,M,M,M,KCQX 030155Z AUTO 19004KT 9SM CLR A3026 RMK MADISHF
PYM,2017-11-03 01:55,-70.7288,41.9090,M,M,M,190.00,4.00,M,30.23,M,10.00,M,CLR,M,M,M,M,M,M,M,M,KPYM 030155Z AUTO 19004KT 10SM CLR A3023 RMK MADISHF
PVC,2017-11-03 01:55,-70.2200,42.0700,M,M,M,180.00,7.00,M,30.24,M,10.00,M,CLR,M,M,M,M,M,M,M,M,KPVC 030155Z AUTO 18007KT 10SM CLR A3024 RMK MADISHF
EWB,2017-11-03 01:55,-70.9583,41.6764,M,M,M,0.00,0.00,M,30.22,M,10.00,M,CLR,M,M,M,M,M,M,M,M,KEWB 030155Z AUTO 00000KT 10SM CLR A3022 RMK MADISHF
OWD,2017-11-03 01:55,-71.1733,42.1912,M,M,M,160.00,4.00,M,30.20,M,10.00,M,SCT,M,M,M,800.00,M,M,M,M,KOWD 030155Z AUTO 16004KT 10SM SCT008 A3020 RMK MADISHF
HYA,2017-11-03 01:55,-70.2800,41.6700,M,M,M,160.00,4.00,M,30.23,M,7.00,M,CLR,M,M,M,M,M,M,M,M,KHYA 030155Z AUTO 16004KT 7SM CLR A3023 RMK MADISHF
ORH,2017-11-03 01:55,-71.8757,42.2673,M,M,M,M,M,M,30.20,M,10.00,M,SCT,M,M,M,499.00,M,M,M,M,KORH 030155Z AUTO /////KT 10SM SCT004 A3020 RMK MADISHF
BED,2017-11-03 01:55,-71.2890,42.4699,M,M,M,170.00,6.00,M,30.18,M,10.00,M,CLR,M,M,M,M,M,M,M,M,KBED 030155Z AUTO 17006KT 10SM CLR A3018 RMK MADISHF
BOS,2017-11-03 01:55,-71.0097,42.3606,M,M,M,180.00,8.00,M,30.21,M,10.00,M,FEW,M,M,M,1300.00,M,M,M,M,KBOS 030155Z AUTO 18008KT 10SM FEW013 A3021 RMK MADISHF
FIT,2017-11-03 01:55,-71.7558,42.5519,M,M,M,130.00,5.00,M,30.19,M,10.00,M,CLR,M,M,M,M,M,M,M,M,KFIT 030155Z AUTO 13005KT 10SM CLR A3019 RMK MADISHF
GHG,2017-11-03 01:55,-70.6721,42.0982,60.80,60.80,100.00,190.00,5.00,0.00,30.22,M,10.00,M,CLR,M,M,M,M,M,M,M,M,KGHG 030155Z AUTO 19005KT 10SM CLR 16/16 A3022 RMK AO2
FMH,2017-11-03 01:55,-70.5215,41.6585,60.80,60.80,100.00,170.00,7.00,0.00,30.25,M,10.00,M,CLR,M,M,M,M,M,M,M,M,KFMH 030155Z AUTO 17007KT 10SM CLR 16/16 A3025 RMK AO2
HYA,2017-11-03 01:56,-70.2800,41.6700,61.00,60.10,96.85,160.00,4.00,0.00,30.23,1023.80,7.00,M,CLR,M,M,M,M,M,M,M,M,KHYA 030156Z 16004KT 7SM CLR 16/16 A3023 RMK AO2 SLP238 T01610156
MQE,2017-11-03 01:56,-71.1142,42.2121,60.10,57.90,92.43,180.00,13.00,0.00,30.20,1023.80,M,M,M,M,M,M,M,M,M,M,M,KMQE 030156Z AUTO 18013KT 16/14 A3020 RMK AO1 SLP238 T01560144
PVC,2017-11-03 01:56,-70.2200,42.0700,60.10,59.00,96.15,180.00,7.00,0.00,30.24,1023.90,10.00,M,CLR,M,M,M,M,M,M,M,M,KPVC 030156Z AUTO 18007KT 10SM CLR 16/15 A3024 RMK AO2 SLP239 T01560150
BED,2017-11-03 01:56,-71.2890,42.4699,61.00,59.00,93.12,170.00,6.00,0.00,30.18,1023.30,10.00,M,CLR,M,M,M,M,M,M,M,M,KBED 030156Z 17006KT 10SM CLR 16/15 A3018 RMK AO2 SLP233 T01610150
BOS,2017-11-03 02:00,-71.0097,42.3606,M,M,M,190.00,7.00,M,30.21,M,10.00,M,FEW,M,M,M,1300.00,M,M,M,M,KBOS 030200Z AUTO 19007KT 10SM FEW013 A3021 RMK MADISHF
EWB,2017-11-03 02:00,-70.9583,41.6764,M,M,M,0.00,0.00,M,30.22,M,10.00,M,CLR,M,M,M,M,M,M,M,M,KEWB 030200Z AUTO 00000KT 10SM CLR A3022 RMK MADISHF
HYA,2017-11-03 02:00,-70.2800,41.6700,M,M,M,170.00,4.00,M,30.23,M,7.00,M,CLR,M,M,M,M,M,M,M,M,KHYA 030200Z AUTO 17004KT 7SM CLR A3023 RMK MADISHF
BED,2017-11-03 02:00,-71.2890,42.4699,M,M,M,180.00,5.00,M,30.18,M,10.00,M,CLR,M,M,M,M,M,M,M,M,KBED 030200Z AUTO 18005KT 10SM CLR A3018 RMK MADISHF
TAN,2017-11-03 02:00,-71.0211,41.8756,M,M,M,170.00,3.00,M,30.22,M,10.00,M,CLR,M,M,M,M,M,M,M,M,KTAN 030200Z AUTO 17003KT 10SM CLR A3022 RMK MADISHF
CQX,2017-11-03 02:00,-69.9933,41.6875,M,M,M,200.00,4.00,M,30.26,M,8.00,M,CLR,M,M,M,M,M,M,M,M,KCQX 030200Z AUTO 20004KT 8SM CLR A3026 RMK MADISHF
ORH,2017-11-03 02:00,-71.8757,42.2673,M,M,M,210.00,9.00,M,30.20,M,10.00,M,SCT,M,M,M,499.00,M,M,M,M,KORH 030200Z AUTO 21009KT 10SM SCT004 A3020 RMK MADISHF
PVC,2017-11-03 02:00,-70.2200,42.0700,M,M,M,180.00,7.00,M,30.24,M,10.00,M,CLR,M,M,M,M,M,M,M,M,KPVC 030200Z AUTO 18007KT 10SM CLR A3024 RMK MADISHF
ORE,2017-11-03 02:00,-72.2886,42.5701,M,M,M,180.00,3.00,M,30.18,M,10.00,M,FEW,SCT,SCT,M,2100.00,3999.00,12000.00,M,M,KORE 030200Z AUTO 18003KT 10SM FEW021 SCT039 SCT120 A3018 RMK MADISHF
OWD,2017-11-03 02:00,-71.1733,42.1912,M,M,M,160.00,4.00,M,30.20,M,10.00,M,SCT,M,M,M,800.00,M,M,M,M,KOWD 030200Z AUTO 16004KT 10SM SCT008 A3020 RMK MADISHF
PVC,2017-11-03 02:05,-70.2200,42.0700,M,M,M,170.00,8.00,M,30.24,M,10.00,M,CLR,M,M,M,M,M,M,M,M,KPVC 030205Z AUTO 17008KT 10SM CLR A3024 RMK MADISHF
FIT,2017-11-03 02:05,-71.7558,42.5519,M,M,M,130.00,5.00,M,30.19,M,10.00,M,CLR,M,M,M,M,M,M,M,M,KFIT 030205Z AUTO 13005KT 10SM CLR A3019 RMK MADISHF
BED,2017-11-03 02:05,-71.2890,42.4699,M,M,M,170.00,5.00,M,30.18,M,10.00,M,CLR,M,M,M,M,M,M,M,M,KBED 030205Z AUTO 17005KT 10SM CLR A3018 RMK MADISHF
OWD,2017-11-03 02:05,-71.1733,42.1912,M,M,M,170.00,4.00,M,30.20,M,10.00,M,BKN,M,M,M,800.00,M,M,M,M,KOWD 030205Z AUTO 17004KT 10SM BKN008 A3020 RMK MADISHF
HYA,2017-11-03 02:05,-70.2800,41.6700,M,M,M,170.00,5.00,M,30.23,M,7.00,M,CLR,M,M,M,M,M,M,M,M,KHYA 030205Z AUTO 17005KT 7SM CLR A3023 RMK MADISHF
PYM,2017-11-03 02:05,-70.7288,41.9090,M,M,M,190.00,4.00,M,30.23,M,10.00,M,CLR,M,M,M,M,M,M,M,M,KPYM 030205Z AUTO 19004KT 10SM CLR A3023 RMK MADISHF
EWB,2017-11-03 02:05,-70.9583,41.6764,M,M,M,0.00,0.00,M,30.22,M,10.00,M,CLR,M,M,M,M,M,M,M,M,KEWB 030205Z AUTO 00000KT 10SM CLR A3022 RMK MADISHF
ORH,2017-11-03 02:05,-71.8757,42.2673,M,M,M,200.00,9.00,M,30.20,M,10.00,M,SCT,M,M,M,499.00,M,M,M,M,KORH 030205Z AUTO 20009KT 10SM SCT004 A3020 RMK MADISHF
ORE,2017-11-03 02:05,-72.2886,42.5701,M,M,M,0.00,0.00,M,30.18,M,10.00,M,FEW,FEW,SCT,M,2100.00,4100.00,12000.00,M,M,KORE 030205Z AUTO 00000KT 10SM FEW021 FEW041 SCT120 A3018 RMK MADISHF
TAN,2017-11-03 02:05,-71.0211,41.8756,M,M,M,170.00,3.00,M,30.22,M,10.00,M,CLR,M,M,M,M,M,M,M,M,KTAN 030205Z AUTO 17003KT 10SM CLR A3022 RMK MADISHF
BOS,2017-11-03 02:05,-71.0097,42.3606,M,M,M,190.00,8.00,M,30.21,M,10.00,M,FEW,M,M,M,1300.00,M,M,M,M,KBOS 030205Z AUTO 19008KT 10SM FEW013 A3021 RMK MADISHF
FIT,2017-11-03 02:10,-71.7558,42.5519,M,M,M,130.00,4.00,M,30.19,M,10.00,M,CLR,M,M,M,M,M,M,M,M,KFIT 030210Z AUTO 13004KT 10SM CLR A3019 RMK MADISHF
PYM,2017-11-03 02:10,-70.7288,41.9090,M,M,M,200.00,4.00,M,30.23,M,10.00,M,CLR,M,M,M,M,M,M,M,M,KPYM 030210Z AUTO 20004KT 10SM CLR A3023 RMK MADISHF
OWD,2017-11-03 02:10,-71.1733,42.1912,M,M,M,170.00,4.00,M,30.20,M,10.00,M,SCT,M,M,M,800.00,M,M,M,M,KOWD 030210Z AUTO 17004KT 10SM SCT008 A3020 RMK MADISHF
BED,2017-11-03 02:10,-71.2890,42.4699,M,M,M,180.00,5.00,M,30.18,M,10.00,M,CLR,M,M,M,M,M,M,M,M,KBED 030210Z AUTO 18005KT 10SM CLR A3018 RMK MADISHF
PVC,2017-11-03 02:10,-70.2200,42.0700,M,M,M,180.00,9.00,M,30.24,M,10.00,M,CLR,M,M,M,M,M,M,M,M,KPVC 030210Z AUTO 18009KT 10SM CLR A3024 RMK MADISHF
CQX,2017-11-03 02:10,-69.9933,41.6875,M,M,M,180.00,3.00,M,30.25,M,8.00,M,FEW,M,M,M,300.00,M,M,M,M,KCQX 030210Z AUTO 18003KT 8SM FEW003 A3025 RMK MADISHF
ORH,2017-11-03 02:10,-71.8757,42.2673,M,M,M,210.00,9.00,M,30.20,M,10.00,M,SCT,M,M,M,499.00,M,M,M,M,KORH 030210Z AUTO 21009KT 10SM SCT004 A3020 RMK MADISHF
EWB,2017-11-03 02:10,-70.9583,41.6764,M,M,M,0.00,0.00,M,30.22,M,10.00,M,CLR,M,M,M,M,M,M,M,M,KEWB 030210Z AUTO 00000KT 10SM CLR A3022 RMK MADISHF
HYA,2017-11-03 02:10,-70.2800,41.6700,M,M,M,170.00,6.00,M,30.23,M,7.00,M,CLR,M,M,M,M,M,M,M,M,KHYA 030210Z AUTO 17006KT 7SM CLR A3023 RMK MADISHF
BOS,2017-11-03 02:10,-71.0097,42.3606,M,M,M,180.00,8.00,M,30.20,M,10.00,M,FEW,M,M,M,1300.00,M,M,M,M,KBOS 030210Z AUTO 18008KT 10SM FEW013 A3020 RMK MADISHF
CQX,2017-11-03 02:12,-69.9933,41.6875,59.00,59.00,100.00,190.00,4.00,0.00,30.25,M,8.00,M,FEW,M,M,M,300.00,M,M,M,M,KCQX 030212Z AUTO 19004KT 8SM FEW003 15/15 A3025 RMK AO2 T01500150
PVC,2017-11-03 02:15,-70.2200,42.0700,M,M,M,170.00,9.00,M,30.24,M,10.00,M,CLR,M,M,M,M,M,M,M,M,KPVC 030215Z AUTO 17009KT 10SM CLR A3024 RMK MADISHF
OWD,2017-11-03 02:15,-71.1733,42.1912,M,M,M,160.00,3.00,M,30.20,M,10.00,M,SCT,M,M,M,800.00,M,M,M,M,KOWD 030215Z AUTO 16003KT 10SM SCT008 A3020 RMK MADISHF
HYA,2017-11-03 02:15,-70.2800,41.6700,M,M,M,170.00,4.00,M,30.23,M,8.00,M,CLR,M,M,M,M,M,M,M,M,KHYA 030215Z AUTO 17004KT 8SM CLR A3023 RMK VRB04KT  MADISHF
BED,2017-11-03 02:15,-71.2890,42.4699,M,M,M,180.00,6.00,M,30.18,M,10.00,M,CLR,M,M,M,M,M,M,M,M,KBED 030215Z AUTO 18006KT 10SM CLR A3018 RMK MADISHF
BOS,2017-11-03 02:15,-71.0097,42.3606,M,M,M,190.00,8.00,M,30.20,M,10.00,M,FEW,M,M,M,1300.00,M,M,M,M,KBOS 030215Z AUTO 19008KT 10SM FEW013 A3020 RMK MADISHF
TAN,2017-11-03 02:15,-71.0211,41.8756,M,M,M,170.00,3.00,M,30.22,M,10.00,M,CLR,M,M,M,M,M,M,M,M,KTAN 030215Z AUTO 17003KT 10SM CLR A3022 RMK MADISHF
PYM,2017-11-03 02:15,-70.7288,41.9090,M,M,M,200.00,5.00,M,30.23,M,10.00,M,CLR,M,M,M,M,M,M,M,M,KPYM 030215Z AUTO 20005KT 10SM CLR A3023 RMK MADISHF
ORH,2017-11-03 02:15,-71.8757,42.2673,M,M,M,200.00,8.00,M,30.20,M,10.00,M,SCT,M,M,M,499.00,M,M,M,M,KORH 030215Z AUTO 20008KT 10SM SCT004 A3020 RMK MADISHF
EWB,2017-11-03 02:15,-70.9583,41.6764,M,M,M,0.00,0.00,M,30.22,M,10.00,M,CLR,M,M,M,M,M,M,M,M,KEWB 030215Z AUTO 00000KT 10SM CLR A3022 RMK MADISHF
ORE,2017-11-03 02:15,-72.2886,42.5701,M,M,M,190.00,5.00,M,30.17,M,10.00,M,FEW,M,M,M,2100.00,M,M,M,M,KORE 030215Z AUTO 19005KT 10SM FEW021 A3017 RMK MADISHF
CQX,2017-11-03 02:15,-69.9933,41.6875,M,M,M,170.00,4.00,M,30.25,M,8.00,M,FEW,M,M,M,300.00,M,M,M,M,KCQX 030215Z AUTO 17004KT 8SM FEW003 A3025 RMK MADISHF
GHG,2017-11-03 02:15,-70.6721,42.0982,60.80,60.80,100.00,M,4.00,0.00,30.22,M,10.00,M,CLR,M,M,M,M,M,M,M,M,KGHG 030215Z AUTO VRB04KT 10SM CLR 16/16 A3022 RMK AO2
FMH,2017-11-03 02:15,-70.5215,41.6585,59.00,59.00,100.00,160.00,7.00,0.00,30.24,M,10.00,M,CLR,M,M,M,M,M,M,M,M,KFMH 030215Z AUTO 16007KT 10SM CLR 15/15 A3024 RMK AO2
CQX,2017-11-03 02:20,-69.9933,41.6875,M,M,M,170.00,4.00,M,30.25,M,8.00,M,SCT,M,M,M,300.00,M,M,M,M,KCQX 030220Z AUTO 17004KT 8SM SCT003 A3025 RMK MADISHF
PVC,2017-11-03 02:20,-70.2200,42.0700,M,M,M,180.00,9.00,M,30.23,M,10.00,M,CLR,M,M,M,M,M,M,M,M,KPVC 030220Z AUTO 18009KT 10SM CLR A3023 RMK MADISHF
ORH,2017-11-03 02:20,-71.8757,42.2673,M,M,M,210.00,9.00,M,30.20,M,10.00,M,SCT,M,M,M,499.00,M,M,M,M,KORH 030220Z AUTO 21009KT 10SM SCT004 A3020 RMK MADISHF
BED,2017-11-03 02:20,-71.2890,42.4699,M,M,M,170.00,4.00,M,30.18,M,10.00,M,FEW,M,M,M,800.00,M,M,M,M,KBED 030220Z AUTO 17004KT 10SM FEW008 A3018 RMK MADISHF
BOS,2017-11-03 02:20,-71.0097,42.3606,M,M,M,190.00,7.00,M,30.20,M,10.00,M,FEW,M,M,M,1300.00,M,M,M,M,KBOS 030220Z AUTO 19007KT 10SM FEW013 A3020 RMK MADISHF
HYA,2017-11-03 02:20,-70.2800,41.6700,M,M,M,170.00,5.00,M,30.22,M,8.00,M,CLR,M,M,M,M,M,M,M,M,KHYA 030220Z AUTO 17005KT 8SM CLR A3022 RMK MADISHF
FIT,2017-11-03 02:20,-71.7558,42.5519,M,M,M,140.00,4.00,M,30.19,M,10.00,M,CLR,M,M,M,M,M,M,M,M,KFIT 030220Z AUTO 14004KT 10SM CLR A3019 RMK MADISHF
TAN,2017-11-03 02:20,-71.0211,41.8756,M,M,M,160.00,4.00,M,30.21,M,10.00,M,CLR,M,M,M,M,M,M,M,M,KTAN 030220Z AUTO 16004KT 10SM CLR A3021 RMK MADISHF
ORE,2017-11-03 02:20,-72.2886,42.5701,M,M,M,190.00,4.00,M,30.17,M,10.00,M,FEW,M,M,M,2100.00,M,M,M,M,KORE 030220Z AUTO 19004KT 10SM FEW021 A3017 RMK MADISHF
EWB,2017-11-03 02:20,-70.9583,41.6764,M,M,M,0.00,0.00,M,30.22,M,10.00,M,CLR,M,M,M,M,M,M,M,M,KEWB 030220Z AUTO 00000KT 10SM CLR A3022 RMK MADISHF
OWD,2017-11-03 02:20,-71.1733,42.1912,M,M,M,180.00,4.00,M,30.20,M,10.00,M,SCT,M,M,M,800.00,M,M,M,M,KOWD 030220Z AUTO 18004KT 10SM SCT008 A3020 RMK MADISHF
PVC,2017-11-03 02:25,-70.2200,42.0700,M,M,M,170.00,9.00,M,30.23,M,10.00,M,CLR,M,M,M,M,M,M,M,M,KPVC 030225Z AUTO 17009KT 10SM CLR A3023 RMK MADISHF
FIT,2017-11-03 02:25,-71.7558,42.5519,M,M,M,140.00,5.00,M,30.19,M,10.00,M,CLR,M,M,M,M,M,M,M,M,KFIT 030225Z AUTO 14005KT 10SM CLR A3019 RMK MADISHF
HYA,2017-11-03 02:25,-70.2800,41.6700,M,M,M,180.00,4.00,M,30.22,M,8.00,M,CLR,M,M,M,M,M,M,M,M,KHYA 030225Z AUTO 18004KT 8SM CLR A3022 RMK MADISHF
ORE,2017-11-03 02:25,-72.2886,42.5701,M,M,M,190.00,4.00,M,30.17,M,10.00,M,FEW,M,M,M,1900.00,M,M,M,M,KORE 030225Z AUTO 19004KT 10SM FEW019 A3017 RMK MADISHF
OWD,2017-11-03 02:25,-71.1733,42.1912,M,M,M,170.00,3.00,M,30.20,M,10.00,M,FEW,M,M,M,800.00,M,M,M,M,KOWD 030225Z AUTO 17003KT 10SM FEW008 A3020 RMK MADISHF
ORH,2017-11-03 02:25,-71.8757,42.2673,M,M,M,200.00,8.00,M,30.20,M,10.00,M,SCT,M,M,M,499.00,M,M,M,M,KORH 030225Z AUTO 20008KT 10SM SCT004 A3020 RMK MADISHF
BED,2017-11-03 02:25,-71.2890,42.4699,M,M,M,170.00,6.00,M,30.18,M,10.00,M,SCT,M,M,M,800.00,M,M,M,M,KBED 030225Z AUTO 17006KT 10SM SCT008 A3018 RMK MADISHF
PYM,2017-11-03 02:25,-70.7288,41.9090,M,M,M,200.00,5.00,M,30.23,M,10.00,M,CLR,M,M,M,M,M,M,M,M,KPYM 030225Z AUTO 20005KT 10SM CLR A3023 RMK MADISHF
TAN,2017-11-03 02:25,-71.0211,41.8756,M,M,M,160.00,5.00,M,30.21,M,10.00,M,CLR,M,M,M,M,M,M,M,M,KTAN 030225Z AUTO 16005KT 10SM CLR A3021 RMK MADISHF
EWB,2017-11-03 02:25,-70.9583,41.6764,M,M,M,0.00,0.00,M,30.22,M,10.00,M,CLR,M,M,M,M,M,M,M,M,KEWB 030225Z AUTO 00000KT 10SM CLR A3022 RMK MADISHF
BOS,2017-11-03 02:25,-71.0097,42.3606,M,M,M,190.00,8.00,M,30.20,M,10.00,M,FEW,M,M,M,1300.00,M,M,M,M,KBOS 030225Z AUTO 19008KT 10SM FEW013 A3020 RMK MADISHF
BED,2017-11-03 02:26,-71.2890,42.4699,61.00,59.00,93.12,170.00,5.00,0.00,30.18,M,10.00,M,SCT,M,M,M,800.00,M,M,M,M,KBED 030226Z 17005KT 10SM SCT008 16/15 A3018 RMK AO2 T01610150
CQX,2017-11-03 02:29,-69.9933,41.6875,59.00,59.00,100.00,M,3.00,0.00,30.25,M,6.00,M,BKN,M,M,M,200.00,M,M,M,BR,KCQX 030229Z AUTO VRB03KT 6SM BR BKN002 15/15 A3025 RMK AO2 T01500150
PVC,2017-11-03 02:30,-70.2200,42.0700,M,M,M,170.00,9.00,M,30.23,M,10.00,M,CLR,M,M,M,M,M,M,M,M,KPVC 030230Z AUTO 17009KT 10SM CLR A3023 RMK MADISHF
TAN,2017-11-03 02:30,-71.0211,41.8756,M,M,M,150.00,4.00,M,30.21,M,10.00,M,CLR,M,M,M,M,M,M,M,M,KTAN 030230Z AUTO 15004KT 10SM CLR A3021 RMK MADISHF
OWD,2017-11-03 02:30,-71.1733,42.1912,M,M,M,160.00,4.00,M,30.20,M,10.00,M,FEW,FEW,M,M,800.00,3300.00,M,M,M,KOWD 030230Z AUTO 16004KT 10SM FEW008 FEW033 A3020 RMK MADISHF
EWB,2017-11-03 02:30,-70.9583,41.6764,M,M,M,0.00,0.00,M,30.22,M,10.00,M,CLR,M,M,M,M,M,M,M,M,KEWB 030230Z AUTO 00000KT 10SM CLR A3022 RMK MADISHF
ORH,2017-11-03 02:30,-71.8757,42.2673,M,M,M,200.00,9.00,M,30.20,M,10.00,M,BKN,M,M,M,499.00,M,M,M,M,KORH 030230Z AUTO 20009KT 10SM BKN004 A3020 RMK MADISHF
ORE,2017-11-03 02:30,-72.2886,42.5701,M,M,M,0.00,0.00,M,30.17,M,10.00,M,CLR,M,M,M,M,M,M,M,M,KORE 030230Z AUTO 00000KT 10SM CLR A3017 RMK MADISHF
HYA,2017-11-03 02:30,-70.2800,41.6700,M,M,M,170.00,3.00,M,30.22,M,8.00,M,CLR,M,M,M,M,M,M,M,M,KHYA 030230Z AUTO 17003KT 8SM CLR A3022 RMK VRB03KT  MADISHF
BOS,2017-11-03 02:30,-71.0097,42.3606,M,M,M,190.00,7.00,M,30.20,M,10.00,M,FEW,M,M,M,1300.00,M,M,M,M,KBOS 030230Z AUTO 19007KT 10SM FEW013 A3020 RMK MADISHF
CQX,2017-11-03 02:30,-69.9933,41.6875,M,M,M,190.00,3.00,M,30.25,M,6.00,M,BKN,M,M,M,200.00,M,M,M,BR,KCQX 030230Z AUTO 19003KT 6SM BR BKN002 A3025 RMK VRB03KT  MADISHF
PYM,2017-11-03 02:30,-70.7288,41.9090,M,M,M,200.00,4.00,M,30.22,M,10.00,M,CLR,M,M,M,M,M,M,M,M,KPYM 030230Z AUTO 20004KT 10SM CLR A3022 RMK MADISHF
BED,2017-11-03 02:30,-71.2890,42.4699,M,M,M,160.00,6.00,M,30.18,M,10.00,M,SCT,M,M,M,800.00,M,M,M,M,KBED 030230Z AUTO 16006KT 10SM SCT008 A3018 RMK MADISHF
ORH,2017-11-03 02:34,-71.8757,42.2673,59.00,55.90,89.44,210.00,10.00,0.00,30.20,M,10.00,M,BKN,M,M,M,500.00,M,M,M,M,KORH 030234Z AUTO 21010KT 10SM BKN005 15/13 A3020 RMK AO2 T01500133
TAN,2017-11-03 02:35,-71.0211,41.8756,M,M,M,160.00,3.00,M,30.21,M,10.00,M,FEW,M,M,M,3600.00,M,M,M,M,KTAN 030235Z AUTO 16003KT 10SM FEW036 A3021 RMK MADISHF
PVC,2017-11-03 02:35,-70.2200,42.0700,M,M,M,170.00,7.00,M,30.23,M,10.00,M,CLR,M,M,M,M,M,M,M,M,KPVC 030235Z AUTO 17007KT 10SM CLR A3023 RMK MADISHF
BOS,2017-11-03 02:35,-71.0097,42.3606,M,M,M,210.00,9.00,M,30.20,M,10.00,M,FEW,M,M,M,1300.00,M,M,M,M,KBOS 030235Z AUTO 21009KT 10SM FEW013 A3020 RMK MADISHF
ORE,2017-11-03 02:35,-72.2886,42.5701,M,M,M,0.00,0.00,M,30.17,M,10.00,M,FEW,M,M,M,1999.00,M,M,M,M,KORE 030235Z AUTO 00000KT 10SM FEW019 A3017 RMK MADISHF
HYA,2017-11-03 02:35,-70.2800,41.6700,M,M,M,170.00,4.00,M,30.22,M,8.00,M,CLR,M,M,M,M,M,M,M,M,KHYA 030235Z AUTO 17004KT 8SM CLR A3022 RMK MADISHF
ORH,2017-11-03 02:35,-71.8757,42.2673,M,M,M,210.00,8.00,M,30.20,M,10.00,M,BKN,M,M,M,499.00,M,M,M,M,KORH 030235Z AUTO 21008KT 10SM BKN004 A3020 RMK MADISHF
BED,2017-11-03 02:35,-71.2890,42.4699,M,M,M,150.00,6.00,M,30.18,M,10.00,M,BKN,M,M,M,900.00,M,M,M,M,KBED 030235Z AUTO 15006KT 10SM BKN009 A3018 RMK MADISHF
PYM,2017-11-03 02:35,-70.7288,41.9090,M,M,M,190.00,4.00,M,30.22,M,10.00,M,CLR,M,M,M,M,M,M,M,M,KPYM 030235Z AUTO 19004KT 10SM CLR A3022 RMK MADISHF
FIT,2017-11-03 02:35,-71.7558,42.5519,M,M,M,0.00,0.00,M,30.18,M,10.00,M,CLR,M,M,M,M,M,M,M,M,KFIT 030235Z AUTO 00000KT 10SM CLR A3018 RMK MADISHF
OWD,2017-11-03 02:35,-71.1733,42.1912,M,M,M,160.00,3.00,M,30.20,M,10.00,M,FEW,M,M,M,3300.00,M,M,M,M,KOWD 030235Z AUTO 16003KT 10SM FEW033 A3020 RMK MADISHF
EWB,2017-11-03 02:35,-70.9583,41.6764,M,M,M,0.00,0.00,M,30.21,M,10.00,M,CLR,M,M,M,M,M,M,M,M,KEWB 030235Z AUTO 00000KT 10SM CLR A3021 RMK MADISHF
CQX,2017-11-03 02:35,-69.9933,41.6875,M,M,M,180.00,4.00,M,30.25,M,6.00,M,BKN,M,M,M,200.00,M,M,M,BR,KCQX 030235Z AUTO 18004KT 6SM BR BKN002 A3025 RMK MADISHF
GHG,2017-11-03 02:35,-70.6721,42.0982,60.80,60.80,100.00,190.00,4.00,0.00,30.21,M,10.00,M,CLR,M,M,M,M,M,M,M,M,KGHG 030235Z AUTO 19004KT 10SM CLR 16/16 A3021 RMK AO2
FMH,2017-11-03 02:35,-70.5215,41.6585,59.00,59.00,100.00,150.00,9.00,0.00,30.23,M,10.00,M,FEW,SCT,M,M,3000.00,3700.00,M,M,M,KFMH 030235Z AUTO 15009KT 10SM FEW030 SCT037 15/15 A3023 RMK AO2
BED,2017-11-03 02:39,-71.2890,42.4699,61.00,59.00,93.12,170.00,7.00,0.00,30.18,M,10.00,M,BKN,M,M,M,900.00,M,M,M,M,KBED 030239Z 17007KT 10SM BKN009 16/15 A3018 RMK AO2 T01610150
FIT,2017-11-03 02:40,-71.7558,42.5519,M,M,M,130.00,4.00,M,30.18,M,10.00,M,CLR,M,M,M,M,M,M,M,M,KFIT 030240Z AUTO 13004KT 10SM CLR A3018 RMK MADISHF
PVC,2017-11-03 02:40,-70.2200,42.0700,M,M,M,170.00,10.00,M,30.22,M,10.00,M,CLR,M,M,M,M,M,M,M,M,KPVC 030240Z AUTO 17010KT 10SM CLR A3022 RMK MADISHF
ORE,2017-11-03 02:40,-72.2886,42.5701,M,M,M,170.00,3.00,M,30.17,M,10.00,M,FEW,SCT,M,M,1999.00,10000.00,M,M,-RA,KORE 030240Z AUTO 17003KT 10SM -RA FEW019 SCT100 A3017 RMK VRB03KT  MADISHF
OWD,2017-11-03 02:40,-71.1733,42.1912,M,M,M,170.00,3.00,M,30.20,M,10.00,M,FEW,M,M,M,3300.00,M,M,M,M,KOWD 030240Z AUTO 17003KT 10SM FEW033 A3020 RMK MADISHF
HYA,2017-11-03 02:40,-70.2800,41.6700,M,M,M,170.00,4.00,M,30.22,M,8.00,M,CLR,M,M,M,M,M,M,M,M,KHYA 030240Z AUTO 17004KT 8SM CLR A3022 RMK MADISHF
ORH,2017-11-03 02:40,-71.8757,42.2673,M,M,M,M,M,M,30.20,M,10.00,M,BKN,M,M,M,499.00,M,M,M,M,KORH 030240Z AUTO /////KT 10SM BKN004 A3020 RMK MADISHF
BOS,2017-11-03 02:40,-71.0097,42.3606,M,M,M,190.00,7.00,M,30.20,M,10.00,M,FEW,M,M,M,1300.00,M,M,M,M,KBOS 030240Z AUTO 19007KT 10SM FEW013 A3020 RMK MADISHF
CQX,2017-11-03 02:40,-69.9933,41.6875,M,M,M,170.00,4.00,M,30.25,M,5.00,M,OVC,M,M,M,200.00,M,M,M,BR,KCQX 030240Z AUTO 17004KT 5SM BR OVC002 A3025 RMK VRB04KT  MADISHF
EWB,2017-11-03 02:40,-70.9583,41.6764,M,M,M,0.00,0.00,M,30.21,M,10.00,M,CLR,M,M,M,M,M,M,M,M,KEWB 030240Z AUTO 00000KT 10SM CLR A3021 RMK MADISHF
BED,2017-11-03 02:40,-71.2890,42.4699,M,M,M,160.00,8.00,M,30.18,M,10.00,M,BKN,M,M,M,900.00,M,M,M,M,KBED 030240Z AUTO 16008KT 10SM BKN009 A3018 RMK MADISHF
CQX,2017-11-03 02:45,-69.9933,41.6875,M,M,M,170.00,4.00,M,30.24,M,5.00,M,OVC,M,M,M,200.00,M,M,M,BR,KCQX 030245Z AUTO 17004KT 5SM BR OVC002 A3024 RMK VRB04KT  MADISHF
HYA,2017-11-03 02:45,-70.2800,41.6700,M,M,M,160.00,3.00,M,30.21,M,8.00,M,CLR,M,M,M,M,M,M,M,M,KHYA 030245Z AUTO 16003KT 8SM CLR A3021 RMK MADISHF
BED,2017-11-03 02:45,-71.2890,42.4699,M,M,M,160.00,7.00,M,30.18,M,10.00,M,BKN,M,M,M,800.00,M,M,M,M,KBED 030245Z AUTO 16007KT 10SM BKN008 A3018 RMK MADISHF
TAN,2017-11-03 02:45,-71.0211,41.8756,M,M,M,170.00,3.00,M,30.21,M,10.00,M,BKN,M,M,M,3600.00,M,M,M,M,KTAN 030245Z AUTO 17003KT 10SM BKN036 A3021 RMK MADISHF
PVC,2017-11-03 02:45,-70.2200,42.0700,M,M,M,170.00,9.00,M,30.22,M,10.00,M,CLR,M,M,M,M,M,M,M,M,KPVC 030245Z AUTO 17009KT 10SM CLR A3022 RMK MADISHF
ORE,2017-11-03 02:45,-72.2886,42.5701,M,M,M,160.00,5.00,M,30.17,M,10.00,M,FEW,BKN,M,M,2200.00,10000.00,M,M,-RA,KORE 030245Z AUTO 16005KT 10SM -RA FEW022 BKN100 A3017 RMK MADISHF
PYM,2017-11-03 02:45,-70.7288,41.9090,M,M,M,180.00,4.00,M,30.22,M,10.00,M,CLR,M,M,M,M,M,M,M,M,KPYM 030245Z AUTO 18004KT 10SM CLR A3022 RMK MADISHF
OWD,2017-11-03 02:45,-71.1733,42.1912,M,M,M,150.00,3.00,M,30.20,M,10.00,M,FEW,M,M,M,3300.00,M,M,M,M,KOWD 030245Z AUTO 15003KT 10SM FEW033 A3020 RMK MADISHF
ORH,2017-11-03 02:45,-71.8757,42.2673,M,M,M,M,M,M,30.20,M,10.00,M,OVC,M,M,M,499.00,M,M,M,M,KORH 030245Z AUTO /////KT 10SM OVC004 A3020 RMK MADISHF
BOS,2017-11-03 02:45,-71.0097,42.3606,M,M,M,190.00,7.00,M,30.20,M,10.00,M,FEW,M,M,M,1300.00,M,M,M,M,KBOS 030245Z AUTO 19007KT 10SM FEW013 A3020 RMK MADISHF
EWB,2017-11-03 02:45,-70.9583,41.6764,M,M,M,0.00,0.00,M,30.21,M,10.00,M,CLR,M,M,M,M,M,M,M,M,KEWB 030245Z AUTO 00000KT 10SM CLR A3021 RMK MADISHF
CQX,2017-11-03 02:50,-69.9933,41.6875,M,M,M,170.00,5.00,M,30.24,M,5.00,M,OVC,M,M,M,200.00,M,M,M,BR,KCQX 030250Z AUTO 17005KT 5SM BR OVC002 A3024 RMK VRB05KT  MADISHF
TAN,2017-11-03 02:50,-71.0211,41.8756,M,M,M,170.00,3.00,M,30.21,M,10.00,M,BKN,M,M,M,3700.00,M,M,M,M,KTAN 030250Z AUTO 17003KT 10SM BKN037 A3021 RMK MADISHF
HYA,2017-11-03 02:50,-70.2800,41.6700,M,M,M,160.00,3.00,M,30.21,M,8.00,M,CLR,M,M,M,M,M,M,M,M,KHYA 030250Z AUTO 16003KT 8SM CLR A3021 RMK VRB03KT  MADISHF
BED,2017-11-03 02:50,-71.2890,42.4699,M,M,M,170.00,7.00,M,30.18,M,10.00,M,OVC,M,M,M,800.00,M,M,M,M,KBED 030250Z AUTO 17007KT 10SM OVC008 A3018 RMK MADISHF
FIT,2017-11-03 02:50,-71.7558,42.5519,M,M,M,140.00,3.00,M,30.18,M,10.00,M,CLR,M,M,M,M,M,M,M,M,KFIT 030250Z AUTO 14003KT 10SM CLR A3018 RMK MADISHF
EWB,2017-11-03 02:50,-70.9583,41.6764,M,M,M,0.00,0.00,M,30.21,M,10.00,M,CLR,M,M,M,M,M,M,M,M,KEWB 030250Z AUTO 00000KT 10SM CLR A3021 RMK MADISHF
OWD,2017-11-03 02:50,-71.1733,42.1912,M,M,M,160.00,4.00,M,30.19,M,10.00,M,SCT,M,M,M,3300.00,M,M,M,M,KOWD 030250Z AUTO 16004KT 10SM SCT033 A3019 RMK MADISHF
ORH,2017-11-03 02:50,-71.8757,42.2673,M,M,M,200.00,12.00,M,30.20,M,10.00,M,OVC,M,M,M,499.00,M,M,M,M,KORH 030250Z AUTO 20012KT 10SM OVC004 A3020 RMK MADISHF
PVC,2017-11-03 02:50,-70.2200,42.0700,M,M,M,170.00,8.00,M,30.22,M,10.00,M,CLR,M,M,M,M,M,M,M,M,KPVC 030250Z AUTO 17008KT 10SM CLR A3022 RMK MADISHF
PYM,2017-11-03 02:50,-70.7288,41.9090,M,M,M,180.00,3.00,M,30.22,M,10.00,M,CLR,M,M,M,M,M,M,M,M,KPYM 030250Z AUTO 18003KT 10SM CLR A3022 RMK MADISHF
BOS,2017-11-03 02:50,-71.0097,42.3606,M,M,M,190.00,6.00,M,30.20,M,10.00,M,FEW,M,M,M,999.00,M,M,M,M,KBOS 030250Z AUTO 19006KT 10SM FEW009 A3020 RMK MADISHF
FIT,2017-11-03 02:52,-71.7558,42.5519,57.90,57.00,96.81,140.00,3.00,0.00,30.18,1022.10,10.00,M,CLR,M,M,M,M,M,M,M,M,KFIT 030252Z AUTO 14003KT 10SM CLR 14/14 A3018 RMK AO2 SLP221 T01440139 58006
CQX,2017-11-03 02:52,-69.9933,41.6875,60.10,60.10,100.00,M,5.00,0.00,30.24,1024.10,6.00,M,OVC,M,M,M,200.00,M,M,M,BR,KCQX 030252Z AUTO VRB05KT 6SM BR OVC002 16/16 A3024 RMK AO2 SLP241 T01560156 58008
PYM,2017-11-03 02:52,-70.7288,41.9090,61.00,57.90,89.52,190.00,4.00,0.00,30.22,1023.20,10.00,M,CLR,M,M,M,M,M,M,M,M,KPYM 030252Z AUTO 19004KT 10SM CLR 16/14 A3022 RMK AO2 SLP232 T01610144 58008
ORE,2017-11-03 02:52,-72.2886,42.5701,61.00,59.00,93.12,170.00,7.00,0.00,30.17,1021.50,10.00,M,FEW,BKN,M,M,1900.00,10000.00,M,M,M,KORE 030252Z AUTO 17007KT 10SM FEW019 BKN100 16/15 A3017 RMK AO2 RAB39E51 SLP215 P0000 60000 T01610150 58006 TSNO
TAN,2017-11-03 02:52,-71.0211,41.8756,60.10,57.90,92.43,170.00,4.00,0.00,30.21,1022.90,10.00,M,BKN,M,M,M,3700.00,M,M,M,M,KTAN 030252Z AUTO 17004KT 10SM BKN037 16/14 A3021 RMK AO2 SLP229 T01560144 58008
EWB,2017-11-03 02:53,-70.9583,41.6764,57.00,55.90,96.10,0.00,0.00,0.00,30.21,1022.90,10.00,M,CLR,M,M,M,M,M,M,M,M,KEWB 030253Z AUTO 00000KT 10SM CLR 14/13 A3021 RMK AO2 SLP229 T01390133 58008
OWD,2017-11-03 02:53,-71.1733,42.1912,62.10,60.10,93.16,160.00,3.00,0.00,30.19,1022.30,10.00,M,SCT,M,M,M,3300.00,M,M,M,M,KOWD 030253Z AUTO 16003KT 10SM SCT033 17/16 A3019 RMK AO2 SLP223 T01670156 58006
ORH,2017-11-03 02:54,-71.8757,42.2673,59.00,57.00,93.07,200.00,8.00,0.00,30.19,1022.50,10.00,M,OVC,M,M,M,500.00,M,M,M,M,KORH 030254Z AUTO 20008KT 10SM OVC005 15/14 A3019 RMK AO2 SLP225 T01500139 58007
BOS,2017-11-03 02:54,-71.0097,42.3606,60.10,59.00,96.15,190.00,6.00,0.00,30.20,1022.50,10.00,M,FEW,FEW,BKN,M,1000.00,13000.00,25000.00,M,M,KBOS 030254Z 19006KT 10SM FEW010 FEW130 BKN250 16/15 A3020 RMK AO2 SLP225 T01560150 58005
TAN,2017-11-03 02:55,-71.0211,41.8756,M,M,M,170.00,4.00,M,30.21,M,10.00,M,SCT,M,M,M,3700.00,M,M,M,M,KTAN 030255Z AUTO 17004KT 10SM SCT037 A3021 RMK MADISHF
PVC,2017-11-03 02:55,-70.2200,42.0700,M,M,M,180.00,8.00,M,30.22,M,10.00,M,CLR,M,M,M,M,M,M,M,M,KPVC 030255Z AUTO 18008KT 10SM CLR A3022 RMK MADISHF
FIT,2017-11-03 02:55,-71.7558,42.5519,M,M,M,130.00,3.00,M,30.18,M,10.00,M,CLR,M,M,M,M,M,M,M,M,KFIT 030255Z AUTO 13003KT 10SM CLR A3018 RMK MADISHF
ORE,2017-11-03 02:55,-72.2886,42.5701,M,M,M,160.00,6.00,M,30.17,M,10.00,M,FEW,BKN,M,M,1900.00,10000.00,M,M,M,KORE 030255Z AUTO 16006KT 10SM FEW019 BKN100 A3017 RMK VRB06KT  MADISHF
EWB,2017-11-03 02:55,-70.9583,41.6764,M,M,M,0.00,0.00,M,30.21,M,10.00,M,CLR,M,M,M,M,M,M,M,M,KEWB 030255Z AUTO 00000KT 10SM CLR A3021 RMK MADISHF
PYM,2017-11-03 02:55,-70.7288,41.9090,M,M,M,190.00,3.00,M,30.21,M,10.00,M,CLR,M,M,M,M,M,M,M,M,KPYM 030255Z AUTO 19003KT 10SM CLR A3021 RMK MADISHF
OWD,2017-11-03 02:55,-71.1733,42.1912,M,M,M,170.00,4.00,M,30.19,M,10.00,M,SCT,M,M,M,3300.00,M,M,M,M,KOWD 030255Z AUTO 17004KT 10SM SCT033 A3019 RMK MADISHF
ORH,2017-11-03 02:55,-71.8757,42.2673,M,M,M,210.00,8.00,M,30.19,M,10.00,M,OVC,M,M,M,499.00,M,M,M,M,KORH 030255Z AUTO 21008KT 10SM OVC004 A3019 RMK MADISHF
BED,2017-11-03 02:55,-71.2890,42.4699,M,M,M,180.00,7.00,M,30.17,M,10.00,M,OVC,M,M,M,800.00,M,M,M,M,KBED 030255Z AUTO 18007KT 10SM OVC008 A3017 RMK MADISHF
HYA,2017-11-03 02:55,-70.2800,41.6700,M,M,M,160.00,4.00,M,30.21,M,8.00,M,CLR,M,M,M,M,M,M,M,M,KHYA 030255Z AUTO 16004KT 8SM CLR A3021 RMK MADISHF
BOS,2017-11-03 02:55,-71.0097,42.3606,M,M,M,180.00,6.00,M,30.20,M,10.00,M,FEW,M,M,M,999.00,M,M,M,M,KBOS 030255Z AUTO 18006KT 10SM FEW009 A3020 RMK MADISHF
GHG,2017-11-03 02:55,-70.6721,42.0982,60.80,60.80,100.00,190.00,4.00,0.00,30.20,M,10.00,M,CLR,M,M,M,M,M,M,M,M,KGHG 030255Z AUTO 19004KT 10SM CLR 16/16 A3020 RMK AO2
FMH,2017-11-03 02:55,-70.5215,41.6585,59.00,59.00,100.00,160.00,7.00,0.00,30.23,M,10.00,M,FEW,FEW,M,M,2900.00,3400.00,M,M,M,KFMH 030255Z AUTO 16007KT 10SM FEW029 FEW034 15/15 A3023 RMK AO2
HYA,2017-11-03 02:56,-70.2800,41.6700,61.00,60.10,96.85,150.00,4.00,0.00,30.21,1023.10,8.00,M,CLR,M,M,M,M,M,M,M,M,KHYA 030256Z AUTO 15004KT 8SM CLR 16/16 A3021 RMK AO2 SLP231 T01610156 58012
BED,2017-11-03 02:56,-71.2890,42.4699,61.00,59.00,93.12,180.00,7.00,0.00,30.17,1023.00,10.00,M,OVC,M,M,M,800.00,M,M,M,M,KBED 030256Z AUTO 18007KT 10SM OVC008 16/15 A3017 RMK AO2 SLP230 T01610150 58006
MQE,2017-11-03 02:56,-71.1142,42.2121,60.10,57.90,92.43,180.00,14.00,0.00,30.19,1023.30,M,19.00,M,M,M,M,M,M,M,M,M,KMQE 030256Z AUTO 18014G19KT 16/14 A3019 RMK AO1 SLP233 T01560144 58007
PVC,2017-11-03 02:56,-70.2200,42.0700,59.00,57.90,96.13,180.00,8.00,0.00,30.22,1023.30,10.00,M,CLR,M,M,M,M,M,M,M,M,KPVC 030256Z AUTO 18008KT 10SM CLR 15/14 A3022 RMK AO2 SLP233 T01500144 58008
ORE,2017-11-03 03:00,-72.2886,42.5701,M,M,M,210.00,3.00,M,30.17,M,10.00,M,SCT,OVC,M,M,1900.00,10000.00,M,M,M,KORE 030300Z AUTO 21003KT 10SM SCT019 OVC100 A3017 RMK MADISHF
PVC,2017-11-03 03:00,-70.2200,42.0700,M,M,M,180.00,7.00,M,30.22,M,10.00,M,CLR,M,M,M,M,M,M,M,M,KPVC 030300Z AUTO 18007KT 10SM CLR A3022 RMK MADISHF
PYM,2017-11-03 03:00,-70.7288,41.9090,M,M,M,190.00,3.00,M,30.21,M,10.00,M,CLR,M,M,M,M,M,M,M,M,KPYM 030300Z AUTO 19003KT 10SM CLR A3021 RMK MADISHF
OWD,2017-11-03 03:00,-71.1733,42.1912,M,M,M,160.00,3.00,M,30.19,M,10.00,M,SCT,M,M,M,3300.00,M,M,M,M,KOWD 030300Z AUTO 16003KT 10SM SCT033 A3019 RMK MADISHF
HYA,2017-11-03 03:00,-70.2800,41.6700,M,M,M,180.00,6.00,M,30.21,M,8.00,M,CLR,M,M,M,M,M,M,M,M,KHYA 030300Z AUTO 18006KT 8SM CLR A3021 RMK MADISHF
EWB,2017-11-03 03:00,-70.9583,41.6764,M,M,M,0.00,0.00,M,30.20,M,2.50,M,CLR,M,M,M,M,M,M,M,BR,KEWB 030300Z AUTO 00000KT 2 1/2SM BR CLR A3020 RMK MADISHF
BOS,2017-11-03 03:00,-71.0097,42.3606,M,M,M,180.00,7.00,M,30.19,M,10.00,M,FEW,M,M,M,999.00,M,M,M,M,KBOS 030300Z AUTO 18007KT 10SM FEW009 A3019 RMK MADISHF
FIT,2017-11-03 03:00,-71.7558,42.5519,M,M,M,130.00,3.00,M,30.18,M,10.00,M,CLR,M,M,M,M,M,M,M,M,KFIT 030300Z AUTO 13003KT 10SM CLR A3018 RMK MADISHF
ORH,2017-11-03 03:00,-71.8757,42.2673,M,M,M,210.00,9.00,M,30.19,M,10.00,M,OVC,M,M,M,499.00,M,M,M,M,KORH 030300Z AUTO 21009KT 10SM OVC004 A3019 RMK MADISHF
BED,2017-11-03 03:00,-71.2890,42.4699,M,M,M,180.00,6.00,M,30.17,M,10.00,M,OVC,M,M,M,800.00,M,M,M,M,KBED 030300Z AUTO 18006KT 10SM OVC008 A3017 RMK MADISHF
CQX,2017-11-03 03:00,-69.9933,41.6875,M,M,M,170.00,4.00,M,30.24,M,7.00,M,BKN,M,M,M,200.00,M,M,M,M,KCQX 030300Z AUTO 17004KT 7SM BKN002 A3024 RMK VRB04KT  MADISHF
BOS,2017-11-03 03:05,-71.0097,42.3606,M,M,M,180.00,7.00,M,30.19,M,10.00,M,FEW,M,M,M,999.00,M,M,M,M,KBOS 030305Z AUTO 18007KT 10SM FEW009 A3019 RMK MADISHF
EWB,2017-11-03 03:05,-70.9583,41.6764,M,M,M,0.00,0.00,M,30.20,M,2.00,M,CLR,M,M,M,M,M,M,M,BR,KEWB 030305Z AUTO 00000KT 2SM BR CLR A3020 RMK MADISHF
TAN,2017-11-03 03:05,-71.0211,41.8756,M,M,M,170.00,3.00,M,30.20,M,10.00,M,SCT,M,M,M,3700.00,M,M,M,M,KTAN 030305Z AUTO 17003KT 10SM SCT037 A3020 RMK MADISHF
PVC,2017-11-03 03:05,-70.2200,42.0700,M,M,M,170.00,8.00,M,30.22,M,10.00,M,CLR,M,M,M,M,M,M,M,M,KPVC 030305Z AUTO 17008KT 10SM CLR A3022 RMK MADISHF
CQX,2017-11-03 03:05,-69.9933,41.6875,M,M,M,180.00,4.00,M,30.23,M,8.00,M,BKN,M,M,M,200.00,M,M,M,M,KCQX 030305Z AUTO 18004KT 8SM BKN002 A3023 RMK VRB04KT  MADISHF
BED,2017-11-03 03:05,-71.2890,42.4699,M,M,M,180.00,8.00,M,30.17,M,10.00,M,BKN,M,M,M,800.00,M,M,M,M,KBED 030305Z AUTO 18008KT 10SM BKN008 A3017 RMK MADISHF
PYM,2017-11-03 03:05,-70.7288,41.9090,M,M,M,180.00,4.00,M,30.21,M,10.00,M,CLR,M,M,M,M,M,M,M,M,KPYM 030305Z AUTO 18004KT 10SM CLR A3021 RMK MADISHF
ORH,2017-11-03 03:05,-71.8757,42.2673,M,M,M,M,M,M,30.19,M,10.00,M,OVC,M,M,M,400.00,M,M,M,M,KORH 030305Z AUTO /////KT 10SM OVC004 A3019 RMK MADISHF
OWD,2017-11-03 03:05,-71.1733,42.1912,M,M,M,150.00,3.00,M,30.19,M,10.00,M,BKN,M,M,M,3300.00,M,M,M,M,KOWD 030305Z AUTO 15003KT 10SM BKN033 A3019 RMK MADISHF
HYA,2017-11-03 03:05,-70.2800,41.6700,M,M,M,160.00,5.00,M,30.21,M,9.00,M,CLR,M,M,M,M,M,M,M,M,KHYA 030305Z AUTO 16005KT 9SM CLR A3021 RMK MADISHF
EWB,2017-11-03 03:06,-70.9583,41.6764,55.90,55.00,96.78,0.00,0.00,0.00,30.20,M,2.00,M,CLR,M,M,M,M,M,M,M,BR,KEWB 030306Z AUTO 00000KT 2SM BR CLR 13/13 A3020 RMK AO2 T01330128
ORH,2017-11-03 03:08,-71.8757,42.2673,60.10,57.00,89.48,200.00,13.00,0.00,30.19,M,10.00,19.00,OVC,M,M,M,400.00,M,M,M,M,KORH 030308Z AUTO 20013G19KT 10SM OVC004 16/14 A3019 RMK AO2 T01560139
FIT,2017-11-03 03:10,-71.7558,42.5519,M,M,M,120.00,4.00,M,30.18,M,10.00,M,CLR,M,M,M,M,M,M,M,M,KFIT 030310Z AUTO 12004KT 10SM CLR A3018 RMK MADISHF
TAN,2017-11-03 03:10,-71.0211,41.8756,M,M,M,170.00,3.00,M,30.20,M,10.00,M,FEW,M,M,M,3700.00,M,M,M,M,KTAN 030310Z AUTO 17003KT 10SM FEW037 A3020 RMK MADISHF
BED,2017-11-03 03:10,-71.2890,42.4699,M,M,M,180.00,7.00,M,30.17,M,10.00,M,BKN,M,M,M,800.00,M,M,M,M,KBED 030310Z AUTO 18007KT 10SM BKN008 A3017 RMK MADISHF
HYA,2017-11-03 03:10,-70.2800,41.6700,M,M,M,160.00,5.00,M,30.21,M,9.00,M,CLR,M,M,M,M,M,M,M,M,KHYA 030310Z AUTO 16005KT 9SM CLR A3021 RMK VRB05KT  MADISHF
ORE,2017-11-03 03:10,-72.2886,42.5701,M,M,M,0.00,0.00,M,30.17,M,10.00,M,SCT,OVC,M,M,1800.00,10000.00,M,M,M,KORE 030310Z AUTO 00000KT 10SM SCT018 OVC100 A3017 RMK MADISHF
CQX,2017-11-03 03:10,-69.9933,41.6875,M,M,M,170.00,6.00,M,30.23,M,8.00,M,SCT,M,M,M,200.00,M,M,M,M,KCQX 030310Z AUTO 17006KT 8SM SCT002 A3023 RMK MADISHF
PVC,2017-11-03 03:10,-70.2200,42.0700,M,M,M,180.00,8.00,M,30.21,M,10.00,M,CLR,M,M,M,M,M,M,M,M,KPVC 030310Z AUTO 18008KT 10SM CLR A3021 RMK MADISHF
OWD,2017-11-03 03:10,-71.1733,42.1912,M,M,M,150.00,4.00,M,30.19,M,10.00,M,BKN,M,M,M,3300.00,M,M,M,M,KOWD 030310Z AUTO 15004KT 10SM BKN033 A3019 RMK MADISHF
BOS,2017-11-03 03:10,-71.0097,42.3606,M,M,M,190.00,7.00,M,30.19,M,10.00,M,FEW,M,M,M,999.00,M,M,M,M,KBOS 030310Z AUTO 19007KT 10SM FEW009 A3019 RMK MADISHF
EWB,2017-11-03 03:10,-70.9583,41.6764,M,M,M,120.00,3.00,M,30.20,M,4.00,M,CLR,M,M,M,M,M,M,M,BR,KEWB 030310Z AUTO 12003KT 4SM BR CLR A3020 RMK MADISHF
ORH,2017-11-03 03:10,-71.8757,42.2673,M,M,M,200.00,11.00,M,30.19,M,10.00,M,OVC,M,M,M,400.00,M,M,M,M,KORH 030310Z AUTO 20011KT 10SM OVC004 A3019 RMK MADISHF
CQX,2017-11-03 03:12,-69.9933,41.6875,60.10,60.10,100.00,170.00,6.00,0.00,30.23,M,8.00,M,SCT,M,M,M,200.00,M,M,M,M,KCQX 030312Z AUTO 17006KT 8SM SCT002 16/16 A3023 RMK AO2 T01560156
PYM,2017-11-03 03:15,-70.7288,41.9090,M,M,M,190.00,3.00,M,30.21,M,10.00,M,CLR,M,M,M,M,M,M,M,M,KPYM 030315Z AUTO 19003KT 10SM CLR A3021 RMK MADISHF
FIT,2017-11-03 03:15,-71.7558,42.5519,M,M,M,140.00,3.00,M,30.18,M,10.00,M,CLR,M,M,M,M,M,M,M,M,KFIT 030315Z AUTO 14003KT 10SM CLR A3018 RMK MADISHF
ORE,2017-11-03 03:15,-72.2886,42.5701,M,M,M,150.00,4.00,M,30.16,M,10.00,M,SCT,OVC,M,M,1600.00,10000.00,M,M,M,KORE 030315Z AUTO 15004KT 10SM SCT016 OVC100 A3016 RMK MADISHF
BOS,2017-11-03 03:15,-71.0097,42.3606,M,M,M,180.00,7.00,M,30.19,M,10.00,M,FEW,M,M,M,999.00,M,M,M,M,KBOS 030315Z AUTO 18007KT 10SM FEW009 A3019 RMK MADISHF
CQX,2017-11-03 03:15,-69.9933,41.6875,M,M,M,170.00,5.00,M,30.23,M,8.00,M,SCT,M,M,M,200.00,M,M,M,M,KCQX 030315Z AUTO 17005KT 8SM SCT002 A3023 RMK MADISHF
OWD,2017-11-03 03:15,-71.1733,42.1912,M,M,M,150.00,3.00,M,30.19,M,10.00,M,FEW,BKN,M,M,900.00,3300.00,M,M,M,KOWD 030315Z AUTO 15003KT 10SM FEW009 BKN033 A3019 RMK MADISHF
ORH,2017-11-03 03:15,-71.8757,42.2673,M,M,M,M,M,M,30.19,M,10.00,M,OVC,M,M,M,400.00,M,M,M,M,KORH 030315Z AUTO /////KT 10SM OVC004 A3019 RMK MADISHF
BED,2017-11-03 03:15,-71.2890,42.4699,M,M,M,190.00,8.00,M,30.17,M,10.00,M,BKN,M,M,M,800.00,M,M,M,M,KBED 030315Z AUTO 19008KT 10SM BKN008 A3017 RMK MADISHF
HYA,2017-11-03 03:15,-70.2800,41.6700,M,M,M,160.00,5.00,M,30.21,M,8.00,M,CLR,M,M,M,M,M,M,M,M,KHYA 030315Z AUTO 16005KT 8SM CLR A3021 RMK MADISHF
PVC,2017-11-03 03:15,-70.2200,42.0700,M,M,M,180.00,6.00,M,30.21,M,10.00,M,CLR,M,M,M,M,M,M,M,M,KPVC 030315Z AUTO 18006KT 10SM CLR A3021 RMK MADISHF
EWB,2017-11-03 03:15,-70.9583,41.6764,M,M,M,0.00,0.00,M,30.20,M,10.00,M,CLR,M,M,M,M,M,M,M,M,KEWB 030315Z AUTO 00000KT 10SM CLR A3020 RMK MADISHF
GHG,2017-11-03 03:15,-70.6721,42.0982,60.80,59.00,93.79,200.00,5.00,0.00,30.19,M,10.00,M,CLR,M,M,M,M,M,M,M,M,KGHG 030315Z AUTO 20005KT 10SM CLR 16/15 A3019 RMK AO2
FMH,2017-11-03 03:15,-70.5215,41.6585,59.00,59.00,100.00,160.00,9.00,0.00,30.22,M,10.00,M,FEW,SCT,M,M,3300.00,4200.00,M,M,M,KFMH 030315Z AUTO 16009KT 10SM FEW033 SCT042 15/15 A3022 RMK AO2
EWB,2017-11-03 03:16,-70.9583,41.6764,57.00,55.00,93.01,0.00,0.00,0.00,30.20,M,10.00,M,CLR,M,M,M,M,M,M,M,M,KEWB 030316Z AUTO 00000KT 10SM CLR 14/13 A3020 RMK AO2 T01390128
OWD,2017-11-03 03:17,-71.1733,42.1912,62.10,61.00,96.18,150.00,3.00,0.00,30.19,M,10.00,M,FEW,BKN,M,M,900.00,3300.00,M,M,M,KOWD 030317Z AUTO 15003KT 10SM FEW009 BKN033 17/16 A3019 RMK AO2 T01670161
CQX,2017-11-03 03:20,-69.9933,41.6875,M,M,M,170.00,5.00,M,30.23,M,8.00,M,SCT,M,M,M,200.00,M,M,M,M,KCQX 030320Z AUTO 17005KT 8SM SCT002 A3023 RMK VRB05KT  MADISHF
OWD,2017-11-03 03:20,-71.1733,42.1912,M,M,M,150.00,3.00,M,30.18,M,10.00,M,SCT,BKN,M,M,900.00,3300.00,M,M,M,KOWD 030320Z AUTO 15003KT 10SM SCT009 BKN033 A3018 RMK MADISHF
ORH,2017-11-03 03:20,-71.8757,42.2673,M,M,M,M,M,M,30.19,M,10.00,M,OVC,M,M,M,499.00,M,M,M,M,KORH 030320Z AUTO /////KT 10SM OVC004 A3019 RMK MADISHF
BED,2017-11-03 03:20,-71.2890,42.4699,M,M,M,190.00,7.00,M,30.17,M,10.00,M,BKN,M,M,M,800.00,M,M,M,M,KBED 030320Z AUTO 19007KT 10SM BKN008 A3017 RMK MADISHF
HYA,2017-11-03 03:20,-70.2800,41.6700,M,M,M,160.00,5.00,M,30.21,M,8.00,M,FEW,M,M,M,300.00,M,M,M,M,KHYA 030320Z AUTO 16005KT 8SM FEW003 A3021 RMK MADISHF
TAN,2017-11-03 03:20,-71.0211,41.8756,M,M,M,170.00,3.00,M,30.19,M,10.00,M,CLR,M,M,M,M,M,M,M,M,KTAN 030320Z AUTO 17003KT 10SM CLR A3019 RMK MADISHF
BOS,2017-11-03 03:20,-71.0097,42.3606,M,M,M,180.00,7.00,M,30.19,M,10.00,M,FEW,FEW,M,M,999.00,3300.00,M,M,M,KBOS 030320Z AUTO 18007KT 10SM FEW009 FEW033 A3019 RMK MADISHF
EWB,2017-11-03 03:20,-70.9583,41.6764,M,M,M,0.00,0.00,M,30.20,M,10.00,M,CLR,M,M,M,M,M,M,M,M,KEWB 030320Z AUTO 00000KT 10SM CLR A3020 RMK MADISHF
ORE,2017-11-03 03:20,-72.2886,42.5701,M,M,M,150.00,6.00,M,30.16,M,10.00,M,BKN,OVC,M,M,1600.00,10000.00,M,M,M,KORE 030320Z AUTO 15006KT 10SM BKN016 OVC100 A3016 RMK MADISHF
PYM,2017-11-03 03:20,-70.7288,41.9090,M,M,M,180.00,3.00,M,30.20,M,10.00,M,CLR,M,M,M,M,M,M,M,M,KPYM 030320Z AUTO 18003KT 10SM CLR A3020 RMK MADISHF
PVC,2017-11-03 03:20,-70.2200,42.0700,M,M,M,190.00,7.00,M,30.21,M,10.00,M,CLR,M,M,M,M,M,M,M,M,KPVC 030320Z AUTO 19007KT 10SM CLR A3021 RMK MADISHF
TAN,2017-11-03 03:25,-71.0211,41.8756,M,M,M,180.00,3.00,M,30.19,M,10.00,M,CLR,M,M,M,M,M,M,M,M,KTAN 030325Z AUTO 18003KT 10SM CLR A3019 RMK MADISHF
OWD,2017-11-03 03:25,-71.1733,42.1912,M,M,M,160.00,4.00,M,30.18,M,10.00,M,BKN,BKN,M,M,800.00,3300.00,M,M,M,KOWD 030325Z AUTO 16004KT 10SM BKN008 BKN033 A3018 RMK MADISHF
BOS,2017-11-03 03:25,-71.0097,42.3606,M,M,M,170.00,7.00,M,30.18,M,10.00,M,FEW,SCT,M,M,999.00,3300.00,M,M,M,KBOS 030325Z AUTO 17007KT 10SM FEW009 SCT033 A3018 RMK MADISHF
ORE,2017-11-03 03:25,-72.2886,42.5701,M,M,M,160.00,8.00,M,30.16,M,10.00,M,BKN,OVC,M,M,1600.00,10000.00,M,M,M,KORE 030325Z AUTO 16008KT 10SM BKN016 OVC100 A3016 RMK MADISHF
PVC,2017-11-03 03:25,-70.2200,42.0700,M,M,M,180.00,6.00,M,30.21,M,10.00,M,CLR,M,M,M,M,M,M,M,M,KPVC 030325Z AUTO 18006KT 10SM CLR A3021 RMK MADISHF
ORH,2017-11-03 03:25,-71.8757,42.2673,M,M,M,M,M,M,30.19,M,10.00,M,OVC,M,M,M,499.00,M,M,M,M,KORH 030325Z AUTO /////KT 10SM OVC004 A3019 RMK MADISHF
PYM,2017-11-03 03:25,-70.7288,41.9090,M,M,M,180.00,3.00,M,30.20,M,10.00,M,CLR,M,M,M,M,M,M,M,M,KPYM 030325Z AUTO 18003KT 10SM CLR A3020 RMK MADISHF
EWB,2017-11-03 03:25,-70.9583,41.6764,M,M,M,0.00,0.00,M,30.20,M,10.00,M,CLR,M,M,M,M,M,M,M,M,KEWB 030325Z AUTO 00000KT 10SM CLR A3020 RMK MADISHF
BED,2017-11-03 03:25,-71.2890,42.4699,M,M,M,180.00,9.00,M,30.16,M,10.00,M,BKN,M,M,M,800.00,M,M,M,M,KBED 030325Z AUTO 18009KT 10SM BKN008 A3016 RMK MADISHF
CQX,2017-11-03 03:25,-69.9933,41.6875,M,M,M,180.00,4.00,M,30.23,M,7.00,M,SCT,M,M,M,200.00,M,M,M,M,KCQX 030325Z AUTO 18004KT 7SM SCT002 A3023 RMK VRB04KT  MADISHF
FIT,2017-11-03 03:25,-71.7558,42.5519,M,M,M,0.00,0.00,M,30.18,M,9.00,M,FEW,M,M,M,1800.00,M,M,M,M,KFIT 030325Z AUTO 00000KT 9SM FEW018 A3018 RMK MADISHF
HYA,2017-11-03 03:25,-70.2800,41.6700,61.00,60.10,96.85,160.00,4.00,0.00,30.20,M,8.00,M,FEW,M,M,M,300.00,M,M,M,M,KHYA 030325Z AUTO 16004KT 8SM FEW003 16/16 A3020 RMK AO2 T01610156
ORH,2017-11-03 03:26,-71.8757,42.2673,60.10,57.00,89.48,210.00,10.00,0.00,30.19,M,10.00,M,OVC,M,M,M,500.00,M,M,M,M,KORH 030326Z AUTO 21010KT 10SM OVC005 16/14 A3019 RMK AO2 T01560139
ORE,2017-11-03 03:26,-72.2886,42.5701,61.00,59.00,93.12,160.00,7.00,0.00,30.16,M,10.00,M,BKN,OVC,M,M,1600.00,10000.00,M,M,M,KORE 030326Z AUTO 16007KT 10SM BKN016 OVC100 16/15 A3016 RMK AO2 T01610150 TSNO
TAN,2017-11-03 03:30,-71.0211,41.8756,M,M,M,0.00,0.00,M,30.19,M,10.00,M,CLR,M,M,M,M,M,M,M,M,KTAN 030330Z AUTO 00000KT 10SM CLR A3019 RMK MADISHF
PVC,2017-11-03 03:30,-70.2200,42.0700,M,M,M,180.00,6.00,M,30.21,M,10.00,M,CLR,M,M,M,M,M,M,M,M,KPVC 030330Z AUTO 18006KT 10SM CLR A3021 RMK MADISHF
FIT,2017-11-03 03:30,-71.7558,42.5519,M,M,M,0.00,0.00,M,30.18,M,8.00,M,SCT,M,M,M,1800.00,M,M,M,M,KFIT 030330Z AUTO 00000KT 8SM SCT018 A3018 RMK MADISHF
ORH,2017-11-03 03:30,-71.8757,42.2673,M,M,M,M,M,M,30.18,M,10.00,M,OVC,M,M,M,499.00,M,M,M,M,KORH 030330Z AUTO /////KT 10SM OVC004 A3018 RMK MADISHF
OWD,2017-11-03 03:30,-71.1733,42.1912,M,M,M,170.00,3.00,M,30.18,M,10.00,M,BKN,BKN,M,M,800.00,3300.00,M,M,M,KOWD 030330Z AUTO 17003KT 10SM BKN008 BKN033 A3018 RMK MADISHF
BOS,2017-11-03 03:30,-71.0097,42.3606,M,M,M,180.00,7.00,M,30.18,M,10.00,M,FEW,SCT,M,M,999.00,3300.00,M,M,M,KBOS 030330Z AUTO 18007KT 10SM FEW009 SCT033 A3018 RMK MADISHF
CQX,2017-11-03 03:30,-69.9933,41.6875,M,M,M,180.00,4.00,M,30.23,M,6.00,M,BKN,M,M,M,200.00,M,M,M,BR,KCQX 030330Z AUTO 18004KT 6SM BR BKN002 A3023 RMK VRB04KT  MADISHF
EWB,2017-11-03 03:30,-70.9583,41.6764,M,M,M,0.00,0.00,M,30.19,M,10.00,M,CLR,M,M,M,M,M,M,M,M,KEWB 030330Z AUTO 00000KT 10SM CLR A3019 RMK MADISHF
BED,2017-11-03 03:30,-71.2890,42.4699,M,M,M,190.00,7.00,M,30.16,M,10.00,M,BKN,M,M,M,900.00,M,M,M,M,KBED 030330Z AUTO 19007KT 10SM BKN009 A3016 RMK MADISHF
HYA,2017-11-03 03:30,-70.2800,41.6700,M,M,M,160.00,5.00,M,30.20,M,7.00,M,FEW,M,M,M,300.00,M,M,M,M,KHYA 030330Z AUTO 16005KT 7SM FEW003 A3020 RMK MADISHF
ORE,2017-11-03 03:30,-72.2886,42.5701,M,M,M,160.00,5.00,M,30.16,M,10.00,M,SCT,OVC,M,M,1600.00,10000.00,M,M,M,KORE 030330Z AUTO 16005KT 10SM SCT016 OVC100 A3016 RMK MADISHF
OWD,2017-11-03 03:31,-71.1733,42.1912,62.10,61.00,96.18,170.00,3.00,0.00,30.18,M,10.00,M,BKN,BKN,M,M,800.00,3300.00,M,M,M,KOWD 030331Z AUTO 17003KT 10SM BKN008 BKN033 17/16 A3018 RMK AO2 T01670161
CQX,2017-11-03 03:34,-69.9933,41.6875,59.00,59.00,100.00,180.00,6.00,0.00,30.23,M,6.00,M,BKN,M,M,M,200.00,M,M,M,BR,KCQX 030334Z AUTO 18006KT 6SM BR BKN002 15/15 A3023 RMK AO2 T01500150
PVC,2017-11-03 03:35,-70.2200,42.0700,M,M,M,180.00,7.00,M,30.20,M,10.00,M,CLR,M,M,M,M,M,M,M,M,KPVC 030335Z AUTO 18007KT 10SM CLR A3020 RMK MADISHF
OWD,2017-11-03 03:35,-71.1733,42.1912,M,M,M,170.00,4.00,M,30.18,M,10.00,M,BKN,BKN,M,M,700.00,3300.00,M,M,M,KOWD 030335Z AUTO 17004KT 10SM BKN007 BKN033 A3018 RMK MADISHF
HYA,2017-11-03 03:35,-70.2800,41.6700,M,M,M,170.00,5.00,M,30.20,M,7.00,M,SCT,M,M,M,300.00,M,M,M,M,KHYA 030335Z AUTO 17005KT 7SM SCT003 A3020 RMK MADISHF
BOS,2017-11-03 03:35,-71.0097,42.3606,M,M,M,180.00,7.00,M,30.18,M,10.00,M,FEW,SCT,M,M,999.00,3300.00,M,M,M,KBOS 030335Z AUTO 18007KT 10SM FEW009 SCT033 A3018 RMK MADISHF
CQX,2017-11-03 03:35,-69.9933,41.6875,M,M,M,180.00,6.00,M,30.23,M,6.00,M,BKN,M,M,M,200.00,M,M,M,BR,KCQX 030335Z AUTO 18006KT 6SM BR BKN002 A3023 RMK MADISHF
TAN,2017-11-03 03:35,-71.0211,41.8756,M,M,M,0.00,0.00,M,30.19,M,10.00,M,CLR,M,M,M,M,M,M,M,M,KTAN 030335Z AUTO 00000KT 10SM CLR A3019 RMK MADISHF
FIT,2017-11-03 03:35,-71.7558,42.5519,M,M,M,0.00,0.00,M,30.17,M,7.00,M,SCT,BKN,M,M,1800.00,11000.00,M,M,M,KFIT 030335Z AUTO 00000KT 7SM SCT018 BKN110 A3017 RMK MADISHF
ORH,2017-11-03 03:35,-71.8757,42.2673,M,M,M,M,M,M,30.18,M,10.00,17.00,OVC,M,M,M,499.00,M,M,M,M,KORH 030335Z AUTO /////G17KT 10SM OVC004 A3018 RMK MADISHF
BED,2017-11-03 03:35,-71.2890,42.4699,M,M,M,200.00,9.00,M,30.16,M,10.00,M,BKN,M,M,M,900.00,M,M,M,M,KBED 030335Z AUTO 20009KT 10SM BKN009 A3016 RMK MADISHF
EWB,2017-11-03 03:35,-70.9583,41.6764,M,M,M,0.00,0.00,M,30.19,M,10.00,M,CLR,M,M,M,M,M,M,M,M,KEWB 030335Z AUTO 00000KT 10SM CLR A3019 RMK MADISHF
PYM,2017-11-03 03:35,-70.7288,41.9090,M,M,M,200.00,4.00,M,30.20,M,10.00,M,CLR,M,M,M,M,M,M,M,M,KPYM 030335Z AUTO 20004KT 10SM CLR A3020 RMK MADISHF
FMH,2017-11-03 03:35,-70.5215,41.6585,60.80,59.00,93.79,170.00,8.00,0.00,30.21,M,10.00,M,SCT,SCT,M,M,3300.00,4000.00,M,M,M,KFMH 030335Z AUTO 17008KT 10SM SCT033 SCT040 16/15 A3021 RMK AO2
ORE,2017-11-03 03:35,-72.2886,42.5701,61.00,59.00,93.12,170.00,7.00,0.00,30.16,M,10.00,M,SCT,OVC,M,M,1600.00,10000.00,M,M,M,KORE 030335Z AUTO 17007KT 10SM SCT016 OVC100 16/15 A3016 RMK AO2 T01610150 TSNO
GHG,2017-11-03 03:35,-70.6721,42.0982,60.80,59.00,93.79,190.00,6.00,0.00,30.18,M,10.00,M,CLR,M,M,M,M,M,M,M,M,KGHG 030335Z AUTO 19006KT 10SM CLR 16/15 A3018 RMK AO2
ORE,2017-11-03 03:40,-72.2886,42.5701,M,M,M,170.00,6.00,M,30.16,M,10.00,M,SCT,OVC,M,M,1600.00,10000.00,M,M,M,KORE 030340Z AUTO 17006KT 10SM SCT016 OVC100 A3016 RMK MADISHF
PVC,2017-11-03 03:40,-70.2200,42.0700,M,M,M,180.00,8.00,M,30.20,M,10.00,M,CLR,M,M,M,M,M,M,M,M,KPVC 030340Z AUTO 18008KT 10SM CLR A3020 RMK MADISHF
PYM,2017-11-03 03:40,-70.7288,41.9090,M,M,M,0.00,0.00,M,30.20,M,10.00,M,CLR,M,M,M,M,M,M,M,M,KPYM 030340Z AUTO 00000KT 10SM CLR A3020 RMK MADISHF
EWB,2017-11-03 03:40,-70.9583,41.6764,M,M,M,0.00,0.00,M,30.19,M,10.00,M,CLR,M,M,M,M,M,M,M,M,KEWB 030340Z AUTO 00000KT 10SM CLR A3019 RMK MADISHF
TAN,2017-11-03 03:40,-71.0211,41.8756,M,M,M,0.00,0.00,M,30.19,M,9.00,M,CLR,M,M,M,M,M,M,M,M,KTAN 030340Z AUTO 00000KT 9SM CLR A3019 RMK MADISHF
BOS,2017-11-03 03:40,-71.0097,42.3606,M,M,M,190.00,7.00,M,30.18,M,10.00,M,FEW,SCT,M,M,999.00,3300.00,M,M,M,KBOS 030340Z AUTO 19007KT 10SM FEW009 SCT033 A3018 RMK MADISHF
CQX,2017-11-03 03:40,-69.9933,41.6875,M,M,M,170.00,5.00,M,30.22,M,6.00,M,BKN,M,M,M,200.00,M,M,M,BR,KCQX 030340Z AUTO 17005KT 6SM BR BKN002 A3022 RMK VRB05KT  MADISHF
ORH,2017-11-03 03:40,-71.8757,42.2673,M,M,M,M,M,M,30.18,M,10.00,M,OVC,M,M,M,499.00,M,M,M,M,KORH 030340Z AUTO /////KT 10SM OVC004 A3018 RMK MADISHF
OWD,2017-11-03 03:40,-71.1733,42.1912,M,M,M,170.00,3.00,M,30.18,M,10.00,M,BKN,M,M,M,700.00,M,M,M,M,KOWD 030340Z AUTO 17003KT 10SM BKN007 A3018 RMK MADISHF
BED,2017-11-03 03:40,-71.2890,42.4699,M,M,M,200.00,10.00,M,30.16,M,10.00,M,BKN,M,M,M,900.00,M,M,M,M,KBED 030340Z AUTO 20010KT 10SM BKN009 A3016 RMK MADISHF
HYA,2017-11-03 03:40,-70.2800,41.6700,M,M,M,160.00,6.00,M,30.19,M,7.00,M,SCT,M,M,M,300.00,M,M,M,M,KHYA 030340Z AUTO 16006KT 7SM SCT003 A3019 RMK MADISHF
PVC,2017-11-03 03:45,-70.2200,42.0700,M,M,M,210.00,7.00,M,30.20,M,10.00,M,CLR,M,M,M,M,M,M,M,M,KPVC 030345Z AUTO 21007KT 10SM CLR A3020 RMK MADISHF
CQX,2017-11-03 03:45,-69.9933,41.6875,M,M,M,180.00,5.00,M,30.22,M,7.00,M,BKN,M,M,M,200.00,M,M,M,M,KCQX 030345Z AUTO 18005KT 7SM BKN002 A3022 RMK VRB05KT  MADISHF
TAN,2017-11-03 03:45,-71.0211,41.8756,M,M,M,150.00,3.00,M,30.19,M,7.00,M,CLR,M,M,M,M,M,M,M,M,KTAN 030345Z AUTO 15003KT 7SM CLR A3019 RMK MADISHF
BED,2017-11-03 03:45,-71.2890,42.4699,M,M,M,200.00,9.00,M,30.16,M,10.00,M,OVC,M,M,M,900.00,M,M,M,M,KBED 030345Z AUTO 20009KT 10SM OVC009 A3016 RMK MADISHF
HYA,2017-11-03 03:45,-70.2800,41.6700,M,M,M,170.00,6.00,M,30.19,M,6.00,M,SCT,M,M,M,300.00,M,M,M,BR,KHYA 030345Z AUTO 17006KT 6SM BR SCT003 A3019 RMK MADISHF
PYM,2017-11-03 03:45,-70.7288,41.9090,M,M,M,200.00,3.00,M,30.20,M,10.00,M,CLR,M,M,M,M,M,M,M,M,KPYM 030345Z AUTO 20003KT 10SM CLR A3020 RMK MADISHF
EWB,2017-11-03 03:45,-70.9583,41.6764,M,M,M,0.00,0.00,M,30.19,M,10.00,M,CLR,M,M,M,M,M,M,M,M,KEWB 030345Z AUTO 00000KT 10SM CLR A3019 RMK MADISHF
ORH,2017-11-03 03:45,-71.8757,42.2673,M,M,M,M,M,M,30.18,M,10.00,M,OVC,M,M,M,499.00,M,M,M,M,KORH 030345Z AUTO /////KT 10SM OVC004 A3018 RMK CIG 5V9  MADISHF
OWD,2017-11-03 03:45,-71.1733,42.1912,M,M,M,160.00,4.00,M,30.18,M,10.00,M,BKN,M,M,M,700.00,M,M,M,M,KOWD 030345Z AUTO 16004KT 10SM BKN007 A3018 RMK MADISHF
BOS,2017-11-03 03:45,-71.0097,42.3606,M,M,M,190.00,7.00,M,30.18,M,10.00,M,FEW,FEW,M,M,999.00,3300.00,M,M,M,KBOS 030345Z AUTO 19007KT 10SM FEW009 FEW033 A3018 RMK MADISHF
ORE,2017-11-03 03:45,-72.2886,42.5701,M,M,M,170.00,6.00,M,30.16,M,10.00,M,SCT,SCT,OVC,M,1600.00,7999.00,10000.00,M,M,KORE 030345Z AUTO 17006KT 10SM SCT016 SCT079 OVC100 A3016 RMK MADISHF
FIT,2017-11-03 03:45,-71.7558,42.5519,M,M,M,0.00,0.00,M,30.17,M,6.00,M,BKN,BKN,M,M,1800.00,11000.00,M,M,BR,KFIT 030345Z AUTO 00000KT 6SM BR BKN018 BKN110 A3017 RMK MADISHF
FIT,2017-11-03 03:47,-71.7558,42.5519,59.00,57.20,93.74,130.00,3.00,0.00,30.17,M,6.00,M,BKN,BKN,M,M,1800.00,11000.00,M,M,BR,KFIT 030347Z AUTO 13003KT 6SM BR BKN018 BKN110 15/14 A3017 RMK AO2
ORE,2017-11-03 03:50,-72.2886,42.5701,M,M,M,160.00,6.00,M,30.15,M,10.00,M,FEW,SCT,OVC,M,1600.00,7999.00,10000.00,M,M,KORE 030350Z AUTO 16006KT 10SM FEW016 SCT079 OVC100 A3015 RMK MADISHF
EWB,2017-11-03 03:50,-70.9583,41.6764,M,M,M,0.00,0.00,M,30.19,M,10.00,M,CLR,M,M,M,M,M,M,M,M,KEWB 030350Z AUTO 00000KT 10SM CLR A3019 RMK MADISHF
OWD,2017-11-03 03:50,-71.1733,42.1912,M,M,M,160.00,3.00,M,30.18,M,10.00,M,BKN,M,M,M,700.00,M,M,M,M,KOWD 030350Z AUTO 16003KT 10SM BKN007 A3018 RMK MADISHF
CQX,2017-11-03 03:50,-69.9933,41.6875,M,M,M,180.00,6.00,M,30.21,M,8.00,M,SCT,M,M,M,200.00,M,M,M,M,KCQX 030350Z AUTO 18006KT 8SM SCT002 A3021 RMK MADISHF
PVC,2017-11-03 03:50,-70.2200,42.0700,M,M,M,200.00,6.00,M,30.20,M,10.00,M,CLR,M,M,M,M,M,M,M,M,KPVC 030350Z AUTO 20006KT 10SM CLR A3020 RMK MADISHF
TAN,2017-11-03 03:50,-71.0211,41.8756,M,M,M,0.00,0.00,M,30.19,M,7.00,M,CLR,M,M,M,M,M,M,M,M,KTAN 030350Z AUTO 00000KT 7SM CLR A3019 RMK MADISHF
FIT,2017-11-03 03:50,-71.7558,42.5519,M,M,M,0.00,0.00,M,30.17,M,6.00,M,BKN,BKN,M,M,1699.00,11000.00,M,M,BR,KFIT 030350Z AUTO 00000KT 6SM BR BKN016 BKN110 A3017 RMK MADISHF
ORH,2017-11-03 03:50,-71.8757,42.2673,M,M,M,210.00,9.00,M,30.18,M,10.00,M,OVC,M,M,M,499.00,M,M,M,M,KORH 030350Z AUTO 21009KT 10SM OVC004 A3018 RMK CIG 5V9  MADISHF
BOS,2017-11-03 03:50,-71.0097,42.3606,M,M,M,210.00,7.00,M,30.18,M,10.00,M,FEW,FEW,M,M,999.00,3300.00,M,M,M,KBOS 030350Z AUTO 21007KT 10SM FEW009 FEW033 A3018 RMK MADISHF
BED,2017-11-03 03:50,-71.2890,42.4699,M,M,M,210.00,9.00,M,30.16,M,10.00,M,OVC,M,M,M,900.00,M,M,M,M,KBED 030350Z AUTO 21009KT 10SM OVC009 A3016 RMK MADISHF
HYA,2017-11-03 03:50,-70.2800,41.6700,M,M,M,170.00,4.00,M,30.19,M,7.00,M,SCT,M,M,M,300.00,M,M,M,M,KHYA 030350Z AUTO 17004KT 7SM SCT003 A3019 RMK MADISHF
TAN,2017-11-03 03:52,-71.0211,41.8756,55.00,54.00,96.42,0.00,0.00,0.00,30.19,1022.30,9.00,M,CLR,M,M,M,M,M,M,M,M,KTAN 030352Z AUTO 00000KT 9SM CLR 13/12 A3019 RMK AO2 SLP223 T01280122
ORE,2017-11-03 03:52,-72.2886,42.5701,61.00,59.00,93.12,160.00,6.00,0.00,30.15,1020.90,10.00,M,FEW,FEW,OVC,M,1600.00,8000.00,10000.00,M,M,KORE 030352Z AUTO 16006KT 10SM FEW016 FEW080 OVC100 16/15 A3015 RMK AO2 SLP209 T01610150 TSNO
PYM,2017-11-03 03:52,-70.7288,41.9090,61.00,57.00,86.67,210.00,4.00,0.00,30.20,1022.50,10.00,M,CLR,M,M,M,M,M,M,M,M,KPYM 030352Z AUTO 21004KT 10SM CLR 16/14 A3020 RMK AO2 SLP225 T01610139
FIT,2017-11-03 03:52,-71.7558,42.5519,59.00,57.90,96.13,0.00,0.00,0.00,30.17,1021.60,6.00,M,BKN,BKN,M,M,1700.00,11000.00,M,M,BR,KFIT 030352Z AUTO 00000KT 6SM BR BKN017 BKN110 15/14 A3017 RMK AO2 SLP216 T01500144
CQX,2017-11-03 03:52,-69.9933,41.6875,59.00,59.00,100.00,180.00,4.00,0.00,30.21,1023.20,9.00,M,SCT,M,M,M,200.00,M,M,M,M,KCQX 030352Z AUTO 18004KT 9SM SCT002 15/15 A3021 RMK AO2 SLP232 T01500150
OWD,2017-11-03 03:53,-71.1733,42.1912,62.10,60.10,93.16,160.00,4.00,0.00,30.18,1021.80,10.00,M,BKN,M,M,M,700.00,M,M,M,M,KOWD 030353Z AUTO 16004KT 10SM BKN007 17/16 A3018 RMK AO2 SLP218 T01670156
EWB,2017-11-03 03:53,-70.9583,41.6764,57.90,55.90,93.04,0.00,0.00,0.00,30.19,1022.30,10.00,M,CLR,M,M,M,M,M,M,M,M,KEWB 030353Z AUTO 00000KT 10SM CLR 14/13 A3019 RMK AO2 SLP223 T01440133
ORH,2017-11-03 03:54,-71.8757,42.2673,60.10,57.00,89.48,210.00,12.00,0.00,30.18,1021.80,10.00,M,OVC,M,M,M,600.00,M,M,M,M,KORH 030354Z AUTO 21012KT 10SM OVC006 16/14 A3018 RMK AO2 CIG 005V011 SLP218 T01560139
BOS,2017-11-03 03:54,-71.0097,42.3606,60.10,59.00,96.15,200.00,8.00,0.00,30.17,1021.70,10.00,M,FEW,FEW,BKN,M,1000.00,3300.00,25000.00,M,M,KBOS 030354Z 20008KT 10SM FEW010 FEW033 BKN250 16/15 A3017 RMK AO2 SLP217 T01560150
OWD,2017-11-03 03:55,-71.1733,42.1912,M,M,M,150.00,4.00,M,30.17,M,10.00,M,BKN,M,M,M,700.00,M,M,M,M,KOWD 030355Z AUTO 15004KT 10SM BKN007 A3017 RMK CIG 6V11  MADISHF
BOS,2017-11-03 03:55,-71.0097,42.3606,M,M,M,200.00,8.00,M,30.17,M,10.00,M,FEW,FEW,M,M,999.00,3300.00,M,M,M,KBOS 030355Z AUTO 20008KT 10SM FEW009 FEW033 A3017 RMK MADISHF
BED,2017-11-03 03:55,-71.2890,42.4699,M,M,M,210.00,7.00,M,30.16,M,10.00,M,OVC,M,M,M,900.00,M,M,M,M,KBED 030355Z AUTO 21007KT 10SM OVC009 A3016 RMK MADISHF
HYA,2017-11-03 03:55,-70.2800,41.6700,M,M,M,170.00,5.00,M,30.19,M,7.00,M,SCT,M,M,M,300.00,M,M,M,M,KHYA 030355Z AUTO 17005KT 7SM SCT003 A3019 RMK MADISHF
EWB,2017-11-03 03:55,-70.9583,41.6764,M,M,M,0.00,0.00,M,30.19,M,10.00,M,CLR,M,M,M,M,M,M,M,M,KEWB 030355Z AUTO 00000KT 10SM CLR A3019 RMK MADISHF
ORH,2017-11-03 03:55,-71.8757,42.2673,M,M,M,210.00,10.00,M,30.18,M,10.00,M,OVC,M,M,M,600.00,M,M,M,M,KORH 030355Z AUTO 21010KT 10SM OVC006 A3018 RMK CIG 5V11  MADISHF
ORE,2017-11-03 03:55,-72.2886,42.5701,M,M,M,170.00,6.00,M,30.15,M,10.00,M,FEW,OVC,M,M,1600.00,10000.00,M,M,M,KORE 030355Z AUTO 17006KT 10SM FEW016 OVC100 A3015 RMK MADISHF
FIT,2017-11-03 03:55,-71.7558,42.5519,M,M,M,0.00,0.00,M,30.17,M,6.00,M,BKN,OVC,M,M,1699.00,11000.00,M,M,BR,KFIT 030355Z AUTO 00000KT 6SM BR BKN016 OVC110 A3017 RMK MADISHF
PYM,2017-11-03 03:55,-70.7288,41.9090,M,M,M,210.00,4.00,M,30.20,M,10.00,M,CLR,M,M,M,M,M,M,M,M,KPYM 030355Z AUTO 21004KT 10SM CLR A3020 RMK MADISHF
CQX,2017-11-03 03:55,-69.9933,41.6875,M,M,M,170.00,4.00,M,30.21,M,9.00,M,FEW,M,M,M,200.00,M,M,M,M,KCQX 030355Z AUTO 17004KT 9SM FEW002 A3021 RMK VRB04KT  MADISHF
PVC,2017-11-03 03:55,-70.2200,42.0700,M,M,M,190.00,7.00,M,30.20,M,10.00,M,CLR,M,M,M,M,M,M,M,M,KPVC 030355Z AUTO 19007KT 10SM CLR A3020 RMK MADISHF
GHG,2017-11-03 03:55,-70.6721,42.0982,60.80,59.00,93.79,M,5.00,0.00,30.18,M,10.00,M,CLR,M,M,M,M,M,M,M,M,KGHG 030355Z AUTO VRB05KT 10SM CLR 16/15 A3018 RMK AO2
FMH,2017-11-03 03:55,-70.5215,41.6585,59.00,59.00,100.00,170.00,8.00,0.00,30.21,M,10.00,M,SCT,SCT,SCT,M,300.00,3000.00,3500.00,M,M,KFMH 030355Z AUTO 17008KT 10SM SCT003 SCT030 SCT035 15/15 A3021 RMK AO2
MQE,2017-11-03 03:56,-71.1142,42.2121,59.00,57.90,96.13,190.00,13.00,0.00,30.17,1022.60,M,M,M,M,M,M,M,M,M,M,M,KMQE 030356Z AUTO 19013KT 15/14 A3017 RMK AO1 SLP226 T01500144
PVC,2017-11-03 03:56,-70.2200,42.0700,57.90,57.00,96.81,190.00,7.00,0.00,30.20,1022.60,10.00,M,CLR,M,M,M,M,M,M,M,M,KPVC 030356Z AUTO 19007KT 10SM CLR 14/14 A3020 RMK AO2 SLP226 T01440139
HYA,2017-11-03 03:56,-70.2800,41.6700,61.00,60.10,96.85,180.00,5.00,0.00,30.19,1022.40,7.00,M,SCT,M,M,M,300.00,M,M,M,M,KHYA 030356Z AUTO 18005KT 7SM SCT003 16/16 A3019 RMK AO2 SLP224 T01610156
BED,2017-11-03 03:56,-71.2890,42.4699,61.00,59.00,93.12,210.00,7.00,0.00,30.16,1022.40,10.00,M,OVC,M,M,M,900.00,M,M,M,M,KBED 030356Z AUTO 21007KT 10SM OVC009 16/15 A3016 RMK AO2 SLP224 T01610150
TAN,2017-11-03 03:57,-71.0211,41.8756,55.00,53.10,93.29,0.00,0.00,0.00,30.19,M,1.50,M,CLR,M,M,M,M,M,M,M,BR,KTAN 030357Z AUTO 00000KT 1 1/2SM BR CLR 13/12 A3019 RMK AO2 T01280117
TAN,2017-11-03 04:00,-71.0211,41.8756,M,M,M,0.00,0.00,M,30.19,M,1.00,M,CLR,M,M,M,M,M,M,M,BR,KTAN 030400Z AUTO 00000KT 1SM BR CLR A3019 RMK MADISHF
CQX,2017-11-03 04:00,-69.9933,41.6875,M,M,M,170.00,5.00,M,30.21,M,10.00,M,FEW,M,M,M,200.00,M,M,M,M,KCQX 030400Z AUTO 17005KT 10SM FEW002 A3021 RMK VRB05KT  MADISHF
PVC,2017-11-03 04:00,-70.2200,42.0700,M,M,M,180.00,7.00,M,30.20,M,10.00,M,CLR,M,M,M,M,M,M,M,M,KPVC 030400Z AUTO 18007KT 10SM CLR A3020 RMK MADISHF
PYM,2017-11-03 04:00,-70.7288,41.9090,M,M,M,200.00,4.00,M,30.20,M,10.00,M,CLR,M,M,M,M,M,M,M,M,KPYM 030400Z AUTO 20004KT 10SM CLR A3020 RMK MADISHF
OWD,2017-11-03 04:00,-71.1733,42.1912,M,M,M,160.00,4.00,M,30.17,M,10.00,M,BKN,M,M,M,700.00,M,M,M,M,KOWD 030400Z AUTO 16004KT 10SM BKN007 A3017 RMK MADISHF
BOS,2017-11-03 04:00,-71.0097,42.3606,M,M,M,200.00,8.00,M,30.17,M,10.00,M,FEW,FEW,M,M,999.00,3300.00,M,M,M,KBOS 030400Z AUTO 20008KT 10SM FEW009 FEW033 A3017 RMK MADISHF
ORH,2017-11-03 04:00,-71.8757,42.2673,M,M,M,M,M,M,30.17,M,10.00,M,BKN,OVC,M,M,600.00,999.00,M,M,M,KORH 030400Z AUTO /////KT 10SM BKN006 OVC009 A3017 RMK MADISHF
BED,2017-11-03 04:00,-71.2890,42.4699,M,M,M,200.00,9.00,M,30.16,M,10.00,M,BKN,M,M,M,900.00,M,M,M,M,KBED 030400Z AUTO 20009KT 10SM BKN009 A3016 RMK MADISHF
HYA,2017-11-03 04:00,-70.2800,41.6700,M,M,M,180.00,5.00,M,30.19,M,7.00,M,BKN,M,M,M,300.00,M,M,M,M,KHYA 030400Z AUTO 18005KT 7SM BKN003 A3019 RMK MADISHF
EWB,2017-11-03 04:00,-70.9583,41.6764,M,M,M,0.00,0.00,M,30.19,M,10.00,M,CLR,M,M,M,M,M,M,M,M,KEWB 030400Z AUTO 00000KT 10SM CLR A3019 RMK MADISHF
ORE,2017-11-03 04:00,-72.2886,42.5701,M,M,M,160.00,6.00,M,30.15,M,10.00,M,FEW,OVC,M,M,1600.00,10000.00,M,M,M,KORE 030400Z AUTO 16006KT 10SM FEW016 OVC100 A3015 RMK MADISHF
TAN,2017-11-03 04:01,-71.0211,41.8756,54.00,53.10,96.76,0.00,0.00,0.00,30.19,M,0.75,M,CLR,M,M,M,M,M,M,M,BR,KTAN 030401Z AUTO 00000KT 3/4SM BR CLR 12/12 A3019 RMK AO2 T01220117
FIT,2017-11-03 04:05,-71.7558,42.5519,M,M,M,0.00,0.00,M,30.16,M,8.00,M,BKN,OVC,M,M,1699.00,10000.00,M,M,-RA,KFIT 030405Z AUTO 00000KT 8SM -RA BKN016 OVC100 A3016 RMK MADISHF
OWD,2017-11-03 04:05,-71.1733,42.1912,M,M,M,160.00,5.00,M,30.17,M,10.00,M,BKN,M,M,M,800.00,M,M,M,M,KOWD 030405Z AUTO 16005KT 10SM BKN008 A3017 RMK MADISHF
BED,2017-11-03 04:05,-71.2890,42.4699,M,M,M,200.00,8.00,M,30.16,M,10.00,M,BKN,M,M,M,900.00,M,M,M,M,KBED 030405Z AUTO 20008KT 10SM BKN009 A3016 RMK MADISHF
EWB,2017-11-03 04:05,-70.9583,41.6764,M,M,M,0.00,0.00,M,30.19,M,10.00,M,CLR,M,M,M,M,M,M,M,M,KEWB 030405Z AUTO 00000KT 10SM CLR A3019 RMK MADISHF
BOS,2017-11-03 04:05,-71.0097,42.3606,M,M,M,190.00,7.00,M,30.17,M,10.00,M,FEW,FEW,M,M,999.00,3300.00,M,M,M,KBOS 030405Z AUTO 19007KT 10SM FEW009 FEW033 A3017 RMK MADISHF
PYM,2017-11-03 04:05,-70.7288,41.9090,M,M,M,190.00,3.00,M,30.19,M,10.00,M,CLR,M,M,M,M,M,M,M,M,KPYM 030405Z AUTO 19003KT 10SM CLR A3019 RMK MADISHF
PVC,2017-11-03 04:05,-70.2200,42.0700,M,M,M,180.00,7.00,M,30.20,M,10.00,M,CLR,M,M,M,M,M,M,M,M,KPVC 030405Z AUTO 18007KT 10SM CLR A3020 RMK MADISHF
TAN,2017-11-03 04:05,-71.0211,41.8756,M,M,M,170.00,3.00,M,30.19,M,0.50,M,CLR,M,M,M,M,M,M,M,FG,KTAN 030405Z AUTO 17003KT 1/2SM FG CLR A3019 RMK MADISHF
ORH,2017-11-03 04:05,-71.8757,42.2673,M,M,M,M,M,M,30.17,M,10.00,M,BKN,OVC,M,M,600.00,999.00,M,M,M,KORH 030405Z AUTO /////KT 10SM BKN006 OVC009 A3017 RMK MADISHF
CQX,2017-11-03 04:05,-69.9933,41.6875,M,M,M,190.00,4.00,M,30.21,M,10.00,M,CLR,M,M,M,M,M,M,M,M,KCQX 030405Z AUTO 19004KT 10SM CLR A3021 RMK VRB04KT  MADISHF
ORE,2017-11-03 04:05,-72.2886,42.5701,M,M,M,170.00,4.00,M,30.15,M,10.00,M,FEW,OVC,M,M,1600.00,10000.00,M,M,M,KORE 030405Z AUTO 17004KT 10SM FEW016 OVC100 A3015 RMK MADISHF
HYA,2017-11-03 04:05,-70.2800,41.6700,M,M,M,170.00,4.00,M,30.19,M,7.00,M,SCT,M,M,M,300.00,M,M,M,M,KHYA 030405Z AUTO 17004KT 7SM SCT003 A3019 RMK MADISHF
PVC,2017-11-03 04:10,-70.2200,42.0700,M,M,M,180.00,8.00,M,30.20,M,10.00,M,CLR,M,M,M,M,M,M,M,M,KPVC 030410Z AUTO 18008KT 10SM CLR A3020 RMK MADISHF
BED,2017-11-03 04:10,-71.2890,42.4699,M,M,M,200.00,7.00,M,30.15,M,10.00,M,BKN,M,M,M,900.00,M,M,M,M,KBED 030410Z AUTO 20007KT 10SM BKN009 A3015 RMK MADISHF
EWB,2017-11-03 04:10,-70.9583,41.6764,M,M,M,0.00,0.00,M,30.19,M,10.00,M,CLR,M,M,M,M,M,M,M,M,KEWB 030410Z AUTO 00000KT 10SM CLR A3019 RMK MADISHF
HYA,2017-11-03 04:10,-70.2800,41.6700,M,M,M,170.00,4.00,M,30.18,M,7.00,M,FEW,M,M,M,300.00,M,M,M,M,KHYA 030410Z AUTO 17004KT 7SM FEW003 A3018 RMK MADISHF
BOS,2017-11-03 04:10,-71.0097,42.3606,M,M,M,190.00,7.00,M,30.17,M,10.00,M,FEW,FEW,M,M,999.00,3300.00,M,M,M,KBOS 030410Z AUTO 19007KT 10SM FEW009 FEW033 A3017 RMK MADISHF
TAN,2017-11-03 04:10,-71.0211,41.8756,M,M,M,160.00,3.00,M,30.18,M,0.50,M,CLR,M,M,M,M,M,M,M,FG,KTAN 030410Z AUTO 16003KT 1/2SM FG CLR A3018 RMK MADISHF
ORH,2017-11-03 04:10,-71.8757,42.2673,M,M,M,M,M,M,30.17,M,10.00,M,BKN,OVC,M,M,800.00,1100.00,M,M,M,KORH 030410Z AUTO /////KT 10SM BKN008 OVC011 A3017 RMK CIG 5V9  MADISHF
OWD,2017-11-03 04:10,-71.1733,42.1912,M,M,M,170.00,5.00,M,30.17,M,10.00,M,BKN,M,M,M,800.00,M,M,M,M,KOWD 030410Z AUTO 17005KT 10SM BKN008 A3017 RMK MADISHF
ORE,2017-11-03 04:10,-72.2886,42.5701,M,M,M,170.00,3.00,M,30.15,M,10.00,M,SCT,OVC,M,M,1600.00,10000.00,M,M,M,KORE 030410Z AUTO 17003KT 10SM SCT016 OVC100 A3015 RMK MADISHF
FIT,2017-11-03 04:10,-71.7558,42.5519,M,M,M,0.00,0.00,M,30.16,M,9.00,M,SCT,OVC,M,M,1699.00,11000.00,M,M,M,KFIT 030410Z AUTO 00000KT 9SM SCT016 OVC110 A3016 RMK MADISHF
PYM,2017-11-03 04:10,-70.7288,41.9090,M,M,M,200.00,4.00,M,30.19,M,10.00,M,CLR,M,M,M,M,M,M,M,M,KPYM 030410Z AUTO 20004KT 10SM CLR A3019 RMK MADISHF
FIT,2017-11-03 04:12,-71.7558,42.5519,57.90,57.00,96.81,0.00,0.00,0.00,30.16,M,9.00,M,SCT,BKN,M,M,1700.00,11000.00,M,M,M,KFIT 030412Z AUTO 00000KT 9SM SCT017 BKN110 14/14 A3016 RMK AO2 RAB00E09 P0000 T01440139
FIT,2017-11-03 04:15,-71.7558,42.5519,M,M,M,0.00,0.00,M,30.16,M,8.00,M,FEW,BKN,M,M,1699.00,11000.00,M,M,M,KFIT 030415Z AUTO 00000KT 8SM FEW016 BKN110 A3016 RMK MADISHF
PYM,2017-11-03 04:15,-70.7288,41.9090,M,M,M,200.00,4.00,M,30.19,M,10.00,M,CLR,M,M,M,M,M,M,M,M,KPYM 030415Z AUTO 20004KT 10SM CLR A3019 RMK MADISHF
PVC,2017-11-03 04:15,-70.2200,42.0700,M,M,M,180.00,7.00,M,30.20,M,10.00,M,CLR,M,M,M,M,M,M,M,M,KPVC 030415Z AUTO 18007KT 10SM CLR A3020 RMK MADISHF
OWD,2017-11-03 04:15,-71.1733,42.1912,M,M,M,170.00,4.00,M,30.17,M,10.00,M,BKN,M,M,M,800.00,M,M,M,M,KOWD 030415Z AUTO 17004KT 10SM BKN008 A3017 RMK MADISHF
BOS,2017-11-03 04:15,-71.0097,42.3606,M,M,M,190.00,7.00,M,30.17,M,10.00,M,FEW,FEW,M,M,999.00,3300.00,M,M,M,KBOS 030415Z AUTO 19007KT 10SM FEW009 FEW033 A3017 RMK MADISHF
ORH,2017-11-03 04:15,-71.8757,42.2673,M,M,M,M,M,M,30.17,M,10.00,M,BKN,OVC,M,M,800.00,12000.00,M,M,M,KORH 030415Z AUTO /////KT 10SM BKN008 OVC120 A3017 RMK CIG 5V11  MADISHF
CQX,2017-11-03 04:15,-69.9933,41.6875,M,M,M,M,M,M,30.21,M,10.00,M,CLR,M,M,M,M,M,M,M,M,KCQX 030415Z AUTO /////KT 10SM CLR A3021 RMK MADISHF
EWB,2017-11-03 04:15,-70.9583,41.6764,M,M,M,0.00,0.00,M,30.19,M,10.00,M,CLR,M,M,M,M,M,M,M,M,KEWB 030415Z AUTO 00000KT 10SM CLR A3019 RMK MADISHF
BED,2017-11-03 04:15,-71.2890,42.4699,M,M,M,190.00,7.00,M,30.15,M,10.00,M,BKN,M,M,M,900.00,M,M,M,M,KBED 030415Z AUTO 19007KT 10SM BKN009 A3015 RMK MADISHF
HYA,2017-11-03 04:15,-70.2800,41.6700,M,M,M,180.00,3.00,M,30.18,M,7.00,M,FEW,M,M,M,300.00,M,M,M,M,KHYA 030415Z AUTO 18003KT 7SM FEW003 A3018 RMK MADISHF
FMH,2017-11-03 04:15,-70.5215,41.6585,60.80,60.80,100.00,180.00,9.00,0.00,30.20,M,9.00,M,OVC,M,M,M,300.00,M,M,M,M,KFMH 030415Z AUTO 18009KT 9SM OVC003 16/16 A3020 RMK AO2
GHG,2017-11-03 04:15,-70.6721,42.0982,60.80,59.00,93.79,210.00,6.00,0.00,30.18,M,10.00,M,CLR,M,M,M,M,M,M,M,M,KGHG 030415Z AUTO 21006KT 10SM CLR 16/15 A3018 RMK AO2
TAN,2017-11-03 04:16,-71.0211,41.8756,55.00,53.10,93.29,150.00,4.00,0.00,30.18,M,1.50,M,CLR,M,M,M,M,M,M,M,BR,KTAN 030416Z AUTO 15004KT 1 1/2SM BR CLR 13/12 A3018 RMK AO2 T01280117
TAN,2017-11-03 04:19,-71.0211,41.8756,55.00,53.10,93.29,140.00,4.00,0.00,30.18,M,3.00,M,CLR,M,M,M,M,M,M,M,BR,KTAN 030419Z AUTO 14004KT 3SM BR CLR 13/12 A3018 RMK AO2 T01280117
TAN,2017-11-03 04:20,-71.0211,41.8756,M,M,M,140.00,4.00,M,30.18,M,4.00,M,CLR,M,M,M,M,M,M,M,BR,KTAN 030420Z AUTO 14004KT 4SM BR CLR A3018 RMK MADISHF
CQX,2017-11-03 04:20,-69.9933,41.6875,M,M,M,190.00,5.00,M,30.21,M,9.00,M,CLR,M,M,M,M,M,M,M,M,KCQX 030420Z AUTO 19005KT 9SM CLR A3021 RMK VRB05KT  MADISHF
HYA,2017-11-03 04:20,-70.2800,41.6700,M,M,M,170.00,3.00,M,30.18,M,7.00,M,FEW,M,M,M,300.00,M,M,M,M,KHYA 030420Z AUTO 17003KT 7SM FEW003 A3018 RMK VRB03KT  MADISHF
BOS,2017-11-03 04:20,-71.0097,42.3606,M,M,M,200.00,8.00,M,30.17,M,10.00,M,FEW,FEW,M,M,999.00,3300.00,M,M,M,KBOS 030420Z AUTO 20008KT 10SM FEW009 FEW033 A3017 RMK MADISHF
EWB,2017-11-03 04:20,-70.9583,41.6764,M,M,M,0.00,0.00,M,30.18,M,10.00,M,CLR,M,M,M,M,M,M,M,M,KEWB 030420Z AUTO 00000KT 10SM CLR A3018 RMK MADISHF
PVC,2017-11-03 04:20,-70.2200,42.0700,M,M,M,190.00,7.00,M,30.20,M,10.00,M,CLR,M,M,M,M,M,M,M,M,KPVC 030420Z AUTO 19007KT 10SM CLR A3020 RMK MADISHF
ORE,2017-11-03 04:20,-72.2886,42.5701,M,M,M,180.00,4.00,M,30.15,M,10.00,M,BKN,OVC,M,M,1600.00,10000.00,M,M,M,KORE 030420Z AUTO 18004KT 10SM BKN016 OVC100 A3015 RMK MADISHF
ORH,2017-11-03 04:20,-71.8757,42.2673,M,M,M,M,M,M,30.17,M,10.00,M,OVC,M,M,M,700.00,M,M,M,M,KORH 030420Z AUTO /////KT 10SM OVC007 A3017 RMK CIG 5V11  MADISHF
BED,2017-11-03 04:20,-71.2890,42.4699,M,M,M,200.00,7.00,M,30.15,M,10.00,M,BKN,M,M,M,800.00,M,M,M,M,KBED 030420Z AUTO 20007KT 10SM BKN008 A3015 RMK MADISHF
OWD,2017-11-03 04:20,-71.1733,42.1912,M,M,M,170.00,4.00,M,30.17,M,10.00,M,BKN,M,M,M,800.00,M,M,M,M,KOWD 030420Z AUTO 17004KT 10SM BKN008 A3017 RMK MADISHF
TAN,2017-11-03 04:25,-71.0211,41.8756,M,M,M,140.00,4.00,M,30.18,M,10.00,M,CLR,M,M,M,M,M,M,M,M,KTAN 030425Z AUTO 14004KT 10SM CLR A3018 RMK MADISHF
ORE,2017-11-03 04:25,-72.2886,42.5701,61.00,59.00,93.12,150.00,5.00,0.00,30.14,M,10.00,M,BKN,OVC,M,M,1600.00,11000.00,M,M,M,KORE 030425Z AUTO 15005KT 10SM BKN016 OVC110 16/15 A3014 RMK AO2 T01610150 TSNO
CQX,2017-11-03 04:25,-69.9933,41.6875,M,M,M,180.00,5.00,M,30.21,M,9.00,M,CLR,M,M,M,M,M,M,M,M,KCQX 030425Z AUTO 18005KT 9SM CLR A3021 RMK VRB05KT  MADISHF
PVC,2017-11-03 04:25,-70.2200,42.0700,M,M,M,190.00,7.00,M,30.20,M,10.00,M,FEW,M,M,M,300.00,M,M,M,M,KPVC 030425Z AUTO 19007KT 10SM FEW003 A3020 RMK MADISHF
BED,2017-11-03 04:25,-71.2890,42.4699,M,M,M,200.00,6.00,M,30.15,M,10.00,M,BKN,BKN,M,M,800.00,11000.00,M,M,M,KBED 030425Z AUTO 20006KT 10SM BKN008 BKN110 A3015 RMK MADISHF
ORH,2017-11-03 04:25,-71.8757,42.2673,M,M,M,200.00,11.00,M,30.16,M,10.00,M,BKN,OVC,M,M,700.00,12000.00,M,M,M,KORH 030425Z AUTO 20011KT 10SM BKN007 OVC120 A3016 RMK CIG 5V11  MADISHF
EWB,2017-11-03 04:25,-70.9583,41.6764,M,M,M,0.00,0.00,M,30.18,M,6.00,M,CLR,M,M,M,M,M,M,M,BR,KEWB 030425Z AUTO 00000KT 6SM BR CLR A3018 RMK MADISHF
FIT,2017-11-03 04:25,-71.7558,42.5519,M,M,M,0.00,0.00,M,30.16,M,8.00,M,FEW,BKN,M,M,1699.00,10000.00,M,M,M,KFIT 030425Z AUTO 00000KT 8SM FEW016 BKN100 A3016 RMK MADISHF
OWD,2017-11-03 04:25,-71.1733,42.1912,M,M,M,170.00,5.00,M,30.17,M,10.00,M,BKN,M,M,M,800.00,M,M,M,M,KOWD 030425Z AUTO 17005KT 10SM BKN008 A3017 RMK MADISHF
HYA,2017-11-03 04:25,-70.2800,41.6700,M,M,M,180.00,3.00,M,30.18,M,8.00,M,FEW,M,M,M,300.00,M,M,M,M,KHYA 030425Z AUTO 18003KT 8SM FEW003 A3018 RMK MADISHF
BOS,2017-11-03 04:25,-71.0097,42.3606,M,M,M,210.00,8.00,M,30.17,M,10.00,M,FEW,FEW,M,M,999.00,3300.00,M,M,M,KBOS 030425Z AUTO 21008KT 10SM FEW009 FEW033 A3017 RMK MADISHF
PYM,2017-11-03 04:25,-70.7288,41.9090,M,M,M,190.00,3.00,M,30.19,M,10.00,M,CLR,M,M,M,M,M,M,M,M,KPYM 030425Z AUTO 19003KT 10SM CLR A3019 RMK MADISHF
CQX,2017-11-03 04:30,-69.9933,41.6875,M,M,M,180.00,6.00,M,30.21,M,9.00,M,CLR,M,M,M,M,M,M,M,M,KCQX 030430Z AUTO 18006KT 9SM CLR A3021 RMK MADISHF
ORE,2017-11-03 04:30,-72.2886,42.5701,M,M,M,170.00,4.00,M,30.14,M,10.00,M,BKN,OVC,M,M,1600.00,11000.00,M,M,M,KORE 030430Z AUTO 17004KT 10SM BKN016 OVC110 A3014 RMK MADISHF
TAN,2017-11-03 04:30,-71.0211,41.8756,M,M,M,150.00,4.00,M,30.17,M,10.00,M,CLR,M,M,M,M,M,M,M,M,KTAN 030430Z AUTO 15004KT 10SM CLR A3017 RMK MADISHF
PVC,2017-11-03 04:30,-70.2200,42.0700,M,M,M,190.00,8.00,M,30.20,M,10.00,M,SCT,M,M,M,300.00,M,M,M,M,KPVC 030430Z AUTO 19008KT 10SM SCT003 A3020 RMK MADISHF
FIT,2017-11-03 04:30,-71.7558,42.5519,M,M,M,0.00,0.00,M,30.16,M,8.00,M,BKN,M,M,M,11000.00,M,M,M,-RA,KFIT 030430Z AUTO 00000KT 8SM -RA BKN110 A3016 RMK MADISHF
EWB,2017-11-03 04:30,-70.9583,41.6764,M,M,M,0.00,0.00,M,30.18,M,6.00,M,CLR,M,M,M,M,M,M,M,BR,KEWB 030430Z AUTO 00000KT 6SM BR CLR A3018 RMK MADISHF
OWD,2017-11-03 04:30,-71.1733,42.1912,M,M,M,170.00,5.00,M,30.16,M,10.00,M,SCT,M,M,M,800.00,M,M,M,M,KOWD 030430Z AUTO 17005KT 10SM SCT008 A3016 RMK MADISHF
BED,2017-11-03 04:30,-71.2890,42.4699,M,M,M,190.00,6.00,M,30.15,M,10.00,M,BKN,BKN,M,M,800.00,11000.00,M,M,M,KBED 030430Z AUTO 19006KT 10SM BKN008 BKN110 A3015 RMK MADISHF
HYA,2017-11-03 04:30,-70.2800,41.6700,M,M,M,170.00,3.00,M,30.18,M,8.00,M,CLR,M,M,M,M,M,M,M,M,KHYA 030430Z AUTO 17003KT 8SM CLR A3018 RMK MADISHF
GHG,2017-11-03 04:30,-70.6721,42.0982,60.80,57.20,87.92,200.00,5.00,0.00,30.17,M,10.00,M,CLR,M,M,M,M,M,M,M,M,KGHG 030430Z AUTO 20005KT 10SM CLR 16/14 A3017 RMK AO2
PYM,2017-11-03 04:30,-70.7288,41.9090,M,M,M,190.00,3.00,M,30.19,M,10.00,M,CLR,M,M,M,M,M,M,M,M,KPYM 030430Z AUTO 19003KT 10SM CLR A3019 RMK MADISHF
ORH,2017-11-03 04:30,-71.8757,42.2673,M,M,M,210.00,12.00,M,30.16,M,10.00,M,BKN,BKN,OVC,M,700.00,1100.00,11000.00,M,M,KORH 030430Z AUTO 21012KT 10SM BKN007 BKN011 OVC110 A3016 RMK CIG 5V9  MADISHF
BOS,2017-11-03 04:30,-71.0097,42.3606,M,M,M,200.00,9.00,M,30.16,M,10.00,M,FEW,FEW,M,M,999.00,3300.00,M,M,M,KBOS 030430Z AUTO 20009KT 10SM FEW009 FEW033 A3016 RMK MADISHF
PVC,2017-11-03 04:32,-70.2200,42.0700,57.20,57.20,100.00,190.00,7.00,0.00,30.19,M,10.00,M,BKN,M,M,M,300.00,M,M,M,M,KPVC 030432Z AUTO 19007KT 10SM BKN003 14/14 A3019 RMK AO2
ORE,2017-11-03 04:35,-72.2886,42.5701,M,M,M,180.00,6.00,M,30.14,M,10.00,M,BKN,OVC,M,M,1600.00,11000.00,M,M,M,KORE 030435Z AUTO 18006KT 10SM BKN016 OVC110 A3014 RMK MADISHF
FIT,2017-11-03 04:35,-71.7558,42.5519,M,M,M,0.00,0.00,M,30.15,M,8.00,M,BKN,M,M,M,11000.00,M,M,M,M,KFIT 030435Z AUTO 00000KT 8SM BKN110 A3015 RMK MADISHF
HYA,2017-11-03 04:35,-70.2800,41.6700,M,M,M,0.00,0.00,M,30.18,M,7.00,M,CLR,M,M,M,M,M,M,M,M,KHYA 030435Z AUTO 00000KT 7SM CLR A3018 RMK MADISHF
BOS,2017-11-03 04:35,-71.0097,42.3606,M,M,M,200.00,8.00,M,30.16,M,10.00,M,FEW,FEW,M,M,999.00,3300.00,M,M,M,KBOS 030435Z AUTO 20008KT 10SM FEW009 FEW033 A3016 RMK MADISHF
OWD,2017-11-03 04:35,-71.1733,42.1912,M,M,M,180.00,4.00,M,30.16,M,10.00,M,SCT,M,M,M,700.00,M,M,M,M,KOWD 030435Z AUTO 18004KT 10SM SCT007 A3016 RMK MADISHF
BED,2017-11-03 04:35,-71.2890,42.4699,M,M,M,190.00,7.00,M,30.15,M,10.00,M,BKN,BKN,M,M,800.00,11000.00,M,M,M,KBED 030435Z AUTO 19007KT 10SM BKN008 BKN110 A3015 RMK MADISHF
TAN,2017-11-03 04:35,-71.0211,41.8756,M,M,M,160.00,4.00,M,30.17,M,10.00,M,CLR,M,M,M,M,M,M,M,M,KTAN 030435Z AUTO 16004KT 10SM CLR A3017 RMK MADISHF
PYM,2017-11-03 04:35,-70.7288,41.9090,M,M,M,180.00,4.00,M,30.19,M,10.00,M,CLR,M,M,M,M,M,M,M,M,KPYM 030435Z AUTO 18004KT 10SM CLR A3019 RMK MADISHF
PVC,2017-11-03 04:35,-70.2200,42.0700,M,M,M,190.00,8.00,M,30.19,M,10.00,M,BKN,M,M,M,300.00,M,M,M,M,KPVC 030435Z AUTO 19008KT 10SM BKN003 A3019 RMK MADISHF
ORH,2017-11-03 04:35,-71.8757,42.2673,M,M,M,M,M,M,30.16,M,10.00,M,BKN,BKN,OVC,M,700.00,1100.00,11000.00,M,M,KORH 030435Z AUTO /////KT 10SM BKN007 BKN011 OVC110 A3016 RMK CIG 6V9  MADISHF
EWB,2017-11-03 04:35,-70.9583,41.6764,M,M,M,0.00,0.00,M,30.18,M,10.00,M,CLR,M,M,M,M,M,M,M,M,KEWB 030435Z AUTO 00000KT 10SM CLR A3018 RMK MADISHF
CQX,2017-11-03 04:35,-69.9933,41.6875,M,M,M,190.00,4.00,M,30.20,M,10.00,M,CLR,M,M,M,M,M,M,M,M,KCQX 030435Z AUTO 19004KT 10SM CLR A3020 RMK MADISHF
FMH,2017-11-03 04:35,-70.5215,41.6585,60.80,60.80,100.00,180.00,11.00,0.00,30.20,M,4.00,M,OVC,M,M,M,300.00,M,M,M,BR,KFMH 030435Z AUTO 18011KT 4SM BR OVC003 16/16 A3020 RMK AO2
OWD,2017-11-03 04:36,-71.1733,42.1912,62.10,60.10,93.16,190.00,4.00,0.00,30.16,M,10.00,M,SCT,M,M,M,700.00,M,M,M,M,KOWD 030436Z AUTO 19004KT 10SM SCT007 17/16 A3016 RMK AO2 T01670156
BED,2017-11-03 04:40,-71.2890,42.4699,M,M,M,200.00,6.00,M,30.15,M,10.00,M,BKN,BKN,M,M,800.00,11000.00,M,M,M,KBED 030440Z AUTO 20006KT 10SM BKN008 BKN110 A3015 RMK MADISHF
ORH,2017-11-03 04:40,-71.8757,42.2673,M,M,M,M,M,M,30.16,M,10.00,M,BKN,OVC,M,M,700.00,11000.00,M,M,M,KORH 030440Z AUTO /////KT 10SM BKN007 OVC110 A3016 RMK CIG 6V12  MADISHF
BOS,2017-11-03 04:40,-71.0097,42.3606,M,M,M,200.00,7.00,M,30.16,M,10.00,M,FEW,FEW,M,M,999.00,3300.00,M,M,M,KBOS 030440Z AUTO 20007KT 10SM FEW009 FEW033 A3016 RMK MADISHF
TAN,2017-11-03 04:40,-71.0211,41.8756,M,M,M,170.00,3.00,M,30.17,M,10.00,M,CLR,M,M,M,M,M,M,M,M,KTAN 030440Z AUTO 17003KT 10SM CLR A3017 RMK MADISHF
CQX,2017-11-03 04:40,-69.9933,41.6875,M,M,M,180.00,5.00,M,30.20,M,10.00,M,CLR,M,M,M,M,M,M,M,M,KCQX 030440Z AUTO 18005KT 10SM CLR A3020 RMK VRB05KT  MADISHF
HYA,2017-11-03 04:40,-70.2800,41.6700,M,M,M,170.00,3.00,M,30.18,M,7.00,M,CLR,M,M,M,M,M,M,M,M,KHYA 030440Z AUTO 17003KT 7SM CLR A3018 RMK MADISHF
EWB,2017-11-03 04:40,-70.9583,41.6764,M,M,M,0.00,0.00,M,30.17,M,7.00,M,CLR,M,M,M,M,M,M,M,M,KEWB 030440Z AUTO 00000KT 7SM CLR A3017 RMK MADISHF
ORE,2017-11-03 04:40,-72.2886,42.5701,M,M,M,170.00,5.00,M,30.14,M,10.00,M,BKN,OVC,M,M,1600.00,11000.00,M,M,M,KORE 030440Z AUTO 17005KT 10SM BKN016 OVC110 A3014 RMK MADISHF
OWD,2017-11-03 04:40,-71.1733,42.1912,M,M,M,190.00,5.00,M,30.16,M,10.00,M,FEW,M,M,M,700.00,M,M,M,M,KOWD 030440Z AUTO 19005KT 10SM FEW007 A3016 RMK MADISHF
PVC,2017-11-03 04:40,-70.2200,42.0700,M,M,M,180.00,7.00,M,30.19,M,9.00,M,BKN,M,M,M,300.00,M,M,M,M,KPVC 030440Z AUTO 18007KT 9SM BKN003 A3019 RMK MADISHF
EWB,2017-11-03 04:43,-70.9583,41.6764,54.00,53.10,96.76,0.00,0.00,0.00,30.17,M,1.50,M,CLR,M,M,M,M,M,M,M,BR,KEWB 030443Z AUTO 00000KT 1 1/2SM R05/4500VP6000FT BR CLR 12/12 A3017 RMK AO2 VIS 1/2V5 T01220117
ORE,2017-11-03 04:45,-72.2886,42.5701,M,M,M,190.00,9.00,M,30.14,M,10.00,M,SCT,OVC,M,M,1600.00,11000.00,M,M,M,KORE 030445Z AUTO 19009KT 10SM SCT016 OVC110 A3014 RMK MADISHF
TAN,2017-11-03 04:45,-71.0211,41.8756,M,M,M,170.00,3.00,M,30.17,M,10.00,M,CLR,M,M,M,M,M,M,M,M,KTAN 030445Z AUTO 17003KT 10SM CLR A3017 RMK MADISHF
OWD,2017-11-03 04:45,-71.1733,42.1912,M,M,M,180.00,4.00,M,30.16,M,10.00,M,FEW,M,M,M,700.00,M,M,M,M,KOWD 030445Z AUTO 18004KT 10SM FEW007 A3016 RMK MADISHF
BED,2017-11-03 04:45,-71.2890,42.4699,M,M,M,190.00,6.00,M,30.15,M,10.00,M,SCT,BKN,M,M,800.00,11000.00,M,M,M,KBED 030445Z AUTO 19006KT 10SM SCT008 BKN110 A3015 RMK MADISHF
EWB,2017-11-03 04:45,-70.9583,41.6764,M,M,M,0.00,0.00,M,30.17,M,1.25,M,CLR,M,M,M,M,M,M,M,BR,KEWB 030445Z AUTO 00000KT 1 1/2SM BR CLR A3017 RMK MADISHF
HYA,2017-11-03 04:45,-70.2800,41.6700,M,M,M,190.00,4.00,M,30.18,M,7.00,M,FEW,M,M,M,400.00,M,M,M,M,KHYA 030445Z AUTO 19004KT 7SM FEW004 A3018 RMK MADISHF
ORH,2017-11-03 04:45,-71.8757,42.2673,M,M,M,M,M,M,30.16,M,10.00,M,SCT,OVC,M,M,700.00,11000.00,M,M,M,KORH 030445Z AUTO /////KT 10SM SCT007 OVC110 A3016 RMK MADISHF
PYM,2017-11-03 04:45,-70.7288,41.9090,M,M,M,170.00,3.00,M,30.18,M,10.00,M,CLR,M,M,M,M,M,M,M,M,KPYM 030445Z AUTO 17003KT 10SM CLR A3018 RMK MADISHF
BOS,2017-11-03 04:45,-71.0097,42.3606,M,M,M,210.00,7.00,M,30.16,M,10.00,M,FEW,FEW,M,M,999.00,3300.00,M,M,M,KBOS 030445Z AUTO 21007KT 10SM FEW009 FEW033 A3016 RMK MADISHF
FIT,2017-11-03 04:45,-71.7558,42.5519,M,M,M,0.00,0.00,M,30.15,M,4.00,M,FEW,BKN,M,M,1800.00,11000.00,M,M,BR,KFIT 030445Z AUTO 00000KT 4SM BR FEW018 BKN110 A3015 RMK MADISHF
PVC,2017-11-03 04:45,-70.2200,42.0700,M,M,M,180.00,8.00,M,30.19,M,8.00,M,BKN,M,M,M,300.00,M,M,M,M,KPVC 030445Z AUTO 18008KT 8SM BKN003 A3019 RMK MADISHF
CQX,2017-11-03 04:45,-69.9933,41.6875,M,M,M,180.00,5.00,M,30.20,M,10.00,M,CLR,M,M,M,M,M,M,M,M,KCQX 030445Z AUTO 18005KT 10SM CLR A3020 RMK VRB05KT  MADISHF
ORE,2017-11-03 04:48,-72.2886,42.5701,62.60,59.00,88.00,170.00,5.00,0.00,30.14,M,10.00,M,SCT,OVC,M,M,1600.00,11000.00,M,M,M,KORE 030448Z AUTO 17005KT 10SM SCT016 OVC110 17/15 A3014 RMK AO2 TSNO
BED,2017-11-03 04:48,-71.2890,42.4699,61.00,59.00,93.12,190.00,8.00,0.00,30.14,M,10.00,M,SCT,BKN,M,M,800.00,11000.00,M,M,M,KBED 030448Z AUTO 19008KT 10SM SCT008 BKN110 16/15 A3014 RMK AO2 T01610150
PVC,2017-11-03 04:50,-70.2200,42.0700,M,M,M,180.00,8.00,M,30.19,M,7.00,M,OVC,M,M,M,300.00,M,M,M,M,KPVC 030450Z AUTO 18008KT 7SM OVC003 A3019 RMK MADISHF
PYM,2017-11-03 04:50,-70.7288,41.9090,M,M,M,170.00,4.00,M,30.18,M,10.00,M,CLR,M,M,M,M,M,M,M,M,KPYM 030450Z AUTO 17004KT 10SM CLR A3018 RMK MADISHF
FIT,2017-11-03 04:50,-71.7558,42.5519,M,M,M,0.00,0.00,M,30.15,M,5.00,M,SCT,BKN,M,M,1800.00,11000.00,M,M,BR,KFIT 030450Z AUTO 00000KT 5SM BR SCT018 BKN110 A3015 RMK MADISHF
OWD,2017-11-03 04:50,-71.1733,42.1912,M,M,M,170.00,3.00,M,30.16,M,10.00,M,CLR,M,M,M,M,M,M,M,M,KOWD 030450Z AUTO 17003KT 10SM CLR A3016 RMK MADISHF
BED,2017-11-03 04:50,-71.2890,42.4699,M,M,M,190.00,7.00,M,30.14,M,10.00,M,SCT,BKN,M,M,800.00,11000.00,M,M,M,KBED 030450Z AUTO 19007KT 10SM SCT008 BKN110 A3014 RMK MADISHF
EWB,2017-11-03 04:50,-70.9583,41.6764,M,M,M,0.00,0.00,M,30.17,M,1.25,M,CLR,M,M,M,M,M,M,M,BR,KEWB 030450Z AUTO 00000KT 1 1/2SM BR CLR A3017 RMK MADISHF
ORH,2017-11-03 04:50,-71.8757,42.2673,M,M,M,M,M,M,30.16,M,10.00,M,SCT,OVC,M,M,700.00,11000.00,M,M,M,KORH 030450Z AUTO /////KT 10SM SCT007 OVC110 A3016 RMK MADISHF
HYA,2017-11-03 04:50,-70.2800,41.6700,M,M,M,200.00,5.00,M,30.18,M,7.00,M,SCT,M,M,M,400.00,M,M,M,M,KHYA 030450Z AUTO 20005KT 7SM SCT004 A3018 RMK MADISHF
BOS,2017-11-03 04:50,-71.0097,42.3606,M,M,M,210.00,7.00,M,30.17,M,10.00,M,FEW,FEW,M,M,999.00,12000.00,M,M,M,KBOS 030450Z AUTO 21007KT 10SM FEW009 FEW120 A3017 RMK MADISHF
CQX,2017-11-03 04:50,-69.9933,41.6875,M,M,M,170.00,6.00,M,30.20,M,10.00,M,CLR,M,M,M,M,M,M,M,M,KCQX 030450Z AUTO 17006KT 10SM CLR A3020 RMK VRB06KT  MADISHF
ORE,2017-11-03 04:50,-72.2886,42.5701,M,M,M,160.00,5.00,M,30.14,M,10.00,M,SCT,OVC,M,M,1500.00,11000.00,M,M,M,KORE 030450Z AUTO 16005KT 10SM SCT015 OVC110 A3014 RMK MADISHF
TAN,2017-11-03 04:50,-71.0211,41.8756,M,M,M,0.00,0.00,M,30.17,M,10.00,M,CLR,M,M,M,M,M,M,M,M,KTAN 030450Z AUTO 00000KT 10SM CLR A3017 RMK MADISHF
ORH,2017-11-03 04:51,-71.8757,42.2673,60.80,57.20,87.92,210.00,12.00,0.00,30.16,M,10.00,M,SCT,OVC,M,M,700.00,11000.00,M,M,M,KORH 030451Z AUTO 21012KT 10SM SCT007 OVC110 16/14 A3016 RMK AO2
CQX,2017-11-03 04:52,-69.9933,41.6875,59.00,59.00,100.00,180.00,7.00,0.00,30.20,1022.70,10.00,M,CLR,M,M,M,M,M,M,M,M,KCQX 030452Z AUTO 18007KT 10SM CLR 15/15 A3020 RMK AO2 SLP227 T01500150 401830122
FIT,2017-11-03 04:52,-71.7558,42.5519,59.00,57.90,96.13,0.00,0.00,0.00,30.15,1021.00,6.00,M,SCT,BKN,M,M,1800.00,11000.00,M,M,BR,KFIT 030452Z AUTO 00000KT 6SM BR SCT018 BKN110 15/14 A3015 RMK AO2 RAB00E09B26E35 SLP210 P0000 T01500144 402330094
PYM,2017-11-03 04:52,-70.7288,41.9090,60.10,57.00,89.48,180.00,3.00,0.00,30.18,1021.90,10.00,M,CLR,M,M,M,M,M,M,M,M,KPYM 030452Z AUTO 18003KT 10SM CLR 16/14 A3018 RMK AO2 SLP219 T01560139 402170083
ORE,2017-11-03 04:52,-72.2886,42.5701,62.10,59.00,89.57,180.00,7.00,0.00,30.14,1020.50,10.00,M,BKN,OVC,M,M,1500.00,11000.00,M,M,M,KORE 030452Z AUTO 18007KT 10SM BKN015 OVC110 17/15 A3014 RMK AO2 SLP205 T01670150 401940072 TSNO
TAN,2017-11-03 04:52,-71.0211,41.8756,57.00,54.00,89.68,160.00,3.00,0.00,30.17,1021.60,10.00,M,CLR,M,M,M,M,M,M,M,M,KTAN 030452Z AUTO 16003KT 10SM CLR 14/12 A3017 RMK AO2 SLP216 T01390122 402220056
EWB,2017-11-03 04:53,-70.9583,41.6764,55.90,55.00,96.78,0.00,0.00,0.00,30.17,1021.70,5.00,M,CLR,M,M,M,M,M,M,M,BR,KEWB 030453Z AUTO 00000KT 5SM BR CLR 13/13 A3017 RMK AO2 SLP217 T01330128 402060117
OWD,2017-11-03 04:53,-71.1733,42.1912,61.00,60.10,96.85,170.00,3.00,0.00,30.16,1021.20,10.00,M,CLR,M,M,M,M,M,M,M,M,KOWD 030453Z AUTO 17003KT 10SM CLR 16/16 A3016 RMK AO2 SLP212 T01610156 402330094
ORH,2017-11-03 04:54,-71.8757,42.2673,60.10,57.00,89.48,210.00,12.00,0.00,30.16,1021.30,10.00,M,FEW,OVC,M,M,700.00,11000.00,M,M,M,KORH 030454Z AUTO 21012KT 10SM FEW007 OVC110 16/14 A3016 RMK AO2 SLP213 T01560139 401940083
BOS,2017-11-03 04:54,-71.0097,42.3606,61.00,59.00,93.12,200.00,7.00,0.00,30.17,1021.40,10.00,M,FEW,FEW,SCT,M,600.00,12000.00,25000.00,M,M,KBOS 030454Z 20007KT 10SM FEW006 FEW120 SCT250 16/15 A3017 RMK AO2 SLP214 T01610150 402170111
PYM,2017-11-03 04:55,-70.7288,41.9090,M,M,M,190.00,3.00,M,30.18,M,10.00,M,CLR,M,M,M,M,M,M,M,M,KPYM 030455Z AUTO 19003KT 10SM CLR A3018 RMK VRB03KT  MADISHF
FIT,2017-11-03 04:55,-71.7558,42.5519,M,M,M,0.00,0.00,M,30.15,M,6.00,M,BKN,BKN,M,M,1800.00,11000.00,M,M,BR,KFIT 030455Z AUTO 00000KT 6SM BR BKN018 BKN110 A3015 RMK MADISHF
PVC,2017-11-03 04:55,-70.2200,42.0700,M,M,M,180.00,8.00,M,30.19,M,7.00,M,OVC,M,M,M,300.00,M,M,M,M,KPVC 030455Z AUTO 18008KT 7SM OVC003 A3019 RMK MADISHF
ORH,2017-11-03 04:55,-71.8757,42.2673,M,M,M,M,M,M,30.16,M,10.00,M,FEW,OVC,M,M,700.00,11000.00,M,M,M,KORH 030455Z AUTO /////KT 10SM FEW007 OVC110 A3016 RMK MADISHF
HYA,2017-11-03 04:55,-70.2800,41.6700,M,M,M,190.00,4.00,M,30.18,M,7.00,M,SCT,M,M,M,400.00,M,M,M,M,KHYA 030455Z AUTO 19004KT 7SM SCT004 A3018 RMK VRB04KT  MADISHF
BOS,2017-11-03 04:55,-71.0097,42.3606,M,M,M,200.00,7.00,M,30.17,M,10.00,M,FEW,FEW,M,M,600.00,5000.00,M,M,M,KBOS 030455Z AUTO 20007KT 10SM FEW006 FEW050 A3017 RMK MADISHF
CQX,2017-11-03 04:55,-69.9933,41.6875,M,M,M,170.00,6.00,M,30.20,M,10.00,M,CLR,M,M,M,M,M,M,M,M,KCQX 030455Z AUTO 17006KT 10SM CLR A3020 RMK VRB06KT  MADISHF
OWD,2017-11-03 04:55,-71.1733,42.1912,M,M,M,170.00,3.00,M,30.16,M,10.00,M,CLR,M,M,M,M,M,M,M,M,KOWD 030455Z AUTO 17003KT 10SM CLR A3016 RMK MADISHF
BED,2017-11-03 04:55,-71.2890,42.4699,M,M,M,180.00,7.00,M,30.14,M,10.00,M,FEW,SCT,M,M,800.00,11000.00,M,M,M,KBED 030455Z AUTO 18007KT 10SM FEW008 SCT110 A3014 RMK MADISHF
EWB,2017-11-03 04:55,-70.9583,41.6764,M,M,M,0.00,0.00,M,30.17,M,9.00,M,CLR,M,M,M,M,M,M,M,M,KEWB 030455Z AUTO 00000KT 9SM CLR A3017 RMK MADISHF
GHG,2017-11-03 04:55,-70.6721,42.0982,60.80,57.20,87.92,200.00,4.00,0.00,30.17,M,10.00,M,CLR,M,M,M,M,M,M,M,M,KGHG 030455Z AUTO 20004KT 10SM CLR 16/14 A3017 RMK AO2
BED,2017-11-03 04:56,-71.2890,42.4699,61.00,59.00,93.12,180.00,7.00,0.00,30.14,1021.80,10.00,M,FEW,SCT,M,M,800.00,11000.00,M,M,M,KBED 030456Z AUTO 18007KT 10SM FEW008 SCT110 16/15 A3014 RMK AO2 SLP218 T01610150 402220094
HYA,2017-11-03 04:56,-70.2800,41.6700,61.00,60.10,96.85,190.00,4.00,0.00,30.18,1021.90,7.00,M,BKN,M,M,M,400.00,M,M,M,M,KHYA 030456Z AUTO 19004KT 7SM BKN004 16/16 A3018 RMK AO2 SLP219 T01610156 401890128
MQE,2017-11-03 04:56,-71.1142,42.2121,59.00,57.00,93.07,190.00,13.00,0.00,30.16,1022.20,M,M,M,M,M,M,M,M,M,M,M,KMQE 030456Z AUTO 19013KT 15/14 A3016 RMK AO1 SLP222 T01500139 402170094
PVC,2017-11-03 04:56,-70.2200,42.0700,59.00,57.90,96.13,180.00,8.00,0.00,30.19,1022.10,7.00,M,OVC,M,M,M,300.00,M,M,M,M,KPVC 030456Z AUTO 18008KT 7SM OVC003 15/14 A3019 RMK AO2 SLP221 T01500144 401890122
PVC,2017-11-03 05:00,-70.2200,42.0700,M,M,M,190.00,8.00,M,30.19,M,7.00,M,OVC,M,M,M,300.00,M,M,M,M,KPVC 030500Z AUTO 19008KT 7SM OVC003 A3019 RMK MADISHF
BED,2017-11-03 05:00,-71.2890,42.4699,M,M,M,180.00,6.00,M,30.14,M,10.00,M,FEW,SCT,M,M,800.00,11000.00,M,M,M,KBED 030500Z AUTO 18006KT 10SM FEW008 SCT110 A3014 RMK MADISHF
ORH,2017-11-03 05:00,-71.8757,42.2673,M,M,M,M,M,M,30.16,M,10.00,M,FEW,OVC,M,M,700.00,11000.00,M,M,M,KORH 030500Z AUTO /////KT 10SM FEW007 OVC110 A3016 RMK MADISHF
HYA,2017-11-03 05:00,-70.2800,41.6700,M,M,M,200.00,5.00,M,30.17,M,6.00,M,BKN,M,M,M,400.00,M,M,M,BR,KHYA 030500Z AUTO 20005KT 6SM BR BKN004 A3017 RMK MADISHF
BOS,2017-11-03 05:00,-71.0097,42.3606,M,M,M,190.00,6.00,M,30.17,M,10.00,M,FEW,FEW,M,M,600.00,5000.00,M,M,M,KBOS 030500Z AUTO 19006KT 10SM FEW006 FEW050 A3017 RMK MADISHF
TAN,2017-11-03 05:00,-71.0211,41.8756,M,M,M,0.00,0.00,M,30.17,M,10.00,M,CLR,M,M,M,M,M,M,M,M,KTAN 030500Z AUTO 00000KT 10SM CLR A3017 RMK MADISHF
CQX,2017-11-03 05:00,-69.9933,41.6875,M,M,M,180.00,7.00,M,30.19,M,10.00,M,CLR,M,M,M,M,M,M,M,M,KCQX 030500Z AUTO 18007KT 10SM CLR A3019 RMK WND 15V22  MADISHF
EWB,2017-11-03 05:00,-70.9583,41.6764,M,M,M,0.00,0.00,M,30.17,M,10.00,M,CLR,M,M,M,M,M,M,M,M,KEWB 030500Z AUTO 00000KT 10SM CLR A3017 RMK MADISHF
ORE,2017-11-03 05:00,-72.2886,42.5701,M,M,M,160.00,4.00,M,30.14,M,10.00,M,BKN,OVC,M,M,1500.00,11000.00,M,M,M,KORE 030500Z AUTO 16004KT 10SM BKN015 OVC110 A3014 RMK MADISHF
OWD,2017-11-03 05:00,-71.1733,42.1912,M,M,M,180.00,3.00,M,30.16,M,10.00,M,FEW,M,M,M,12000.00,M,M,M,M,KOWD 030500Z AUTO 18003KT 10SM FEW120 A3016 RMK MADISHF
FIT,2017-11-03 05:01,-71.7558,42.5519,60.10,59.00,96.15,0.00,0.00,0.00,30.15,M,7.00,M,BKN,BKN,M,M,2000.00,11000.00,M,M,M,KFIT 030501Z AUTO 00000KT 7SM BKN020 BKN110 16/15 A3015 RMK AO2 T01560150
FIT,2017-11-03 05:05,-71.7558,42.5519,M,M,M,0.00,0.00,M,30.15,M,6.00,M,BKN,M,M,M,1999.00,M,M,M,BR,KFIT 030505Z AUTO 00000KT 6SM BR BKN019 A3015 RMK MADISHF
CQX,2017-11-03 05:05,-69.9933,41.6875,M,M,M,170.00,6.00,M,30.19,M,10.00,M,CLR,M,M,M,M,M,M,M,M,KCQX 030505Z AUTO 17006KT 10SM CLR A3019 RMK MADISHF
PVC,2017-11-03 05:05,-70.2200,42.0700,M,M,M,180.00,9.00,M,30.18,M,6.00,M,OVC,M,M,M,300.00,M,M,M,BR,KPVC 030505Z AUTO 18009KT 6SM BR OVC003 A3018 RMK MADISHF
TAN,2017-11-03 05:05,-71.0211,41.8756,M,M,M,0.00,0.00,M,30.17,M,10.00,M,CLR,M,M,M,M,M,M,M,M,KTAN 030505Z AUTO 00000KT 10SM CLR A3017 RMK MADISHF
EWB,2017-11-03 05:05,-70.9583,41.6764,M,M,M,0.00,0.00,M,30.17,M,10.00,M,CLR,M,M,M,M,M,M,M,M,KEWB 030505Z AUTO 00000KT 10SM CLR A3017 RMK MADISHF
BED,2017-11-03 05:05,-71.2890,42.4699,M,M,M,180.00,5.00,M,30.14,M,10.00,M,SCT,M,M,M,11000.00,M,M,M,M,KBED 030505Z AUTO 18005KT 10SM SCT110 A3014 RMK MADISHF
OWD,2017-11-03 05:05,-71.1733,42.1912,M,M,M,170.00,3.00,M,30.16,M,10.00,M,FEW,M,M,M,12000.00,M,M,M,M,KOWD 030505Z AUTO 17003KT 10SM FEW120 A3016 RMK MADISHF
HYA,2017-11-03 05:05,-70.2800,41.6700,M,M,M,200.00,6.00,M,30.17,M,6.00,M,BKN,M,M,M,300.00,M,M,M,BR,KHYA 030505Z AUTO 20006KT 6SM BR BKN003 A3017 RMK MADISHF
BOS,2017-11-03 05:05,-71.0097,42.3606,M,M,M,190.00,6.00,M,30.16,M,10.00,M,FEW,FEW,M,M,600.00,5000.00,M,M,M,KBOS 030505Z AUTO 19006KT 10SM FEW006 FEW050 A3016 RMK MADISHF
ORE,2017-11-03 05:05,-72.2886,42.5701,M,M,M,160.00,5.00,M,30.13,M,10.00,M,BKN,OVC,M,M,1500.00,11000.00,M,M,M,KORE 030505Z AUTO 16005KT 10SM BKN015 OVC110 A3013 RMK MADISHF
PYM,2017-11-03 05:05,-70.7288,41.9090,M,M,M,190.00,4.00,M,30.18,M,10.00,M,CLR,M,M,M,M,M,M,M,M,KPYM 030505Z AUTO 19004KT 10SM CLR A3018 RMK MADISHF
ORH,2017-11-03 05:05,-71.8757,42.2673,M,M,M,M,M,M,30.16,M,10.00,M,FEW,OVC,M,M,700.00,11000.00,M,M,M,KORH 030505Z AUTO /////KT 10SM FEW007 OVC110 A3016 RMK MADISHF
ORE,2017-11-03 05:10,-72.2886,42.5701,M,M,M,180.00,6.00,M,30.13,M,10.00,M,BKN,OVC,M,M,1500.00,12000.00,M,M,M,KORE 030510Z AUTO 18006KT 10SM BKN015 OVC120 A3013 RMK MADISHF
FIT,2017-11-03 05:10,-71.7558,42.5519,M,M,M,0.00,0.00,M,30.15,M,4.00,M,BKN,M,M,M,1999.00,M,M,M,BR,KFIT 030510Z AUTO 00000KT 4SM BR BKN019 A3015 RMK MADISHF
HYA,2017-11-03 05:10,-70.2800,41.6700,M,M,M,200.00,5.00,M,30.17,M,6.00,M,BKN,M,M,M,300.00,M,M,M,BR,KHYA 030510Z AUTO 20005KT 6SM BR BKN003 A3017 RMK MADISHF
EWB,2017-11-03 05:10,-70.9583,41.6764,M,M,M,0.00,0.00,M,30.17,M,10.00,M,CLR,M,M,M,M,M,M,M,M,KEWB 030510Z AUTO 00000KT 10SM CLR A3017 RMK MADISHF
OWD,2017-11-03 05:10,-71.1733,42.1912,M,M,M,160.00,3.00,M,30.16,M,10.00,M,FEW,M,M,M,12000.00,M,M,M,M,KOWD 030510Z AUTO 16003KT 10SM FEW120 A3016 RMK MADISHF
TAN,2017-11-03 05:10,-71.0211,41.8756,M,M,M,0.00,0.00,M,30.17,M,7.00,M,CLR,M,M,M,M,M,M,M,M,KTAN 030510Z AUTO 00000KT 7SM CLR A3017 RMK MADISHF
BOS,2017-11-03 05:10,-71.0097,42.3606,M,M,M,190.00,6.00,M,30.16,M,10.00,M,FEW,FEW,M,M,600.00,5000.00,M,M,M,KBOS 030510Z AUTO 19006KT 10SM FEW006 FEW050 A3016 RMK MADISHF
ORH,2017-11-03 05:10,-71.8757,42.2673,M,M,M,220.00,13.00,M,30.16,M,10.00,M,BKN,M,M,M,11000.00,M,M,M,M,KORH 030510Z AUTO 22013KT 10SM BKN110 A3016 RMK MADISHF
BED,2017-11-03 05:10,-71.2890,42.4699,M,M,M,180.00,6.00,M,30.14,M,10.00,M,SCT,M,M,M,11000.00,M,M,M,M,KBED 030510Z AUTO 18006KT 10SM SCT110 A3014 RMK MADISHF
PVC,2017-11-03 05:10,-70.2200,42.0700,M,M,M,180.00,9.00,M,30.18,M,4.00,M,OVC,M,M,M,300.00,M,M,M,BR,KPVC 030510Z AUTO 18009KT 4SM BR OVC003 A3018 RMK MADISHF
PYM,2017-11-03 05:10,-70.7288,41.9090,M,M,M,200.00,4.00,M,30.18,M,10.00,M,CLR,M,M,M,M,M,M,M,M,KPYM 030510Z AUTO 20004KT 10SM CLR A3018 RMK MADISHF
ORH,2017-11-03 05:15,-71.8757,42.2673,M,M,M,M,M,M,30.16,M,10.00,M,BKN,M,M,M,11000.00,M,M,M,M,KORH 030515Z AUTO /////KT 10SM BKN110 A3016 RMK MADISHF
EWB,2017-11-03 05:15,-70.9583,41.6764,M,M,M,0.00,0.00,M,30.17,M,10.00,M,CLR,M,M,M,M,M,M,M,M,KEWB 030515Z AUTO 00000KT 10SM CLR A3017 RMK MADISHF
TAN,2017-11-03 05:15,-71.0211,41.8756,M,M,M,0.00,0.00,M,30.17,M,5.00,M,CLR,M,M,M,M,M,M,M,BR,KTAN 030515Z AUTO 00000KT 5SM BR CLR A3017 RMK MADISHF
BED,2017-11-03 05:15,-71.2890,42.4699,M,M,M,190.00,6.00,M,30.14,M,10.00,M,FEW,M,M,M,11000.00,M,M,M,M,KBED 030515Z AUTO 19006KT 10SM FEW110 A3014 RMK MADISHF
HYA,2017-11-03 05:15,-70.2800,41.6700,M,M,M,190.00,5.00,M,30.17,M,6.00,M,BKN,M,M,M,300.00,M,M,M,BR,KHYA 030515Z AUTO 19005KT 6SM BR BKN003 A3017 RMK MADISHF
CQX,2017-11-03 05:15,-69.9933,41.6875,M,M,M,180.00,5.00,M,30.19,M,10.00,M,CLR,M,M,M,M,M,M,M,M,KCQX 030515Z AUTO 18005KT 10SM CLR A3019 RMK VRB05KT  MADISHF
PYM,2017-11-03 05:15,-70.7288,41.9090,M,M,M,190.00,4.00,M,30.18,M,10.00,M,CLR,M,M,M,M,M,M,M,M,KPYM 030515Z AUTO 19004KT 10SM CLR A3018 RMK MADISHF
ORE,2017-11-03 05:15,-72.2886,42.5701,M,M,M,180.00,6.00,M,30.13,M,10.00,M,SCT,SCT,BKN,M,1600.00,1999.00,12000.00,M,M,KORE 030515Z AUTO 18006KT 10SM SCT016 SCT019 BKN120 A3013 RMK MADISHF
BOS,2017-11-03 05:15,-71.0097,42.3606,M,M,M,180.00,6.00,M,30.16,M,10.00,M,FEW,FEW,M,M,600.00,5000.00,M,M,M,KBOS 030515Z AUTO 18006KT 10SM FEW006 FEW050 A3016 RMK MADISHF
OWD,2017-11-03 05:15,-71.1733,42.1912,M,M,M,170.00,3.00,M,30.16,M,10.00,M,FEW,M,M,M,12000.00,M,M,M,M,KOWD 030515Z AUTO 17003KT 10SM FEW120 A3016 RMK MADISHF
PVC,2017-11-03 05:15,-70.2200,42.0700,60.80,59.00,93.79,190.00,8.00,0.00,30.18,M,1.50,M,OVC,M,M,M,300.00,M,M,M,BR,KPVC 030515Z AUTO 19008KT 1 1/2SM BR OVC003 16/15 A3018 RMK AO2
GHG,2017-11-03 05:15,-70.6721,42.0982,60.80,57.20,87.92,M,5.00,0.00,30.16,M,10.00,M,CLR,M,M,M,M,M,M,M,M,KGHG 030515Z AUTO VRB05KT 10SM CLR 16/14 A3016 RMK AO2
ORE,2017-11-03 05:19,-72.2886,42.5701,61.00,59.00,93.12,170.00,6.00,0.00,30.13,M,10.00,M,SCT,BKN,M,M,1600.00,12000.00,M,M,M,KORE 030519Z AUTO 17006KT 10SM SCT016 BKN120 16/15 A3013 RMK AO2 T01610150 TSNO
CQX,2017-11-03 05:20,-69.9933,41.6875,M,M,M,180.00,5.00,M,30.19,M,10.00,M,CLR,M,M,M,M,M,M,M,M,KCQX 030520Z AUTO 18005KT 10SM CLR A3019 RMK VRB05KT  MADISHF
BED,2017-11-03 05:20,-71.2890,42.4699,M,M,M,180.00,7.00,M,30.14,M,10.00,M,FEW,M,M,M,11000.00,M,M,M,M,KBED 030520Z AUTO 18007KT 10SM FEW110 A3014 RMK MADISHF
HYA,2017-11-03 05:20,-70.2800,41.6700,M,M,M,190.00,3.00,M,30.17,M,6.00,M,BKN,M,M,M,300.00,M,M,M,BR,KHYA 030520Z AUTO 19003KT 6SM BR BKN003 A3017 RMK MADISHF
EWB,2017-11-03 05:20,-70.9583,41.6764,M,M,M,0.00,0.00,M,30.16,M,10.00,M,CLR,M,M,M,M,M,M,M,M,KEWB 030520Z AUTO 00000KT 10SM CLR A3016 RMK MADISHF
FIT,2017-11-03 05:20,-71.7558,42.5519,M,M,M,0.00,0.00,M,30.14,M,6.00,M,BKN,M,M,M,1900.00,M,M,M,BR,KFIT 030520Z AUTO 00000KT 6SM BR BKN019 A3014 RMK MADISHF
PVC,2017-11-03 05:20,-70.2200,42.0700,M,M,M,190.00,8.00,M,30.18,M,1.00,M,OVC,M,M,M,300.00,M,M,M,BR,KPVC 030520Z AUTO 19008KT 1SM BR OVC003 A3018 RMK MADISHF
ORE,2017-11-03 05:20,-72.2886,42.5701,M,M,M,160.00,6.00,M,30.13,M,10.00,M,SCT,BKN,M,M,1600.00,12000.00,M,M,M,KORE 030520Z AUTO 16006KT 10SM SCT016 BKN120 A3013 RMK MADISHF
TAN,2017-11-03 05:20,-71.0211,41.8756,M,M,M,120.00,3.00,M,30.17,M,4.00,M,CLR,M,M,M,M,M,M,M,BR,KTAN 030520Z AUTO 12003KT 4SM BR CLR A3017 RMK MADISHF
BOS,2017-11-03 05:20,-71.0097,42.3606,M,M,M,190.00,6.00,M,30.16,M,10.00,M,FEW,FEW,SCT,M,600.00,5000.00,12000.00,M,M,KBOS 030520Z AUTO 19006KT 10SM FEW006 FEW050 SCT120 A3016 RMK MADISHF
OWD,2017-11-03 05:20,-71.1733,42.1912,M,M,M,170.00,3.00,M,30.16,M,10.00,M,FEW,M,M,M,12000.00,M,M,M,M,KOWD 030520Z AUTO 17003KT 10SM FEW120 A3016 RMK MADISHF
ORH,2017-11-03 05:20,-71.8757,42.2673,M,M,M,M,M,M,30.15,M,10.00,M,BKN,M,M,M,11000.00,M,M,M,M,KORH 030520Z AUTO /////KT 10SM BKN110 A3015 RMK MADISHF
PVC,2017-11-03 05:22,-70.2200,42.0700,60.80,59.00,93.79,180.00,8.00,0.00,30.18,M,0.75,M,OVC,M,M,M,300.00,M,M,M,BR,KPVC 030522Z AUTO 18008KT 3/4SM BR OVC003 16/15 A3018 RMK AO2
TAN,2017-11-03 05:25,-71.0211,41.8756,M,M,M,0.00,0.00,M,30.17,M,5.00,M,CLR,M,M,M,M,M,M,M,BR,KTAN 030525Z AUTO 00000KT 5SM BR CLR A3017 RMK MADISHF
PVC,2017-11-03 05:25,-70.2200,42.0700,M,M,M,180.00,7.00,M,30.18,M,0.75,M,OVC,M,M,M,300.00,M,M,M,BR,KPVC 030525Z AUTO 18007KT 1SM BR OVC003 A3018 RMK MADISHF
FIT,2017-11-03 05:25,-71.7558,42.5519,M,M,M,0.00,0.00,M,30.14,M,8.00,M,BKN,M,M,M,1900.00,M,M,M,M,KFIT 030525Z AUTO 00000KT 8SM BKN019 A3014 RMK MADISHF
BOS,2017-11-03 05:25,-71.0097,42.3606,M,M,M,190.00,6.00,M,30.16,M,10.00,M,FEW,FEW,SCT,M,600.00,5000.00,12000.00,M,M,KBOS 030525Z AUTO 19006KT 10SM FEW006 FEW050 SCT120 A3016 RMK MADISHF
HYA,2017-11-03 05:25,-70.2800,41.6700,M,M,M,200.00,4.00,M,30.17,M,6.00,M,BKN,M,M,M,300.00,M,M,M,BR,KHYA 030525Z AUTO 20004KT 6SM BR BKN003 A3017 RMK MADISHF
ORE,2017-11-03 05:25,-72.2886,42.5701,M,M,M,160.00,6.00,M,30.13,M,10.00,M,SCT,SCT,BKN,M,1500.00,2100.00,12000.00,M,M,KORE 030525Z AUTO 16006KT 10SM SCT015 SCT021 BKN120 A3013 RMK MADISHF
EWB,2017-11-03 05:25,-70.9583,41.6764,M,M,M,0.00,0.00,M,30.17,M,10.00,M,CLR,M,M,M,M,M,M,M,M,KEWB 030525Z AUTO 00000KT 10SM CLR A3017 RMK MADISHF
PYM,2017-11-03 05:25,-70.7288,41.9090,M,M,M,200.00,3.00,M,30.17,M,10.00,M,CLR,M,M,M,M,M,M,M,M,KPYM 030525Z AUTO 20003KT 10SM CLR A3017 RMK MADISHF
BED,2017-11-03 05:25,-71.2890,42.4699,M,M,M,180.00,7.00,M,30.14,M,10.00,M,SCT,M,M,M,11000.00,M,M,M,M,KBED 030525Z AUTO 18007KT 10SM SCT110 A3014 RMK MADISHF
OWD,2017-11-03 05:25,-71.1733,42.1912,M,M,M,170.00,4.00,M,30.15,M,10.00,M,FEW,SCT,M,M,5500.00,12000.00,M,M,M,KOWD 030525Z AUTO 17004KT 10SM FEW055 SCT120 A3015 RMK MADISHF
ORH,2017-11-03 05:25,-71.8757,42.2673,M,M,M,M,M,M,30.15,M,10.00,M,SCT,M,M,M,11000.00,M,M,M,M,KORH 030525Z AUTO /////KT 10SM SCT110 A3015 RMK MADISHF
PYM,2017-11-03 05:30,-70.7288,41.9090,M,M,M,190.00,3.00,M,30.17,M,10.00,M,CLR,M,M,M,M,M,M,M,M,KPYM 030530Z AUTO 19003KT 10SM CLR A3017 RMK MADISHF
ORH,2017-11-03 05:30,-71.8757,42.2673,M,M,M,M,M,M,30.15,M,10.00,M,FEW,SCT,M,M,800.00,11000.00,M,M,M,KORH 030530Z AUTO /////KT 10SM FEW008 SCT110 A3015 RMK MADISHF
EWB,2017-11-03 05:30,-70.9583,41.6764,M,M,M,0.00,0.00,M,30.17,M,10.00,M,CLR,M,M,M,M,M,M,M,M,KEWB 030530Z AUTO 00000KT 10SM CLR A3017 RMK MADISHF
HYA,2017-11-03 05:30,-70.2800,41.6700,M,M,M,170.00,5.00,M,30.16,M,6.00,M,SCT,M,M,M,300.00,M,M,M,BR,KHYA 030530Z AUTO 17005KT 6SM BR SCT003 A3016 RMK MADISHF
BOS,2017-11-03 05:30,-71.0097,42.3606,M,M,M,190.00,5.00,M,30.16,M,10.00,M,FEW,FEW,SCT,M,600.00,5500.00,12000.00,M,M,KBOS 030530Z AUTO 19005KT 10SM FEW006 FEW055 SCT120 A3016 RMK MADISHF
OWD,2017-11-03 05:30,-71.1733,42.1912,M,M,M,160.00,4.00,M,30.15,M,10.00,M,FEW,SCT,M,M,5500.00,12000.00,M,M,M,KOWD 030530Z AUTO 16004KT 10SM FEW055 SCT120 A3015 RMK MADISHF
CQX,2017-11-03 05:30,-69.9933,41.6875,M,M,M,200.00,4.00,M,30.18,M,10.00,M,CLR,M,M,M,M,M,M,M,M,KCQX 030530Z AUTO 20004KT 10SM CLR A3018 RMK MADISHF
FIT,2017-11-03 05:30,-71.7558,42.5519,M,M,M,0.00,0.00,M,30.14,M,8.00,M,BKN,BKN,M,M,1900.00,12000.00,M,M,M,KFIT 030530Z AUTO 00000KT 8SM BKN019 BKN120 A3014 RMK MADISHF
ORE,2017-11-03 05:30,-72.2886,42.5701,M,M,M,160.00,6.00,M,30.13,M,10.00,M,SCT,BKN,BKN,M,1699.00,2300.00,12000.00,M,M,KORE 030530Z AUTO 16006KT 10SM SCT016 BKN023 BKN120 A3013 RMK MADISHF
BED,2017-11-03 05:30,-71.2890,42.4699,M,M,M,170.00,5.00,M,30.14,M,10.00,M,FEW,M,M,M,11000.00,M,M,M,M,KBED 030530Z AUTO 17005KT 10SM FEW110 A3014 RMK MADISHF
PVC,2017-11-03 05:30,-70.2200,42.0700,60.80,59.00,93.79,190.00,7.00,0.00,30.18,M,1.25,M,OVC,M,M,M,300.00,M,M,M,BR,KPVC 030530Z AUTO 19007KT 1 1/4SM BR OVC003 16/15 A3018 RMK AO2
HYA,2017-11-03 05:33,-70.2800,41.6700,60.10,60.10,100.00,200.00,5.00,0.00,30.17,M,7.00,M,SCT,M,M,M,300.00,M,M,M,M,KHYA 030533Z AUTO 20005KT 7SM SCT003 16/16 A3017 RMK AO2 T01560156
TAN,2017-11-03 05:33,-71.0211,41.8756,52.00,51.10,96.73,0.00,0.00,0.00,30.16,M,1.25,M,CLR,M,M,M,M,M,M,M,BR,KTAN 030533Z AUTO 00000KT 1 1/4SM BR CLR 11/11 A3016 RMK AO2 T01110106
PVC,2017-11-03 05:35,-70.2200,42.0700,M,M,M,190.00,7.00,M,30.18,M,1.50,M,OVC,M,M,M,300.00,M,M,M,BR,KPVC 030535Z AUTO 19007KT 1 1/2SM BR OVC003 A3018 RMK MADISHF
CQX,2017-11-03 05:35,-69.9933,41.6875,M,M,M,200.00,4.00,M,30.18,M,10.00,M,CLR,M,M,M,M,M,M,M,M,KCQX 030535Z AUTO 20004KT 10SM CLR A3018 RMK MADISHF
OWD,2017-11-03 05:35,-71.1733,42.1912,M,M,M,160.00,4.00,M,30.15,M,10.00,M,FEW,SCT,M,M,5500.00,12000.00,M,M,M,KOWD 030535Z AUTO 16004KT 10SM FEW055 SCT120 A3015 RMK MADISHF
EWB,2017-11-03 05:35,-70.9583,41.6764,M,M,M,260.00,3.00,M,30.17,M,10.00,M,CLR,M,M,M,M,M,M,M,M,KEWB 030535Z AUTO 26003KT 10SM CLR A3017 RMK MADISHF
BOS,2017-11-03 05:35,-71.0097,42.3606,M,M,M,190.00,5.00,M,30.16,M,10.00,M,FEW,FEW,SCT,M,600.00,5500.00,12000.00,M,M,KBOS 030535Z AUTO 19005KT 10SM FEW006 FEW055 SCT120 A3016 RMK MADISHF
ORH,2017-11-03 05:35,-71.8757,42.2673,M,M,M,210.00,10.00,M,30.15,M,10.00,M,SCT,SCT,M,M,800.00,11000.00,M,M,M,KORH 030535Z AUTO 21010KT 10SM SCT008 SCT110 A3015 RMK MADISHF
ORE,2017-11-03 05:35,-72.2886,42.5701,M,M,M,160.00,5.00,M,30.12,M,10.00,M,BKN,BKN,BKN,M,1699.00,2200.00,12000.00,M,M,KORE 030535Z AUTO 16005KT 10SM BKN016 BKN022 BKN120 A3012 RMK MADISHF
HYA,2017-11-03 05:35,-70.2800,41.6700,M,M,M,180.00,4.00,M,30.16,M,7.00,M,SCT,M,M,M,300.00,M,M,M,M,KHYA 030535Z AUTO 18004KT 7SM SCT003 A3016 RMK MADISHF
BED,2017-11-03 05:35,-71.2890,42.4699,M,M,M,180.00,7.00,M,30.13,M,10.00,M,FEW,M,M,M,11000.00,M,M,M,M,KBED 030535Z AUTO 18007KT 10SM FEW110 A3013 RMK MADISHF
TAN,2017-11-03 05:35,-71.0211,41.8756,52.00,51.10,96.73,0.00,0.00,0.00,30.16,M,0.75,M,VV ,M,M,M,200.00,M,M,M,BR,KTAN 030535Z AUTO 00000KT 3/4SM BR VV002 11/11 A3016 RMK AO2 T01110106
GHG,2017-11-03 05:35,-70.6721,42.0982,60.80,57.20,87.92,210.00,6.00,0.00,30.16,M,10.00,M,CLR,M,M,M,M,M,M,M,M,KGHG 030535Z AUTO 21006KT 10SM CLR 16/14 A3016 RMK AO2
ORE,2017-11-03 05:36,-72.2886,42.5701,61.00,60.10,96.85,160.00,5.00,0.00,30.12,M,10.00,M,BKN,BKN,BKN,M,1700.00,2200.00,12000.00,M,M,KORE 030536Z AUTO 16005KT 10SM BKN017 BKN022 BKN120 16/16 A3012 RMK AO2 T01610156 TSNO
PVC,2017-11-03 05:40,-70.2200,42.0700,M,M,M,190.00,8.00,M,30.18,M,1.25,M,OVC,M,M,M,300.00,M,M,M,BR,KPVC 030540Z AUTO 19008KT 1 1/2SM BR OVC003 A3018 RMK MADISHF
ORE,2017-11-03 05:40,-72.2886,42.5701,M,M,M,150.00,5.00,M,30.12,M,10.00,M,BKN,BKN,BKN,M,1600.00,2200.00,12000.00,M,M,KORE 030540Z AUTO 15005KT 10SM BKN016 BKN022 BKN120 A3012 RMK MADISHF
BOS,2017-11-03 05:40,-71.0097,42.3606,M,M,M,190.00,5.00,M,30.16,M,10.00,M,FEW,FEW,SCT,M,600.00,5500.00,12000.00,M,M,KBOS 030540Z AUTO 19005KT 10SM FEW006 FEW055 SCT120 A3016 RMK MADISHF
BED,2017-11-03 05:40,-71.2890,42.4699,M,M,M,190.00,6.00,M,30.13,M,10.00,M,SCT,M,M,M,12000.00,M,M,M,M,KBED 030540Z AUTO 19006KT 10SM SCT120 A3013 RMK MADISHF
HYA,2017-11-03 05:40,-70.2800,41.6700,M,M,M,190.00,5.00,M,30.16,M,7.00,M,FEW,M,M,M,300.00,M,M,M,M,KHYA 030540Z AUTO 19005KT 7SM FEW003 A3016 RMK MADISHF
TAN,2017-11-03 05:40,-71.0211,41.8756,M,M,M,0.00,0.00,M,30.16,M,0.25,M,VV ,M,M,M,200.00,M,M,M,FG,KTAN 030540Z AUTO 00000KT 1/4SM FG VV002 A3016 RMK MADISHF
FIT,2017-11-03 05:40,-71.7558,42.5519,M,M,M,150.00,3.00,M,30.14,M,8.00,M,SCT,BKN,M,M,1900.00,12000.00,M,M,M,KFIT 030540Z AUTO 15003KT 8SM SCT019 BKN120 A3014 RMK MADISHF
OWD,2017-11-03 05:40,-71.1733,42.1912,M,M,M,160.00,4.00,M,30.15,M,10.00,M,FEW,FEW,M,M,5500.00,12000.00,M,M,M,KOWD 030540Z AUTO 16004KT 10SM FEW055 FEW120 A3015 RMK MADISHF
EWB,2017-11-03 05:40,-70.9583,41.6764,M,M,M,0.00,0.00,M,30.16,M,6.00,M,CLR,M,M,M,M,M,M,M,BR,KEWB 030540Z AUTO 00000KT 6SM BR CLR A3016 RMK MADISHF
ORH,2017-11-03 05:40,-71.8757,42.2673,M,M,M,M,M,M,30.15,M,10.00,M,SCT,SCT,M,M,800.00,11000.00,M,M,M,KORH 030540Z AUTO /////KT 10SM SCT008 SCT110 A3015 RMK MADISHF
CQX,2017-11-03 05:40,-69.9933,41.6875,M,M,M,200.00,4.00,M,30.18,M,10.00,M,CLR,M,M,M,M,M,M,M,M,KCQX 030540Z AUTO 20004KT 10SM CLR A3018 RMK MADISHF
PYM,2017-11-03 05:40,-70.7288,41.9090,M,M,M,200.00,4.00,M,30.17,M,10.00,M,CLR,M,M,M,M,M,M,M,M,KPYM 030540Z AUTO 20004KT 10SM CLR A3017 RMK MADISHF
FIT,2017-11-03 05:41,-71.7558,42.5519,60.10,59.00,96.15,150.00,3.00,0.00,30.14,M,8.00,M,SCT,BKN,M,M,1900.00,12000.00,M,M,M,KFIT 030541Z AUTO 15003KT 8SM SCT019 BKN120 16/15 A3014 RMK AO2 T01560150
FIT,2017-11-03 05:45,-71.7558,42.5519,M,M,M,130.00,3.00,M,30.13,M,8.00,M,SCT,BKN,M,M,1900.00,12000.00,M,M,M,KFIT 030545Z AUTO 13003KT 8SM SCT019 BKN120 A3013 RMK MADISHF
PVC,2017-11-03 05:45,-70.2200,42.0700,M,M,M,190.00,9.00,M,30.17,M,1.25,M,OVC,M,M,M,300.00,M,M,M,BR,KPVC 030545Z AUTO 19009KT 1 1/2SM BR OVC003 A3017 RMK MADISHF
CQX,2017-11-03 05:45,-69.9933,41.6875,M,M,M,220.00,3.00,M,30.18,M,10.00,M,CLR,M,M,M,M,M,M,M,M,KCQX 030545Z AUTO 22003KT 10SM CLR A3018 RMK VRB03KT  MADISHF
TAN,2017-11-03 05:45,-71.0211,41.8756,M,M,M,0.00,0.00,M,30.16,M,0.25,M,VV ,M,M,M,200.00,M,M,M,FG,KTAN 030545Z AUTO 00000KT 1/4SM FG VV002 A3016 RMK MADISHF
PYM,2017-11-03 05:45,-70.7288,41.9090,M,M,M,180.00,5.00,M,30.17,M,10.00,M,CLR,M,M,M,M,M,M,M,M,KPYM 030545Z AUTO 18005KT 10SM CLR A3017 RMK MADISHF
HYA,2017-11-03 05:45,-70.2800,41.6700,M,M,M,200.00,4.00,M,30.16,M,7.00,M,FEW,M,M,M,300.00,M,M,M,M,KHYA 030545Z AUTO 20004KT 7SM FEW003 A3016 RMK MADISHF
BED,2017-11-03 05:45,-71.2890,42.4699,M,M,M,190.00,7.00,M,30.13,M,10.00,M,FEW,BKN,M,M,5000.00,12000.00,M,M,M,KBED 030545Z AUTO 19007KT 10SM FEW050 BKN120 A3013 RMK MADISHF
EWB,2017-11-03 05:45,-70.9583,41.6764,M,M,M,0.00,0.00,M,30.16,M,5.00,M,CLR,M,M,M,M,M,M,M,BR,KEWB 030545Z AUTO 00000KT 5SM BR CLR A3016 RMK MADISHF
OWD,2017-11-03 05:45,-71.1733,42.1912,M,M,M,160.00,4.00,M,30.15,M,10.00,M,FEW,SCT,M,M,5500.00,12000.00,M,M,M,KOWD 030545Z AUTO 16004KT 10SM FEW055 SCT120 A3015 RMK MADISHF
BOS,2017-11-03 05:45,-71.0097,42.3606,M,M,M,190.00,5.00,M,30.16,M,10.00,M,FEW,FEW,BKN,M,600.00,5500.00,12000.00,M,M,KBOS 030545Z AUTO 19005KT 10SM FEW006 FEW055 BKN120 A3016 RMK MADISHF
ORH,2017-11-03 05:45,-71.8757,42.2673,M,M,M,M,M,M,30.15,M,10.00,M,SCT,SCT,M,M,800.00,12000.00,M,M,M,KORH 030545Z AUTO /////KT 10SM SCT008 SCT120 A3015 RMK MADISHF
ORH,2017-11-03 05:50,-71.8757,42.2673,M,M,M,M,M,M,30.14,M,10.00,M,FEW,BKN,M,M,800.00,12000.00,M,M,M,KORH 030550Z AUTO /////KT 10SM FEW008 BKN120 A3014 RMK MADISHF
ORE,2017-11-03 05:50,-72.2886,42.5701,M,M,M,150.00,5.00,M,30.12,M,10.00,M,BKN,M,M,M,1600.00,M,M,M,M,KORE 030550Z AUTO 15005KT 10SM BKN016 A3012 RMK MADISHF
PYM,2017-11-03 05:50,-70.7288,41.9090,M,M,M,190.00,5.00,M,30.17,M,10.00,M,FEW,M,M,M,400.00,M,M,M,M,KPYM 030550Z AUTO 19005KT 10SM FEW004 A3017 RMK MADISHF
PVC,2017-11-03 05:50,-70.2200,42.0700,M,M,M,190.00,8.00,M,30.17,M,1.50,M,OVC,M,M,M,100.00,M,M,M,BR,KPVC 030550Z AUTO 19008KT 1 1/2SM BR OVC001 A3017 RMK MADISHF
CQX,2017-11-03 05:50,-69.9933,41.6875,M,M,M,220.00,3.00,M,30.18,M,10.00,M,CLR,M,M,M,M,M,M,M,M,KCQX 030550Z AUTO 22003KT 10SM CLR A3018 RMK MADISHF
OWD,2017-11-03 05:50,-71.1733,42.1912,M,M,M,170.00,3.00,M,30.15,M,10.00,M,FEW,SCT,M,M,5500.00,12000.00,M,M,M,KOWD 030550Z AUTO 17003KT 10SM FEW055 SCT120 A3015 RMK MADISHF
BOS,2017-11-03 05:50,-71.0097,42.3606,M,M,M,190.00,5.00,M,30.16,M,10.00,M,FEW,FEW,BKN,M,600.00,5500.00,12000.00,M,M,KBOS 030550Z AUTO 19005KT 10SM FEW006 FEW055 BKN120 A3016 RMK MADISHF
HYA,2017-11-03 05:50,-70.2800,41.6700,M,M,M,200.00,5.00,M,30.16,M,7.00,M,CLR,M,M,M,M,M,M,M,M,KHYA 030550Z AUTO 20005KT 7SM CLR A3016 RMK MADISHF
TAN,2017-11-03 05:50,-71.0211,41.8756,M,M,M,0.00,0.00,M,30.16,M,0.50,M,VV ,M,M,M,200.00,M,M,M,FG,KTAN 030550Z AUTO 00000KT 1/2SM FG VV002 A3016 RMK MADISHF
EWB,2017-11-03 05:50,-70.9583,41.6764,M,M,M,0.00,0.00,M,30.16,M,3.00,M,CLR,M,M,M,M,M,M,M,BR,KEWB 030550Z AUTO 00000KT 3SM BR CLR A3016 RMK MADISHF
BED,2017-11-03 05:50,-71.2890,42.4699,M,M,M,190.00,8.00,M,30.13,M,10.00,M,FEW,BKN,M,M,5000.00,12000.00,M,M,M,KBED 030550Z AUTO 19008KT 10SM FEW050 BKN120 A3013 RMK MADISHF
FIT,2017-11-03 05:52,-71.7558,42.5519,60.10,59.00,96.15,130.00,3.00,0.00,30.13,1020.30,9.00,M,SCT,BKN,M,M,1900.00,12000.00,M,M,M,KFIT 030552Z AUTO 13003KT 9SM SCT019 BKN120 16/15 A3013 RMK AO2 SLP203 60000 T01560150 10189 20139 58013
ORE,2017-11-03 05:52,-72.2886,42.5701,61.00,60.10,96.85,150.00,6.00,0.00,30.12,1019.90,10.00,M,OVC,M,M,M,1600.00,M,M,M,M,KORE 030552Z AUTO 15006KT 10SM OVC016 16/16 A3012 RMK AO2 SLP199 60000 T01610156 10167 20122 58010 TSNO
CQX,2017-11-03 05:52,-69.9933,41.6875,57.90,57.90,100.00,230.00,3.00,0.00,30.18,1022.10,10.00,M,CLR,M,M,M,M,M,M,M,M,KCQX 030552Z AUTO 23003KT 10SM CLR 14/14 A3018 RMK AO2 SLP221 T01440144 10156 20144 56020
PYM,2017-11-03 05:52,-70.7288,41.9090,60.10,57.90,92.43,190.00,4.00,0.00,30.17,1021.60,10.00,M,FEW,M,M,M,400.00,M,M,M,M,KPYM 030552Z AUTO 19004KT 10SM FEW004 16/14 A3017 RMK AO2 SLP216 T01560144 10172 20156 56016
TAN,2017-11-03 05:52,-71.0211,41.8756,50.00,48.90,95.98,0.00,0.00,0.00,30.16,1021.30,0.25,M,VV ,M,M,M,200.00,M,M,M,FG,KTAN 030552Z AUTO 00000KT 1/4SM FG VV002 10/09 A3016 RMK AO2 SLP213 T01000094 10167 20100 56016
OWD,2017-11-03 05:53,-71.1733,42.1912,61.00,59.00,93.12,170.00,4.00,0.00,30.15,1020.90,10.00,M,FEW,M,M,M,5500.00,M,M,M,M,KOWD 030553Z AUTO 17004KT 10SM FEW055 16/15 A3015 RMK AO2 SLP209 T01610150 10183 20161 56015
EWB,2017-11-03 05:53,-70.9583,41.6764,53.10,52.00,96.03,0.00,0.00,0.00,30.16,1021.20,1.25,M,CLR,M,M,M,M,M,M,M,BR,KEWB 030553Z AUTO 00000KT 1 1/4SM R05/1200VP6000FT BR CLR 12/11 A3016 RMK AO2 SLP212 T01170111 10161 20100 56018
PVC,2017-11-03 05:53,-70.2200,42.0700,60.80,59.00,93.79,200.00,9.00,0.00,30.17,M,2.00,M,OVC,M,M,M,100.00,M,M,M,BR,KPVC 030553Z AUTO 20009KT 2SM BR OVC001 16/15 A3017 RMK AO2
BOS,2017-11-03 05:54,-71.0097,42.3606,59.00,57.90,96.13,190.00,5.00,0.00,30.15,1021.00,10.00,M,FEW,SCT,BKN,M,600.00,5500.00,12000.00,M,M,KBOS 030554Z 19005KT 10SM FEW006 SCT055 BKN120 15/14 A3015 RMK AO2 SLP210 T01500144 10167 20144 56014
ORH,2017-11-03 05:54,-71.8757,42.2673,60.10,57.00,89.48,220.00,12.00,0.00,30.14,1020.70,10.00,M,SCT,BKN,M,M,800.00,12000.00,M,M,M,KORH 030554Z AUTO 22012KT 10SM SCT008 BKN120 16/14 A3014 RMK AO2 SLP207 T01560139 10167 20144 58011
FIT,2017-11-03 05:55,-71.7558,42.5519,M,M,M,140.00,5.00,M,30.13,M,9.00,M,SCT,BKN,M,M,1900.00,12000.00,M,M,M,KFIT 030555Z AUTO 14005KT 9SM SCT019 BKN120 A3013 RMK MADISHF
CQX,2017-11-03 05:55,-69.9933,41.6875,M,M,M,200.00,4.00,M,30.18,M,10.00,M,CLR,M,M,M,M,M,M,M,M,KCQX 030555Z AUTO 20004KT 10SM CLR A3018 RMK MADISHF
ORE,2017-11-03 05:55,-72.2886,42.5701,M,M,M,150.00,5.00,M,30.12,M,10.00,M,OVC,M,M,M,1600.00,M,M,M,M,KORE 030555Z AUTO 15005KT 10SM OVC016 A3012 RMK MADISHF
PVC,2017-11-03 05:55,-70.2200,42.0700,M,M,M,200.00,8.00,M,30.17,M,2.50,M,OVC,M,M,M,100.00,M,M,M,BR,KPVC 030555Z AUTO 20008KT 2 1/2SM BR OVC001 A3017 RMK MADISHF
TAN,2017-11-03 05:55,-71.0211,41.8756,M,M,M,0.00,0.00,M,30.16,M,0.25,M,VV ,M,M,M,200.00,M,M,M,FG,KTAN 030555Z AUTO 00000KT 1/4SM FG VV002 A3016 RMK MADISHF
BED,2017-11-03 05:55,-71.2890,42.4699,M,M,M,190.00,7.00,M,30.13,M,10.00,M,BKN,M,M,M,12000.00,M,M,M,M,KBED 030555Z AUTO 19007KT 10SM BKN120 A3013 RMK MADISHF
OWD,2017-11-03 05:55,-71.1733,42.1912,M,M,M,170.00,4.00,M,30.15,M,10.00,M,FEW,M,M,M,5500.00,M,M,M,M,KOWD 030555Z AUTO 17004KT 10SM FEW055 A3015 RMK MADISHF
ORH,2017-11-03 05:55,-71.8757,42.2673,M,M,M,M,M,M,30.14,M,10.00,M,SCT,BKN,M,M,800.00,12000.00,M,M,M,KORH 030555Z AUTO /////KT 10SM SCT008 BKN120 A3014 RMK MADISHF
HYA,2017-11-03 05:55,-70.2800,41.6700,M,M,M,200.00,5.00,M,30.16,M,7.00,M,CLR,M,M,M,M,M,M,M,M,KHYA 030555Z AUTO 20005KT 7SM CLR A3016 RMK MADISHF
BOS,2017-11-03 05:55,-71.0097,42.3606,M,M,M,180.00,5.00,M,30.15,M,10.00,M,FEW,SCT,BKN,M,600.00,5500.00,12000.00,M,M,KBOS 030555Z AUTO 18005KT 10SM FEW006 SCT055 BKN120 A3015 RMK MADISHF
GHG,2017-11-03 05:55,-70.6721,42.0982,60.80,57.20,87.92,210.00,5.00,0.00,30.15,M,10.00,M,CLR,M,M,M,M,M,M,M,M,KGHG 030555Z AUTO 21005KT 10SM CLR 16/14 A3015 RMK AO2
EWB,2017-11-03 05:55,-70.9583,41.6764,53.10,52.00,96.03,0.00,0.00,0.00,30.16,M,0.75,M,VV ,M,M,M,300.00,M,M,M,BR,KEWB 030555Z AUTO 00000KT 3/4SM R05/1200V2200FT BR VV003 12/11 A3016 RMK AO2 T01170111
FMH,2017-11-03 05:55,-70.5215,41.6585,57.20,57.20,100.00,220.00,4.00,0.00,30.17,M,2.00,M,OVC,M,M,M,300.00,M,M,M,BR,KFMH 030555Z AUTO 22004KT 2SM BR OVC003 14/14 A3017 RMK AO2 VIS 1V3
BED,2017-11-03 05:56,-71.2890,42.4699,61.00,59.00,93.12,190.00,6.00,0.00,30.13,1021.30,10.00,M,BKN,M,M,M,12000.00,M,M,M,M,KBED 030556Z AUTO 19006KT 10SM BKN120 16/15 A3013 RMK AO2 SLP213 T01610150 10178 20156 58016
HYA,2017-11-03 05:56,-70.2800,41.6700,61.00,60.10,96.85,200.00,6.00,0.00,30.16,1021.30,7.00,M,CLR,M,M,M,M,M,M,M,M,KHYA 030556Z AUTO 20006KT 7SM CLR 16/16 A3016 RMK AO2 SLP213 T01610156 10167 20150 56018
MQE,2017-11-03 05:56,-71.1142,42.2121,59.00,57.00,93.07,190.00,14.00,0.00,30.15,1021.70,M,M,M,M,M,M,M,M,M,M,M,KMQE 030556Z AUTO 19014KT 15/14 A3015 RMK AO1 SLP217 T01500139 10161 20150 56015
PVC,2017-11-03 05:56,-70.2200,42.0700,59.00,59.00,100.00,200.00,8.00,0.00,30.17,1021.70,2.50,M,OVC,M,M,M,100.00,M,M,M,BR,KPVC 030556Z AUTO 20008KT 2 1/2SM BR OVC001 15/15 A3017 RMK AO2 SLP217 T01500150 10161 20144 56016
PYM,2017-11-03 06:00,-70.7288,41.9090,M,M,M,190.00,4.00,M,30.17,M,6.00,M,BKN,M,M,M,400.00,M,M,M,BR,KPYM 030600Z AUTO 19004KT 6SM BR BKN004 A3017 RMK MADISHF
OWD,2017-11-03 06:00,-71.1733,42.1912,M,M,M,170.00,4.00,M,30.15,M,10.00,M,FEW,M,M,M,5500.00,M,M,M,M,KOWD 030600Z AUTO 17004KT 10SM FEW055 A3015 RMK MADISHF
TAN,2017-11-03 06:00,-71.0211,41.8756,M,M,M,0.00,0.00,M,30.16,M,0.25,M,VV ,M,M,M,200.00,M,M,M,FG,KTAN 030600Z AUTO 00000KT 1/4SM FG VV002 A3016 RMK MADISHF
PVC,2017-11-03 06:00,-70.2200,42.0700,M,M,M,200.00,7.00,M,30.17,M,2.50,M,OVC,M,M,M,100.00,M,M,M,BR,KPVC 030600Z AUTO 20007KT 2 1/2SM BR OVC001 A3017 RMK MADISHF
FIT,2017-11-03 06:00,-71.7558,42.5519,M,M,M,140.00,3.00,M,30.13,M,9.00,M,SCT,BKN,M,M,1900.00,12000.00,M,M,M,KFIT 030600Z AUTO 14003KT 9SM SCT019 BKN120 A3013 RMK MADISHF
HYA,2017-11-03 06:00,-70.2800,41.6700,M,M,M,200.00,4.00,M,30.16,M,8.00,M,CLR,M,M,M,M,M,M,M,M,KHYA 030600Z AUTO 20004KT 8SM CLR A3016 RMK MADISHF
EWB,2017-11-03 06:00,-70.9583,41.6764,M,M,M,0.00,0.00,M,30.16,M,0.25,M,VV ,M,M,M,300.00,M,M,M,FG,KEWB 030600Z AUTO 00000KT 1/4SM FG VV003 A3016 RMK MADISHF
ORE,2017-11-03 06:00,-72.2886,42.5701,M,M,M,150.00,4.00,M,30.12,M,10.00,M,OVC,M,M,M,1600.00,M,M,M,M,KORE 030600Z AUTO 15004KT 10SM OVC016 A3012 RMK MADISHF
BOS,2017-11-03 06:00,-71.0097,42.3606,M,M,M,180.00,5.00,M,30.15,M,10.00,M,FEW,SCT,BKN,M,600.00,5500.00,12000.00,M,M,KBOS 030600Z AUTO 18005KT 10SM FEW006 SCT055 BKN120 A3015 RMK MADISHF
BED,2017-11-03 06:00,-71.2890,42.4699,M,M,M,190.00,6.00,M,30.12,M,10.00,M,BKN,M,M,M,12000.00,M,M,M,M,KBED 030600Z AUTO 19006KT 10SM BKN120 A3012 RMK MADISHF
ORH,2017-11-03 06:00,-71.8757,42.2673,M,M,M,M,M,M,30.14,M,10.00,M,FEW,SCT,M,M,800.00,12000.00,M,M,M,KORH 030600Z AUTO /////KT 10SM FEW008 SCT120 A3014 RMK MADISHF
PYM,2017-11-03 06:04,-70.7288,41.9090,60.10,59.00,96.15,180.00,5.00,0.00,30.17,M,2.50,M,BKN,M,M,M,200.00,M,M,M,BR,KPYM 030604Z AUTO 18005KT 2 1/2SM BR BKN002 16/15 A3017 RMK AO2 T01560150
CQX,2017-11-03 06:05,-69.9933,41.6875,M,M,M,210.00,4.00,M,30.18,M,10.00,M,CLR,M,M,M,M,M,M,M,M,KCQX 030605Z AUTO 21004KT 10SM CLR A3018 RMK MADISHF
EWB,2017-11-03 06:05,-70.9583,41.6764,M,M,M,0.00,0.00,M,30.16,M,0.25,M,VV ,M,M,M,200.00,M,M,M,FG,KEWB 030605Z AUTO 00000KT 1/4SM FG VV002 A3016 RMK MADISHF
HYA,2017-11-03 06:05,-70.2800,41.6700,M,M,M,200.00,3.00,M,30.16,M,8.00,M,CLR,M,M,M,M,M,M,M,M,KHYA 030605Z AUTO 20003KT 8SM CLR A3016 RMK MADISHF
ORE,2017-11-03 06:05,-72.2886,42.5701,M,M,M,150.00,5.00,M,30.11,M,10.00,M,OVC,M,M,M,1600.00,M,M,M,M,KORE 030605Z AUTO 15005KT 10SM OVC016 A3011 RMK MADISHF
BOS,2017-11-03 06:05,-71.0097,42.3606,M,M,M,180.00,6.00,M,30.15,M,10.00,M,FEW,SCT,BKN,M,600.00,5500.00,12000.00,M,M,KBOS 030605Z AUTO 18006KT 10SM FEW006 SCT055 BKN120 A3015 RMK MADISHF
ORH,2017-11-03 06:05,-71.8757,42.2673,M,M,M,210.00,10.00,M,30.14,M,10.00,M,FEW,SCT,M,M,800.00,12000.00,M,M,M,KORH 030605Z AUTO 21010KT 10SM FEW008 SCT120 A3014 RMK MADISHF
FIT,2017-11-03 06:05,-71.7558,42.5519,M,M,M,140.00,3.00,M,30.13,M,10.00,M,SCT,M,M,M,1900.00,M,M,M,M,KFIT 030605Z AUTO 14003KT 10SM SCT019 A3013 RMK MADISHF
PVC,2017-11-03 06:05,-70.2200,42.0700,M,M,M,190.00,8.00,M,30.17,M,2.00,M,OVC,M,M,M,100.00,M,M,M,BR,KPVC 030605Z AUTO 19008KT 2SM BR OVC001 A3017 RMK MADISHF
PYM,2017-11-03 06:05,-70.7288,41.9090,M,M,M,180.00,5.00,M,30.16,M,2.00,M,BKN,M,M,M,200.00,M,M,M,BR,KPYM 030605Z AUTO 18005KT 2SM BR BKN002 A3016 RMK MADISHF
BED,2017-11-03 06:05,-71.2890,42.4699,M,M,M,190.00,6.00,M,30.12,M,10.00,M,OVC,M,M,M,12000.00,M,M,M,M,KBED 030605Z AUTO 19006KT 10SM OVC120 A3012 RMK MADISHF
OWD,2017-11-03 06:05,-71.1733,42.1912,M,M,M,160.00,4.00,M,30.14,M,10.00,M,FEW,M,M,M,5500.00,M,M,M,M,KOWD 030605Z AUTO 16004KT 10SM FEW055 A3014 RMK MADISHF
EWB,2017-11-03 06:06,-70.9583,41.6764,55.00,54.00,96.42,0.00,0.00,0.00,30.16,M,0.25,M,VV ,M,M,M,200.00,M,M,M,FG,KEWB 030606Z AUTO 00000KT 1/4SM R05/1200V1800FT FG VV002 13/12 A3016 RMK AO2 T01280122
TAN,2017-11-03 06:10,-71.0211,41.8756,M,M,M,0.00,0.00,M,30.16,M,0.50,M,VV ,M,M,M,200.00,M,M,M,FG,KTAN 030610Z AUTO 00000KT 1/2SM FG VV002 A3016 RMK MADISHF
PYM,2017-11-03 06:10,-70.7288,41.9090,M,M,M,190.00,5.00,M,30.16,M,1.25,M,BKN,M,M,M,200.00,M,M,M,BR,KPYM 030610Z AUTO 19005KT 1 1/2SM BR BKN002 A3016 RMK VRB05KT  MADISHF
CQX,2017-11-03 06:10,-69.9933,41.6875,M,M,M,210.00,4.00,M,30.18,M,10.00,M,CLR,M,M,M,M,M,M,M,M,KCQX 030610Z AUTO 21004KT 10SM CLR A3018 RMK MADISHF
OWD,2017-11-03 06:10,-71.1733,42.1912,M,M,M,170.00,4.00,M,30.14,M,10.00,M,FEW,M,M,M,5500.00,M,M,M,M,KOWD 030610Z AUTO 17004KT 10SM FEW055 A3014 RMK MADISHF
ORH,2017-11-03 06:10,-71.8757,42.2673,M,M,M,M,M,M,30.14,M,10.00,M,FEW,FEW,M,M,800.00,12000.00,M,M,M,KORH 030610Z AUTO /////KT 10SM FEW008 FEW120 A3014 RMK MADISHF
EWB,2017-11-03 06:10,-70.9583,41.6764,M,M,M,0.00,0.00,M,30.16,M,0.25,M,VV ,M,M,M,200.00,M,M,M,FG,KEWB 030610Z AUTO 00000KT 1/4SM FG VV002 A3016 RMK MADISHF
BOS,2017-11-03 06:10,-71.0097,42.3606,M,M,M,180.00,7.00,M,30.15,M,10.00,M,FEW,SCT,BKN,M,600.00,5500.00,12000.00,M,M,KBOS 030610Z AUTO 18007KT 10SM FEW006 SCT055 BKN120 A3015 RMK MADISHF
BED,2017-11-03 06:10,-71.2890,42.4699,M,M,M,180.00,7.00,M,30.12,M,10.00,M,BKN,M,M,M,12000.00,M,M,M,M,KBED 030610Z AUTO 18007KT 10SM BKN120 A3012 RMK MADISHF
ORE,2017-11-03 06:10,-72.2886,42.5701,M,M,M,150.00,5.00,M,30.11,M,10.00,M,BKN,OVC,M,M,1600.00,1999.00,M,M,M,KORE 030610Z AUTO 15005KT 10SM BKN016 OVC019 A3011 RMK MADISHF
HYA,2017-11-03 06:10,-70.2800,41.6700,M,M,M,220.00,4.00,M,30.15,M,7.00,M,CLR,M,M,M,M,M,M,M,M,KHYA 030610Z AUTO 22004KT 7SM CLR A3015 RMK MADISHF
PVC,2017-11-03 06:10,-70.2200,42.0700,M,M,M,190.00,8.00,M,30.17,M,3.00,M,OVC,M,M,M,100.00,M,M,M,BR,KPVC 030610Z AUTO 19008KT 3SM BR OVC001 A3017 RMK MADISHF
PYM,2017-11-03 06:12,-70.7288,41.9090,60.10,59.00,96.15,M,4.00,0.00,30.16,M,1.00,M,BKN,M,M,M,200.00,M,M,M,BR,KPYM 030612Z AUTO VRB04KT 1SM BR BKN002 16/15 A3016 RMK AO2 T01560150
ORE,2017-11-03 06:15,-72.2886,42.5701,M,M,M,160.00,5.00,M,30.11,M,10.00,M,BKN,OVC,M,M,1600.00,1999.00,M,M,M,KORE 030615Z AUTO 16005KT 10SM BKN016 OVC019 A3011 RMK MADISHF
EWB,2017-11-03 06:15,-70.9583,41.6764,M,M,M,0.00,0.00,M,30.16,M,0.25,M,VV ,M,M,M,200.00,M,M,M,FG,KEWB 030615Z AUTO 00000KT 1/4SM FG VV002 A3016 RMK MADISHF
BOS,2017-11-03 06:15,-71.0097,42.3606,M,M,M,190.00,6.00,M,30.15,M,10.00,M,FEW,SCT,BKN,M,600.00,5500.00,12000.00,M,M,KBOS 030615Z AUTO 19006KT 10SM FEW006 SCT055 BKN120 A3015 RMK MADISHF
CQX,2017-11-03 06:15,-69.9933,41.6875,M,M,M,180.00,4.00,M,30.18,M,10.00,M,FEW,M,M,M,200.00,M,M,M,M,KCQX 030615Z AUTO 18004KT 10SM FEW002 A3018 RMK MADISHF
PVC,2017-11-03 06:15,-70.2200,42.0700,M,M,M,190.00,8.00,M,30.17,M,4.00,M,BKN,M,M,M,100.00,M,M,M,BR,KPVC 030615Z AUTO 19008KT 4SM BR BKN001 A3017 RMK MADISHF
BED,2017-11-03 06:15,-71.2890,42.4699,M,M,M,170.00,7.00,M,30.12,M,10.00,M,OVC,M,M,M,12000.00,M,M,M,M,KBED 030615Z AUTO 17007KT 10SM OVC120 A3012 RMK MADISHF
OWD,2017-11-03 06:15,-71.1733,42.1912,M,M,M,170.00,4.00,M,30.14,M,10.00,M,FEW,M,M,M,5500.00,M,M,M,M,KOWD 030615Z AUTO 17004KT 10SM FEW055 A3014 RMK MADISHF
HYA,2017-11-03 06:15,-70.2800,41.6700,M,M,M,200.00,4.00,M,30.16,M,7.00,M,CLR,M,M,M,M,M,M,M,M,KHYA 030615Z AUTO 20004KT 7SM CLR A3016 RMK MADISHF
TAN,2017-11-03 06:15,-71.0211,41.8756,M,M,M,140.00,3.00,M,30.16,M,0.75,M,VV ,M,M,M,200.00,M,M,M,BR,KTAN 030615Z AUTO 14003KT 1SM BR VV002 A3016 RMK MADISHF
ORH,2017-11-03 06:15,-71.8757,42.2673,M,M,M,M,M,M,30.14,M,10.00,M,FEW,SCT,M,M,1100.00,12000.00,M,M,M,KORH 030615Z AUTO /////KT 10SM FEW011 SCT120 A3014 RMK MADISHF
FIT,2017-11-03 06:15,-71.7558,42.5519,M,M,M,140.00,4.00,M,30.13,M,10.00,M,SCT,M,M,M,1900.00,M,M,M,M,KFIT 030615Z AUTO 14004KT 10SM SCT019 A3013 RMK MADISHF
GHG,2017-11-03 06:15,-70.6721,42.0982,59.00,57.20,93.74,0.00,0.00,0.00,30.15,M,10.00,M,CLR,M,M,M,M,M,M,M,M,KGHG 030615Z AUTO 00000KT 10SM CLR 15/14 A3015 RMK AO2
FMH,2017-11-03 06:15,-70.5215,41.6585,57.20,57.20,100.00,0.00,0.00,0.00,30.18,M,0.25,M,OVC,M,M,M,300.00,M,M,M,FG,KFMH 030615Z AUTO 00000KT 1/4SM FG OVC003 14/14 A3018 RMK AO2
TAN,2017-11-03 06:18,-71.0211,41.8756,51.10,48.90,92.14,0.00,0.00,0.00,30.16,M,1.50,M,FEW,M,M,M,200.00,M,M,M,BR,KTAN 030618Z AUTO 00000KT 1 1/2SM BR FEW002 11/09 A3016 RMK AO2 T01060094
PVC,2017-11-03 06:20,-70.2200,42.0700,M,M,M,190.00,7.00,M,30.17,M,5.00,M,BKN,M,M,M,100.00,M,M,M,BR,KPVC 030620Z AUTO 19007KT 5SM BR BKN001 A3017 RMK MADISHF
FIT,2017-11-03 06:20,-71.7558,42.5519,M,M,M,140.00,5.00,M,30.13,M,10.00,M,SCT,M,M,M,1900.00,M,M,M,M,KFIT 030620Z AUTO 14005KT 10SM SCT019 A3013 RMK MADISHF
HYA,2017-11-03 06:20,-70.2800,41.6700,M,M,M,190.00,4.00,M,30.16,M,7.00,M,CLR,M,M,M,M,M,M,M,M,KHYA 030620Z AUTO 19004KT 7SM CLR A3016 RMK MADISHF
BOS,2017-11-03 06:20,-71.0097,42.3606,M,M,M,180.00,7.00,M,30.14,M,10.00,M,FEW,SCT,BKN,M,600.00,5500.00,12000.00,M,M,KBOS 030620Z AUTO 18007KT 10SM FEW006 SCT055 BKN120 A3014 RMK MADISHF
BED,2017-11-03 06:20,-71.2890,42.4699,M,M,M,180.00,6.00,M,30.12,M,10.00,M,BKN,M,M,M,12000.00,M,M,M,M,KBED 030620Z AUTO 18006KT 10SM BKN120 A3012 RMK MADISHF
ORH,2017-11-03 06:20,-71.8757,42.2673,M,M,M,M,M,M,30.14,M,10.00,M,SCT,M,M,M,1100.00,M,M,M,M,KORH 030620Z AUTO /////KT 10SM SCT011 A3014 RMK MADISHF
EWB,2017-11-03 06:20,-70.9583,41.6764,M,M,M,0.00,0.00,M,30.16,M,0.25,M,VV ,M,M,M,200.00,M,M,M,FG,KEWB 030620Z AUTO 00000KT 1/4SM FG VV002 A3016 RMK MADISHF
ORE,2017-11-03 06:20,-72.2886,42.5701,M,M,M,160.00,5.00,M,30.11,M,10.00,M,BKN,BKN,M,M,1600.00,1999.00,M,M,M,KORE 030620Z AUTO 16005KT 10SM BKN016 BKN019 A3011 RMK MADISHF
PYM,2017-11-03 06:20,-70.7288,41.9090,M,M,M,200.00,6.00,M,30.16,M,1.00,M,OVC,M,M,M,200.00,M,M,M,BR,KPYM 030620Z AUTO 20006KT 1SM BR OVC002 A3016 RMK MADISHF
OWD,2017-11-03 06:20,-71.1733,42.1912,M,M,M,0.00,0.00,M,30.14,M,10.00,M,FEW,M,M,M,6000.00,M,M,M,M,KOWD 030620Z AUTO 00000KT 10SM FEW060 A3014 RMK MADISHF
TAN,2017-11-03 06:20,-71.0211,41.8756,51.10,48.90,92.14,0.00,0.00,0.00,30.16,M,4.00,M,FEW,M,M,M,11000.00,M,M,M,BR,KTAN 030620Z AUTO 00000KT 4SM BR FEW110 11/09 A3016 RMK AO2 T01060094
CQX,2017-11-03 06:21,-69.9933,41.6875,57.90,57.90,100.00,210.00,4.00,0.00,30.17,M,9.00,M,FEW,M,M,M,200.00,M,M,M,M,KCQX 030621Z AUTO 21004KT 9SM FEW002 14/14 A3017 RMK AO2 T01440144
PVC,2017-11-03 06:21,-70.2200,42.0700,59.00,59.00,100.00,190.00,7.00,0.00,30.17,M,5.00,M,BKN,M,M,M,100.00,M,M,M,BR,KPVC 030621Z AUTO 19007KT 5SM BR BKN001 15/15 A3017 RMK AO2
ORE,2017-11-03 06:25,-72.2886,42.5701,M,M,M,150.00,6.00,M,30.11,M,10.00,M,BKN,OVC,M,M,1600.00,2100.00,M,M,M,KORE 030625Z AUTO 15006KT 10SM BKN016 OVC021 A3011 RMK MADISHF
BOS,2017-11-03 06:25,-71.0097,42.3606,M,M,M,170.00,7.00,M,30.14,M,10.00,M,FEW,SCT,BKN,M,600.00,5500.00,12000.00,M,M,KBOS 030625Z AUTO 17007KT 10SM FEW006 SCT055 BKN120 A3014 RMK MADISHF
CQX,2017-11-03 06:25,-69.9933,41.6875,M,M,M,220.00,3.00,M,30.17,M,9.00,M,CLR,M,M,M,M,M,M,M,M,KCQX 030625Z AUTO 22003KT 9SM CLR A3017 RMK MADISHF
FIT,2017-11-03 06:25,-71.7558,42.5519,M,M,M,140.00,5.00,M,30.13,M,10.00,M,SCT,M,M,M,1900.00,M,M,M,M,KFIT 030625Z AUTO 14005KT 10SM SCT019 A3013 RMK MADISHF
ORH,2017-11-03 06:25,-71.8757,42.2673,M,M,M,M,M,M,30.13,M,10.00,M,SCT,M,M,M,1100.00,M,M,M,M,KORH 030625Z AUTO /////KT 10SM SCT011 A3013 RMK MADISHF
BED,2017-11-03 06:25,-71.2890,42.4699,M,M,M,180.00,6.00,M,30.12,M,10.00,M,BKN,M,M,M,12000.00,M,M,M,M,KBED 030625Z AUTO 18006KT 10SM BKN120 A3012 RMK MADISHF
OWD,2017-11-03 06:25,-71.1733,42.1912,M,M,M,180.00,3.00,M,30.14,M,10.00,M,FEW,M,M,M,6000.00,M,M,M,M,KOWD 030625Z AUTO 18003KT 10SM FEW060 A3014 RMK MADISHF
PYM,2017-11-03 06:25,-70.7288,41.9090,M,M,M,190.00,3.00,M,30.16,M,1.25,M,OVC,M,M,M,200.00,M,M,M,BR,KPYM 030625Z AUTO 19003KT 1 1/2SM BR OVC002 A3016 RMK MADISHF
PVC,2017-11-03 06:25,-70.2200,42.0700,M,M,M,190.00,8.00,M,30.17,M,5.00,M,BKN,M,M,M,100.00,M,M,M,BR,KPVC 030625Z AUTO 19008KT 5SM BR BKN001 A3017 RMK MADISHF
HYA,2017-11-03 06:25,-70.2800,41.6700,M,M,M,210.00,4.00,M,30.16,M,7.00,M,CLR,M,M,M,M,M,M,M,M,KHYA 030625Z AUTO 21004KT 7SM CLR A3016 RMK MADISHF
EWB,2017-11-03 06:25,-70.9583,41.6764,M,M,M,0.00,0.00,M,30.15,M,0.25,M,BKN,BKN,M,M,200.00,12000.00,M,M,FG,KEWB 030625Z AUTO 00000KT 1/4SM FG BKN002 BKN120 A3015 RMK MADISHF
PVC,2017-11-03 06:30,-70.2200,42.0700,M,M,M,190.00,8.00,M,30.16,M,5.00,M,BKN,M,M,M,100.00,M,M,M,BR,KPVC 030630Z AUTO 19008KT 5SM BR BKN001 A3016 RMK MADISHF
BED,2017-11-03 06:30,-71.2890,42.4699,M,M,M,180.00,6.00,M,30.12,M,10.00,M,BKN,M,M,M,12000.00,M,M,M,M,KBED 030630Z AUTO 18006KT 10SM BKN120 A3012 RMK MADISHF
EWB,2017-11-03 06:30,-70.9583,41.6764,M,M,M,0.00,0.00,M,30.15,M,0.25,M,BKN,OVC,M,M,200.00,12000.00,M,M,FG,KEWB 030630Z AUTO 00000KT 1/4SM FG BKN002 OVC120 A3015 RMK MADISHF
TAN,2017-11-03 06:30,-71.0211,41.8756,M,M,M,0.00,0.00,M,30.15,M,3.50,M,SCT,M,M,M,11000.00,M,M,M,BR,KTAN 030630Z AUTO 00000KT 3SM BR SCT110 A3015 RMK MADISHF
BOS,2017-11-03 06:30,-71.0097,42.3606,M,M,M,180.00,7.00,M,30.14,M,10.00,M,FEW,SCT,BKN,M,600.00,5500.00,12000.00,M,M,KBOS 030630Z AUTO 18007KT 10SM FEW006 SCT055 BKN120 A3014 RMK MADISHF
ORE,2017-11-03 06:30,-72.2886,42.5701,M,M,M,150.00,6.00,M,30.10,M,10.00,M,BKN,BKN,M,M,1600.00,2100.00,M,M,M,KORE 030630Z AUTO 15006KT 10SM BKN016 BKN021 A3010 RMK MADISHF
OWD,2017-11-03 06:30,-71.1733,42.1912,M,M,M,180.00,3.00,M,30.14,M,10.00,M,FEW,M,M,M,6000.00,M,M,M,M,KOWD 030630Z AUTO 18003KT 10SM FEW060 A3014 RMK MADISHF
ORH,2017-11-03 06:30,-71.8757,42.2673,M,M,M,M,M,M,30.13,M,10.00,M,SCT,M,M,M,1100.00,M,M,M,M,KORH 030630Z AUTO /////KT 10SM SCT011 A3013 RMK MADISHF
CQX,2017-11-03 06:30,-69.9933,41.6875,M,M,M,0.00,0.00,M,30.17,M,8.00,M,CLR,M,M,M,M,M,M,M,M,KCQX 030630Z AUTO 00000KT 8SM CLR A3017 RMK MADISHF
HYA,2017-11-03 06:30,-70.2800,41.6700,M,M,M,200.00,3.00,M,30.16,M,7.00,M,CLR,M,M,M,M,M,M,M,M,KHYA 030630Z AUTO 20003KT 7SM CLR A3016 RMK MADISHF
EWB,2017-11-03 06:32,-70.9583,41.6764,51.10,50.00,96.00,0.00,0.00,0.00,30.15,M,0.25,M,BKN,OVC,M,M,200.00,12000.00,M,M,FG,KEWB 030632Z AUTO 00000KT 1/4SM R05/1600V2800FT FG BKN002 OVC120 11/10 A3015 RMK AO2 T01060100
PVC,2017-11-03 06:35,-70.2200,42.0700,M,M,M,190.00,8.00,M,30.16,M,6.00,M,BKN,M,M,M,100.00,M,M,M,BR,KPVC 030635Z AUTO 19008KT 6SM BR BKN001 A3016 RMK MADISHF
ORE,2017-11-03 06:35,-72.2886,42.5701,M,M,M,160.00,7.00,M,30.10,M,10.00,M,BKN,M,M,M,1600.00,M,M,M,M,KORE 030635Z AUTO 16007KT 10SM BKN016 A3010 RMK MADISHF
CQX,2017-11-03 06:35,-69.9933,41.6875,M,M,M,0.00,0.00,M,30.17,M,8.00,M,CLR,M,M,M,M,M,M,M,M,KCQX 030635Z AUTO 00000KT 8SM CLR A3017 RMK MADISHF
TAN,2017-11-03 06:35,-71.0211,41.8756,M,M,M,0.00,0.00,M,30.15,M,7.00,M,SCT,M,M,M,11000.00,M,M,M,M,KTAN 030635Z AUTO 00000KT 7SM SCT110 A3015 RMK MADISHF
HYA,2017-11-03 06:35,-70.2800,41.6700,M,M,M,0.00,0.00,M,30.15,M,6.00,M,CLR,M,M,M,M,M,M,M,BR,KHYA 030635Z AUTO 00000KT 6SM BR CLR A3015 RMK MADISHF
ORH,2017-11-03 06:35,-71.8757,42.2673,M,M,M,M,M,M,30.13,M,10.00,M,BKN,M,M,M,900.00,M,M,M,M,KORH 030635Z AUTO /////KT 10SM BKN009 A3013 RMK CIG 7V11  MADISHF
PYM,2017-11-03 06:35,-70.7288,41.9090,M,M,M,200.00,3.00,M,30.16,M,1.75,M,OVC,M,M,M,200.00,M,M,M,BR,KPYM 030635Z AUTO 20003KT 2SM BR OVC002 A3016 RMK MADISHF
FIT,2017-11-03 06:35,-71.7558,42.5519,M,M,M,140.00,4.00,M,30.12,M,10.00,M,SCT,M,M,M,1900.00,M,M,M,M,KFIT 030635Z AUTO 14004KT 10SM SCT019 A3012 RMK MADISHF
BOS,2017-11-03 06:35,-71.0097,42.3606,M,M,M,180.00,6.00,M,30.14,M,10.00,M,FEW,SCT,BKN,M,600.00,5500.00,12000.00,M,M,KBOS 030635Z AUTO 18006KT 10SM FEW006 SCT055 BKN120 A3014 RMK MADISHF
EWB,2017-11-03 06:35,-70.9583,41.6764,M,M,M,0.00,0.00,M,30.15,M,0.25,M,VV ,M,M,M,200.00,M,M,M,FG,KEWB 030635Z AUTO 00000KT 1/4SM FG VV002 A3015 RMK MADISHF
BED,2017-11-03 06:35,-71.2890,42.4699,M,M,M,170.00,8.00,M,30.12,M,10.00,M,BKN,M,M,M,12000.00,M,M,M,M,KBED 030635Z AUTO 17008KT 10SM BKN120 A3012 RMK MADISHF
OWD,2017-11-03 06:35,-71.1733,42.1912,M,M,M,170.00,4.00,M,30.14,M,10.00,M,FEW,M,M,M,6000.00,M,M,M,M,KOWD 030635Z AUTO 17004KT 10SM FEW060 A3014 RMK MADISHF
GHG,2017-11-03 06:35,-70.6721,42.0982,59.00,57.20,93.74,220.00,3.00,0.00,30.15,M,10.00,M,CLR,M,M,M,M,M,M,M,M,KGHG 030635Z AUTO 22003KT 10SM CLR 15/14 A3015 RMK AO2
FMH,2017-11-03 06:35,-70.5215,41.6585,57.20,57.20,100.00,0.00,0.00,0.00,30.17,M,0.25,M,OVC,M,M,M,400.00,M,M,M,FG,KFMH 030635Z AUTO 00000KT M1/4SM FG OVC004 14/14 A3017 RMK AO2
CQX,2017-11-03 06:40,-69.9933,41.6875,M,M,M,0.00,0.00,M,30.17,M,8.00,M,CLR,M,M,M,M,M,M,M,M,KCQX 030640Z AUTO 00000KT 8SM CLR A3017 RMK MADISHF
PVC,2017-11-03 06:40,-70.2200,42.0700,M,M,M,190.00,7.00,M,30.16,M,7.00,M,BKN,M,M,M,100.00,M,M,M,M,KPVC 030640Z AUTO 19007KT 7SM BKN001 A3016 RMK MADISHF
TAN,2017-11-03 06:40,-71.0211,41.8756,M,M,M,0.00,0.00,M,30.15,M,9.00,M,SCT,M,M,M,11000.00,M,M,M,M,KTAN 030640Z AUTO 00000KT 9SM SCT110 A3015 RMK MADISHF
PYM,2017-11-03 06:40,-70.7288,41.9090,M,M,M,200.00,3.00,M,30.16,M,2.50,M,OVC,M,M,M,200.00,M,M,M,BR,KPYM 030640Z AUTO 20003KT 2 1/2SM BR OVC002 A3016 RMK MADISHF
FIT,2017-11-03 06:40,-71.7558,42.5519,M,M,M,140.00,5.00,M,30.12,M,10.00,M,FEW,M,M,M,1900.00,M,M,M,M,KFIT 030640Z AUTO 14005KT 10SM FEW019 A3012 RMK MADISHF
HYA,2017-11-03 06:40,-70.2800,41.6700,M,M,M,190.00,3.00,M,30.15,M,5.00,M,CLR,M,M,M,M,M,M,M,BR,KHYA 030640Z AUTO 19003KT 5SM BR CLR A3015 RMK MADISHF
EWB,2017-11-03 06:40,-70.9583,41.6764,M,M,M,0.00,0.00,M,30.15,M,0.25,M,VV ,M,M,M,200.00,M,M,M,FG,KEWB 030640Z AUTO 00000KT 1/4SM FG VV002 A3015 RMK MADISHF
BED,2017-11-03 06:40,-71.2890,42.4699,M,M,M,170.00,7.00,M,30.12,M,10.00,M,BKN,M,M,M,12000.00,M,M,M,M,KBED 030640Z AUTO 17007KT 10SM BKN120 A3012 RMK MADISHF
BOS,2017-11-03 06:40,-71.0097,42.3606,M,M,M,170.00,6.00,M,30.14,M,10.00,M,FEW,SCT,BKN,M,600.00,5500.00,12000.00,M,M,KBOS 030640Z AUTO 17006KT 10SM FEW006 SCT055 BKN120 A3014 RMK MADISHF
ORE,2017-11-03 06:40,-72.2886,42.5701,M,M,M,150.00,6.00,M,30.10,M,10.00,M,BKN,M,M,M,1600.00,M,M,M,M,KORE 030640Z AUTO 15006KT 10SM BKN016 A3010 RMK MADISHF
ORH,2017-11-03 06:40,-71.8757,42.2673,M,M,M,M,M,M,30.13,M,10.00,M,BKN,M,M,M,900.00,M,M,M,M,KORH 030640Z AUTO /////KT 10SM BKN009 A3013 RMK CIG 7V11  MADISHF
OWD,2017-11-03 06:40,-71.1733,42.1912,M,M,M,160.00,4.00,M,30.13,M,10.00,M,FEW,M,M,M,6000.00,M,M,M,M,KOWD 030640Z AUTO 16004KT 10SM FEW060 A3013 RMK MADISHF
ORH,2017-11-03 06:41,-71.8757,42.2673,60.10,57.00,89.48,220.00,12.00,0.00,30.13,M,10.00,M,BKN,M,M,M,900.00,M,M,M,M,KORH 030641Z AUTO 22012KT 10SM BKN009 16/14 A3013 RMK AO2 CIG 007V011 T01560139
PYM,2017-11-03 06:42,-70.7288,41.9090,60.10,57.90,92.43,0.00,0.00,0.00,30.16,M,3.00,M,BKN,OVC,M,M,200.00,12000.00,M,M,BR,KPYM 030642Z AUTO 00000KT 3SM BR BKN002 OVC120 16/14 A3016 RMK AO2 T01560144
ORE,2017-11-03 06:45,-72.2886,42.5701,M,M,M,180.00,6.00,M,30.10,M,10.00,M,BKN,M,M,M,1600.00,M,M,M,M,KORE 030645Z AUTO 18006KT 10SM BKN016 A3010 RMK MADISHF
EWB,2017-11-03 06:45,-70.9583,41.6764,M,M,M,0.00,0.00,M,30.15,M,0.50,M,VV ,M,M,M,200.00,M,M,M,FG,KEWB 030645Z AUTO 00000KT 1/2SM FG VV002 A3015 RMK MADISHF
TAN,2017-11-03 06:45,-71.0211,41.8756,M,M,M,0.00,0.00,M,30.15,M,10.00,M,SCT,M,M,M,11000.00,M,M,M,M,KTAN 030645Z AUTO 00000KT 10SM SCT110 A3015 RMK MADISHF
PVC,2017-11-03 06:45,-70.2200,42.0700,M,M,M,190.00,8.00,M,30.16,M,5.00,M,BKN,BKN,M,M,100.00,12000.00,M,M,BR,KPVC 030645Z AUTO 19008KT 5SM BR BKN001 BKN120 A3016 RMK MADISHF
FIT,2017-11-03 06:45,-71.7558,42.5519,M,M,M,140.00,6.00,M,30.12,M,10.00,M,FEW,M,M,M,1900.00,M,M,M,M,KFIT 030645Z AUTO 14006KT 10SM FEW019 A3012 RMK MADISHF
ORH,2017-11-03 06:45,-71.8757,42.2673,M,M,M,M,M,M,30.13,M,10.00,M,BKN,M,M,M,900.00,M,M,M,M,KORH 030645Z AUTO /////KT 10SM BKN009 A3013 RMK CIG 7V11  MADISHF
OWD,2017-11-03 06:45,-71.1733,42.1912,M,M,M,160.00,4.00,M,30.13,M,10.00,M,FEW,M,M,M,6000.00,M,M,M,M,KOWD 030645Z AUTO 16004KT 10SM FEW060 A3013 RMK MADISHF
HYA,2017-11-03 06:45,-70.2800,41.6700,M,M,M,190.00,4.00,M,30.15,M,5.00,M,CLR,M,M,M,M,M,M,M,BR,KHYA 030645Z AUTO 19004KT 5SM BR CLR A3015 RMK MADISHF
CQX,2017-11-03 06:45,-69.9933,41.6875,M,M,M,230.00,3.00,M,30.17,M,8.00,M,CLR,M,M,M,M,M,M,M,M,KCQX 030645Z AUTO 23003KT 8SM CLR A3017 RMK MADISHF
BOS,2017-11-03 06:45,-71.0097,42.3606,M,M,M,160.00,6.00,M,30.14,M,10.00,M,FEW,FEW,SCT,M,600.00,5500.00,12000.00,M,M,KBOS 030645Z AUTO 16006KT 10SM FEW006 FEW055 SCT120 A3014 RMK MADISHF
BED,2017-11-03 06:45,-71.2890,42.4699,M,M,M,180.00,7.00,M,30.11,M,10.00,M,BKN,M,M,M,12000.00,M,M,M,M,KBED 030645Z AUTO 18007KT 10SM BKN120 A3011 RMK MADISHF
PYM,2017-11-03 06:45,-70.7288,41.9090,M,M,M,0.00,0.00,M,30.16,M,4.00,M,BKN,BKN,M,M,200.00,12000.00,M,M,BR,KPYM 030645Z AUTO 00000KT 4SM BR BKN002 BKN120 A3016 RMK MADISHF
EWB,2017-11-03 06:48,-70.9583,41.6764,53.60,53.60,100.00,0.00,0.00,0.00,30.15,M,0.50,M,VV ,M,M,M,200.00,M,M,M,FG,KEWB 030648Z AUTO 00000KT 1/2SM R05/2000V2800FT FG VV002 12/12 A3015 RMK AO2
BOS,2017-11-03 06:50,-71.0097,42.3606,M,M,M,160.00,6.00,M,30.14,M,10.00,M,FEW,FEW,SCT,M,600.00,5500.00,12000.00,M,M,KBOS 030650Z AUTO 16006KT 10SM FEW006 FEW055 SCT120 A3014 RMK MADISHF
HYA,2017-11-03 06:50,-70.2800,41.6700,M,M,M,200.00,4.00,M,30.15,M,6.00,M,CLR,M,M,M,M,M,M,M,BR,KHYA 030650Z AUTO 20004KT 6SM BR CLR A3015 RMK MADISHF
TAN,2017-11-03 06:50,-71.0211,41.8756,M,M,M,150.00,3.00,M,30.14,M,8.00,M,FEW,M,M,M,11000.00,M,M,M,M,KTAN 030650Z AUTO 15003KT 8SM FEW110 A3014 RMK MADISHF
EWB,2017-11-03 06:50,-70.9583,41.6764,M,M,M,0.00,0.00,M,30.15,M,0.50,M,VV ,M,M,M,200.00,M,M,M,FG,KEWB 030650Z AUTO 00000KT 1/2SM FG VV002 A3015 RMK MADISHF
PVC,2017-11-03 06:50,-70.2200,42.0700,M,M,M,170.00,7.00,M,30.16,M,2.50,M,BKN,OVC,M,M,100.00,12000.00,M,M,BR,KPVC 030650Z AUTO 17007KT 2 1/2SM BR BKN001 OVC120 A3016 RMK MADISHF
ORE,2017-11-03 06:50,-72.2886,42.5701,M,M,M,170.00,5.00,M,30.10,M,10.00,M,BKN,M,M,M,1600.00,M,M,M,M,KORE 030650Z AUTO 17005KT 10SM BKN016 A3010 RMK VRB05KT  MADISHF
CQX,2017-11-03 06:50,-69.9933,41.6875,M,M,M,260.00,3.00,M,30.17,M,9.00,M,CLR,M,M,M,M,M,M,M,M,KCQX 030650Z AUTO 26003KT 9SM CLR A3017 RMK MADISHF
BED,2017-11-03 06:50,-71.2890,42.4699,M,M,M,180.00,7.00,M,30.11,M,10.00,M,FEW,BKN,M,M,700.00,12000.00,M,M,M,KBED 030650Z AUTO 18007KT 10SM FEW007 BKN120 A3011 RMK MADISHF
ORH,2017-11-03 06:50,-71.8757,42.2673,M,M,M,220.00,12.00,M,30.13,M,10.00,M,SCT,M,M,M,900.00,M,M,M,M,KORH 030650Z AUTO 22012KT 10SM SCT009 A3013 RMK MADISHF
OWD,2017-11-03 06:50,-71.1733,42.1912,M,M,M,160.00,4.00,M,30.13,M,10.00,M,CLR,M,M,M,M,M,M,M,M,KOWD 030650Z AUTO 16004KT 10SM CLR A3013 RMK MADISHF
CQX,2017-11-03 06:52,-69.9933,41.6875,57.00,57.00,100.00,270.00,3.00,0.00,30.17,1021.60,10.00,M,CLR,M,M,M,M,M,M,M,M,KCQX 030652Z AUTO 27003KT 10SM CLR 14/14 A3017 RMK AO2 SLP216 T01390139
FIT,2017-11-03 06:52,-71.7558,42.5519,63.00,61.00,93.18,140.00,6.00,0.00,30.11,1019.60,10.00,M,FEW,M,M,M,1900.00,M,M,M,M,KFIT 030652Z AUTO 14006KT 10SM FEW019 17/16 A3011 RMK AO2 SLP196 T01720161
TAN,2017-11-03 06:52,-71.0211,41.8756,51.10,48.90,92.14,140.00,4.00,0.00,30.14,1020.70,7.00,M,FEW,M,M,M,11000.00,M,M,M,M,KTAN 030652Z AUTO 14004KT 7SM FEW110 11/09 A3014 RMK AO2 SLP207 T01060094
PYM,2017-11-03 06:52,-70.7288,41.9090,60.10,57.90,92.43,0.00,0.00,0.00,30.15,1021.10,4.00,M,BKN,M,M,M,200.00,M,M,M,BR,KPYM 030652Z AUTO 00000KT 4SM BR BKN002 16/14 A3015 RMK AO2 SLP211 T01560144
ORE,2017-11-03 06:52,-72.2886,42.5701,61.00,60.10,96.85,170.00,3.00,0.00,30.10,1019.30,10.00,M,BKN,M,M,M,1600.00,M,M,M,M,KORE 030652Z AUTO 17003KT 10SM BKN016 16/16 A3010 RMK AO2 SLP193 T01610156 TSNO
BED,2017-11-03 06:53,-71.2890,42.4699,60.80,59.00,93.79,180.00,6.00,0.00,30.11,M,10.00,M,FEW,FEW,BKN,M,700.00,5000.00,12000.00,M,M,KBED 030653Z AUTO 18006KT 10SM FEW007 FEW050 BKN120 16/15 A3011 RMK AO2
EWB,2017-11-03 06:53,-70.9583,41.6764,53.10,53.10,100.00,0.00,0.00,0.00,30.15,1020.80,0.50,M,BKN,BKN,M,M,200.00,12000.00,M,M,FG,KEWB 030653Z AUTO 00000KT 1/2SM R05/2000V2800FT FG BKN002 BKN120 12/12 A3015 RMK AO2 SLP208 T01170117
OWD,2017-11-03 06:53,-71.1733,42.1912,60.10,57.90,92.43,160.00,3.00,0.00,30.13,1020.30,10.00,M,CLR,M,M,M,M,M,M,M,M,KOWD 030653Z AUTO 16003KT 10SM CLR 16/14 A3013 RMK AO2 SLP203 T01560144
ORH,2017-11-03 06:54,-71.8757,42.2673,60.10,57.00,89.48,230.00,13.00,0.00,30.13,1020.10,10.00,M,SCT,M,M,M,900.00,M,M,M,M,KORH 030654Z AUTO 23013KT 10SM SCT009 16/14 A3013 RMK AO2 SLP201 T01560139
BOS,2017-11-03 06:54,-71.0097,42.3606,57.90,57.00,96.81,160.00,7.00,0.00,30.13,1020.30,10.00,M,FEW,FEW,BKN,M,600.00,5500.00,12000.00,M,M,KBOS 030654Z 16007KT 10SM FEW006 FEW055 BKN120 14/14 A3013 RMK AO2 SLP203 T01440139
CQX,2017-11-03 06:55,-69.9933,41.6875,M,M,M,0.00,0.00,M,30.17,M,9.00,M,CLR,M,M,M,M,M,M,M,M,KCQX 030655Z AUTO 00000KT 9SM CLR A3017 RMK MADISHF
PVC,2017-11-03 06:55,-70.2200,42.0700,M,M,M,180.00,7.00,M,30.16,M,2.00,M,BKN,BKN,M,M,100.00,12000.00,M,M,BR,KPVC 030655Z AUTO 18007KT 2SM BR BKN001 BKN120 A3016 RMK MADISHF
TAN,2017-11-03 06:55,-71.0211,41.8756,M,M,M,130.00,5.00,M,30.14,M,6.00,M,FEW,M,M,M,11000.00,M,M,M,BR,KTAN 030655Z AUTO 13005KT 6SM BR FEW110 A3014 RMK MADISHF
BOS,2017-11-03 06:55,-71.0097,42.3606,M,M,M,160.00,7.00,M,30.13,M,10.00,M,FEW,FEW,BKN,M,600.00,5500.00,12000.00,M,M,KBOS 030655Z AUTO 16007KT 10SM FEW006 FEW055 BKN120 A3013 RMK MADISHF
HYA,2017-11-03 06:55,-70.2800,41.6700,M,M,M,200.00,4.00,M,30.14,M,6.00,M,CLR,M,M,M,M,M,M,M,BR,KHYA 030655Z AUTO 20004KT 6SM BR CLR A3014 RMK MADISHF
BED,2017-11-03 06:55,-71.2890,42.4699,M,M,M,180.00,6.00,M,30.11,M,10.00,M,FEW,SCT,BKN,M,700.00,5000.00,12000.00,M,M,KBED 030655Z AUTO 18006KT 10SM FEW007 SCT050 BKN120 A3011 RMK MADISHF
ORH,2017-11-03 06:55,-71.8757,42.2673,M,M,M,M,M,M,30.13,M,10.00,M,SCT,M,M,M,900.00,M,M,M,M,KORH 030655Z AUTO /////KT 10SM SCT009 A3013 RMK MADISHF
OWD,2017-11-03 06:55,-71.1733,42.1912,M,M,M,160.00,3.00,M,30.13,M,10.00,M,CLR,M,M,M,M,M,M,M,M,KOWD 030655Z AUTO 16003KT 10SM CLR A3013 RMK MADISHF
EWB,2017-11-03 06:55,-70.9583,41.6764,M,M,M,0.00,0.00,M,30.15,M,0.50,M,BKN,BKN,M,M,200.00,12000.00,M,M,FG,KEWB 030655Z AUTO 00000KT 1/2SM FG BKN002 BKN120 A3015 RMK MADISHF
PYM,2017-11-03 06:55,-70.7288,41.9090,M,M,M,170.00,3.00,M,30.15,M,4.00,M,BKN,M,M,M,200.00,M,M,M,BR,KPYM 030655Z AUTO 17003KT 4SM BR BKN002 A3015 RMK MADISHF
FIT,2017-11-03 06:55,-71.7558,42.5519,M,M,M,150.00,6.00,M,30.11,M,10.00,M,FEW,M,M,M,1900.00,M,M,M,M,KFIT 030655Z AUTO 15006KT 10SM FEW019 A3011 RMK MADISHF
ORE,2017-11-03 06:55,-72.2886,42.5701,M,M,M,200.00,6.00,M,30.10,M,10.00,M,BKN,M,M,M,1600.00,M,M,M,M,KORE 030655Z AUTO 20006KT 10SM BKN016 A3010 RMK VRB06KT  MADISHF
GHG,2017-11-03 06:55,-70.6721,42.0982,57.20,57.20,100.00,0.00,0.00,0.00,30.14,M,10.00,M,CLR,M,M,M,M,M,M,M,M,KGHG 030655Z AUTO 00000KT 10SM CLR 14/14 A3014 RMK AO2
FMH,2017-11-03 06:55,-70.5215,41.6585,53.60,53.60,100.00,0.00,0.00,0.00,30.16,M,0.25,M,OVC,M,M,M,200.00,M,M,M,FG,KFMH 030655Z AUTO 00000KT M1/4SM FG OVC002 12/12 A3016 RMK AO2
BED,2017-11-03 06:56,-71.2890,42.4699,61.00,59.00,93.12,190.00,6.00,0.00,30.11,1020.80,10.00,M,FEW,SCT,BKN,M,700.00,5000.00,12000.00,M,M,KBED 030656Z AUTO 19006KT 10SM FEW007 SCT050 BKN120 16/15 A3011 RMK AO2 SLP208 T01610150
PVC,2017-11-03 06:56,-70.2200,42.0700,59.00,57.90,96.13,170.00,7.00,0.00,30.16,1021.20,2.00,M,BKN,BKN,M,M,100.00,12000.00,M,M,BR,KPVC 030656Z AUTO 17007KT 2SM BR BKN001 BKN120 15/14 A3016 RMK AO2 SLP212 T01500144
MQE,2017-11-03 06:56,-71.1142,42.2121,57.90,55.90,93.04,190.00,14.00,0.00,30.13,1021.10,M,M,M,M,M,M,M,M,M,M,M,KMQE 030656Z AUTO 19014KT 14/13 A3013 RMK AO1 SLP211 T01440133
HYA,2017-11-03 06:56,-70.2800,41.6700,60.10,59.00,96.15,200.00,4.00,0.00,30.14,1020.70,6.00,M,CLR,M,M,M,M,M,M,M,BR,KHYA 030656Z AUTO 20004KT 6SM BR CLR 16/15 A3014 RMK AO2 SLP207 T01560150
CQX,2017-11-03 07:00,-69.9933,41.6875,M,M,M,0.00,0.00,M,30.16,M,8.00,M,CLR,M,M,M,M,M,M,M,M,KCQX 030700Z AUTO 00000KT 8SM CLR A3016 RMK MADISHF
TAN,2017-11-03 07:00,-71.0211,41.8756,M,M,M,150.00,4.00,M,30.14,M,7.00,M,FEW,M,M,M,11000.00,M,M,M,M,KTAN 030700Z AUTO 15004KT 7SM FEW110 A3014 RMK MADISHF
PYM,2017-11-03 07:00,-70.7288,41.9090,M,M,M,160.00,3.00,M,30.15,M,2.50,M,BKN,M,M,M,200.00,M,M,M,BR,KPYM 030700Z AUTO 16003KT 2 1/2SM BR BKN002 A3015 RMK MADISHF
OWD,2017-11-03 07:00,-71.1733,42.1912,M,M,M,170.00,5.00,M,30.13,M,10.00,M,CLR,M,M,M,M,M,M,M,M,KOWD 030700Z AUTO 17005KT 10SM CLR A3013 RMK MADISHF
BOS,2017-11-03 07:00,-71.0097,42.3606,M,M,M,160.00,8.00,M,30.13,M,10.00,M,FEW,FEW,BKN,M,600.00,5500.00,12000.00,M,M,KBOS 030700Z AUTO 16008KT 10SM FEW006 FEW055 BKN120 A3013 RMK MADISHF
BED,2017-11-03 07:00,-71.2890,42.4699,M,M,M,180.00,7.00,M,30.11,M,10.00,M,SCT,BKN,M,M,5000.00,12000.00,M,M,M,KBED 030700Z AUTO 18007KT 10SM SCT050 BKN120 A3011 RMK MADISHF
ORE,2017-11-03 07:00,-72.2886,42.5701,M,M,M,200.00,3.00,M,30.10,M,10.00,M,SCT,BKN,M,M,1600.00,9500.00,M,M,M,KORE 030700Z AUTO 20003KT 10SM SCT016 BKN095 A3010 RMK VRB03KT  MADISHF
ORH,2017-11-03 07:00,-71.8757,42.2673,M,M,M,M,M,M,30.13,M,10.00,M,SCT,M,M,M,900.00,M,M,M,M,KORH 030700Z AUTO /////KT 10SM SCT009 A3013 RMK MADISHF
FIT,2017-11-03 07:00,-71.7558,42.5519,M,M,M,160.00,6.00,M,30.11,M,10.00,M,FEW,M,M,M,1900.00,M,M,M,M,KFIT 030700Z AUTO 16006KT 10SM FEW019 A3011 RMK MADISHF
HYA,2017-11-03 07:00,-70.2800,41.6700,M,M,M,190.00,4.00,M,30.14,M,6.00,M,CLR,M,M,M,M,M,M,M,BR,KHYA 030700Z AUTO 19004KT 6SM BR CLR A3014 RMK MADISHF
EWB,2017-11-03 07:00,-70.9583,41.6764,M,M,M,0.00,0.00,M,30.14,M,0.50,M,BKN,BKN,M,M,200.00,12000.00,M,M,FG,KEWB 030700Z AUTO 00000KT 1/2SM FG BKN002 BKN120 A3014 RMK MADISHF
PVC,2017-11-03 07:00,-70.2200,42.0700,M,M,M,170.00,7.00,M,30.16,M,2.50,M,BKN,BKN,M,M,100.00,12000.00,M,M,BR,KPVC 030700Z AUTO 17007KT 2 1/2SM BR BKN001 BKN120 A3016 RMK MADISHF
PYM,2017-11-03 07:02,-70.7288,41.9090,59.00,57.90,96.13,170.00,3.00,0.00,30.15,M,1.75,M,BKN,M,M,M,200.00,M,M,M,BR,KPYM 030702Z AUTO 17003KT 1 3/4SM BR BKN002 15/14 A3015 RMK AO2 T01500144
ORH,2017-11-03 07:05,-71.8757,42.2673,M,M,M,M,M,M,30.13,M,10.00,M,SCT,M,M,M,800.00,M,M,M,M,KORH 030705Z AUTO /////KT 10SM SCT008 A3013 RMK MADISHF
EWB,2017-11-03 07:05,-70.9583,41.6764,M,M,M,0.00,0.00,M,30.14,M,0.25,M,BKN,BKN,M,M,200.00,12000.00,M,M,FG,KEWB 030705Z AUTO 00000KT 1/4SM FG BKN002 BKN120 A3014 RMK MADISHF
OWD,2017-11-03 07:05,-71.1733,42.1912,M,M,M,170.00,5.00,M,30.13,M,10.00,M,CLR,M,M,M,M,M,M,M,M,KOWD 030705Z AUTO 17005KT 10SM CLR A3013 RMK MADISHF
CQX,2017-11-03 07:05,-69.9933,41.6875,M,M,M,0.00,0.00,M,30.16,M,7.00,M,CLR,M,M,M,M,M,M,M,M,KCQX 030705Z AUTO 00000KT 7SM CLR A3016 RMK MADISHF
BOS,2017-11-03 07:05,-71.0097,42.3606,M,M,M,160.00,7.00,M,30.13,M,10.00,M,FEW,FEW,BKN,M,600.00,5500.00,12000.00,M,M,KBOS 030705Z AUTO 16007KT 10SM FEW006 FEW055 BKN120 A3013 RMK MADISHF
HYA,2017-11-03 07:05,-70.2800,41.6700,M,M,M,180.00,3.00,M,30.14,M,6.00,M,CLR,M,M,M,M,M,M,M,BR,KHYA 030705Z AUTO 18003KT 6SM BR CLR A3014 RMK MADISHF
FIT,2017-11-03 07:05,-71.7558,42.5519,M,M,M,150.00,5.00,M,30.11,M,10.00,M,SCT,M,M,M,1900.00,M,M,M,M,KFIT 030705Z AUTO 15005KT 10SM SCT019 A3011 RMK MADISHF
PYM,2017-11-03 07:05,-70.7288,41.9090,M,M,M,160.00,3.00,M,30.15,M,1.00,M,VV ,M,M,M,200.00,M,M,M,BR,KPYM 030705Z AUTO 16003KT 1SM BR VV002 A3015 RMK MADISHF
PVC,2017-11-03 07:05,-70.2200,42.0700,M,M,M,190.00,6.00,M,30.15,M,4.00,M,BKN,BKN,M,M,100.00,12000.00,M,M,BR,KPVC 030705Z AUTO 19006KT 4SM BR BKN001 BKN120 A3015 RMK MADISHF
ORE,2017-11-03 07:05,-72.2886,42.5701,61.00,59.00,93.12,M,4.00,0.00,30.10,M,10.00,M,SCT,BKN,M,M,1600.00,9500.00,M,M,M,KORE 030705Z AUTO VRB04KT 10SM SCT016 BKN095 16/15 A3010 RMK AO2 T01610150 TSNO
TAN,2017-11-03 07:05,-71.0211,41.8756,M,M,M,180.00,3.00,M,30.14,M,10.00,M,CLR,M,M,M,M,M,M,M,M,KTAN 030705Z AUTO 18003KT 10SM CLR A3014 RMK MADISHF
BED,2017-11-03 07:05,-71.2890,42.4699,M,M,M,180.00,7.00,M,30.11,M,10.00,M,BKN,BKN,M,M,5000.00,12000.00,M,M,M,KBED 030705Z AUTO 18007KT 10SM BKN050 BKN120 A3011 RMK MADISHF
EWB,2017-11-03 07:06,-70.9583,41.6764,52.00,50.00,92.86,220.00,3.00,0.00,30.14,M,0.25,M,BKN,BKN,M,M,200.00,12000.00,M,M,FG,KEWB 030706Z AUTO 22003KT 1/4SM R05/1400V2200FT FG BKN002 BKN120 11/10 A3014 RMK AO2 T01110100
PVC,2017-11-03 07:08,-70.2200,42.0700,59.00,57.20,93.74,190.00,7.00,0.00,30.15,M,5.00,M,SCT,BKN,M,M,100.00,12000.00,M,M,BR,KPVC 030708Z AUTO 19007KT 5SM BR SCT001 BKN120 15/14 A3015 RMK AO2
PVC,2017-11-03 07:10,-70.2200,42.0700,M,M,M,180.00,7.00,M,30.15,M,6.00,M,SCT,BKN,M,M,100.00,12000.00,M,M,BR,KPVC 030710Z AUTO 18007KT 6SM BR SCT001 BKN120 A3015 RMK MADISHF
CQX,2017-11-03 07:10,-69.9933,41.6875,M,M,M,0.00,0.00,M,30.16,M,6.00,M,CLR,M,M,M,M,M,M,M,BR,KCQX 030710Z AUTO 00000KT 6SM BR CLR A3016 RMK MADISHF
ORH,2017-11-03 07:10,-71.8757,42.2673,M,M,M,210.00,12.00,M,30.12,M,10.00,17.00,SCT,M,M,M,800.00,M,M,M,M,KORH 030710Z AUTO 21012G17KT 10SM SCT008 A3012 RMK MADISHF
BOS,2017-11-03 07:10,-71.0097,42.3606,M,M,M,160.00,6.00,M,30.13,M,10.00,M,FEW,FEW,BKN,M,600.00,5500.00,12000.00,M,M,KBOS 030710Z AUTO 16006KT 10SM FEW006 FEW055 BKN120 A3013 RMK MADISHF
HYA,2017-11-03 07:10,-70.2800,41.6700,M,M,M,170.00,3.00,M,30.14,M,5.00,M,CLR,M,M,M,M,M,M,M,BR,KHYA 030710Z AUTO 17003KT 5SM BR CLR A3014 RMK MADISHF
BED,2017-11-03 07:10,-71.2890,42.4699,M,M,M,180.00,8.00,M,30.11,M,10.00,M,BKN,M,M,M,5000.00,M,M,M,M,KBED 030710Z AUTO 18008KT 10SM BKN050 A3011 RMK MADISHF
TAN,2017-11-03 07:10,-71.0211,41.8756,M,M,M,170.00,3.00,M,30.14,M,10.00,M,CLR,M,M,M,M,M,M,M,M,KTAN 030710Z AUTO 17003KT 10SM CLR A3014 RMK MADISHF
OWD,2017-11-03 07:10,-71.1733,42.1912,M,M,M,170.00,5.00,M,30.13,M,10.00,M,CLR,M,M,M,M,M,M,M,M,KOWD 030710Z AUTO 17005KT 10SM CLR A3013 RMK MADISHF
ORE,2017-11-03 07:10,-72.2886,42.5701,M,M,M,190.00,5.00,M,30.10,M,10.00,M,SCT,SCT,M,M,1600.00,9500.00,M,M,M,KORE 030710Z AUTO 19005KT 10SM SCT016 SCT095 A3010 RMK MADISHF
EWB,2017-11-03 07:10,-70.9583,41.6764,M,M,M,220.00,4.00,M,30.14,M,0.50,M,BKN,BKN,M,M,200.00,12000.00,M,M,FG,KEWB 030710Z AUTO 22004KT 1/2SM FG BKN002 BKN120 A3014 RMK MADISHF
PYM,2017-11-03 07:13,-70.7288,41.9090,59.00,57.90,96.13,210.00,3.00,0.00,30.14,M,0.50,M,VV ,M,M,M,200.00,M,M,M,FG,KPYM 030713Z AUTO 21003KT 1/2SM FG VV002 15/14 A3014 RMK AO2 T01500144
PVC,2017-11-03 07:15,-70.2200,42.0700,M,M,M,180.00,7.00,M,30.15,M,10.00,M,SCT,M,M,M,100.00,M,M,M,M,KPVC 030715Z AUTO 18007KT 10SM SCT001 A3015 RMK MADISHF
TAN,2017-11-03 07:15,-71.0211,41.8756,M,M,M,150.00,4.00,M,30.13,M,9.00,M,CLR,M,M,M,M,M,M,M,M,KTAN 030715Z AUTO 15004KT 9SM CLR A3013 RMK MADISHF
HYA,2017-11-03 07:15,-70.2800,41.6700,M,M,M,160.00,3.00,M,30.14,M,5.00,M,CLR,M,M,M,M,M,M,M,BR,KHYA 030715Z AUTO 16003KT 5SM BR CLR A3014 RMK MADISHF
ORH,2017-11-03 07:15,-71.8757,42.2673,M,M,M,210.00,12.00,M,30.12,M,10.00,M,SCT,M,M,M,800.00,M,M,M,M,KORH 030715Z AUTO 21012KT 10SM SCT008 A3012 RMK MADISHF
FIT,2017-11-03 07:15,-71.7558,42.5519,M,M,M,150.00,5.00,M,30.10,M,10.00,M,SCT,M,M,M,1900.00,M,M,M,M,KFIT 030715Z AUTO 15005KT 10SM SCT019 A3010 RMK MADISHF
BED,2017-11-03 07:15,-71.2890,42.4699,M,M,M,180.00,8.00,M,30.11,M,10.00,M,SCT,BKN,M,M,5000.00,12000.00,M,M,M,KBED 030715Z AUTO 18008KT 10SM SCT050 BKN120 A3011 RMK MADISHF
OWD,2017-11-03 07:15,-71.1733,42.1912,M,M,M,170.00,5.00,M,30.13,M,10.00,M,CLR,M,M,M,M,M,M,M,M,KOWD 030715Z AUTO 17005KT 10SM CLR A3013 RMK MADISHF
BOS,2017-11-03 07:15,-71.0097,42.3606,M,M,M,160.00,5.00,M,30.13,M,10.00,M,FEW,FEW,BKN,M,600.00,5500.00,12000.00,M,M,KBOS 030715Z AUTO 16005KT 10SM FEW006 FEW055 BKN120 A3013 RMK MADISHF
PYM,2017-11-03 07:15,-70.7288,41.9090,M,M,M,200.00,4.00,M,30.14,M,0.50,M,VV ,M,M,M,200.00,M,M,M,FG,KPYM 030715Z AUTO 20004KT 1/2SM FG VV002 A3014 RMK MADISHF
CQX,2017-11-03 07:15,-69.9933,41.6875,M,M,M,270.00,3.00,M,30.16,M,6.00,M,CLR,M,M,M,M,M,M,M,BR,KCQX 030715Z AUTO 27003KT 6SM BR CLR A3016 RMK MADISHF
ORE,2017-11-03 07:15,-72.2886,42.5701,M,M,M,170.00,4.00,M,30.10,M,10.00,M,FEW,BKN,M,M,1699.00,9000.00,M,M,M,KORE 030715Z AUTO 17004KT 10SM FEW016 BKN090 A3010 RMK MADISHF
GHG,2017-11-03 07:15,-70.6721,42.0982,55.40,55.40,100.00,0.00,0.00,0.00,30.13,M,1.50,M,CLR,M,M,M,M,M,M,M,BR,KGHG 030715Z AUTO 00000KT 1 1/2SM BR CLR 13/13 A3013 RMK AO2 VIS 1V3
FMH,2017-11-03 07:15,-70.5215,41.6585,53.60,53.60,100.00,0.00,0.00,0.00,30.15,M,0.25,M,OVC,M,M,M,100.00,M,M,M,FG,KFMH 030715Z AUTO 00000KT M1/4SM FG OVC001 12/12 A3015 RMK AO2 VIS M1/4V5
EWB,2017-11-03 07:15,-70.9583,41.6764,55.00,54.00,96.42,220.00,4.00,0.00,30.13,M,0.50,M,BKN,BKN,M,M,200.00,12000.00,M,M,FG,KEWB 030715Z AUTO 22004KT 1/2SM R05/1200V1600FT FG BKN002 BKN120 13/12 A3013 RMK AO2 T01280122
PVC,2017-11-03 07:20,-70.2200,42.0700,M,M,M,160.00,7.00,M,30.14,M,10.00,M,FEW,M,M,M,100.00,M,M,M,M,KPVC 030720Z AUTO 16007KT 10SM FEW001 A3014 RMK MADISHF
TAN,2017-11-03 07:20,-71.0211,41.8756,M,M,M,160.00,3.00,M,30.13,M,9.00,M,CLR,M,M,M,M,M,M,M,M,KTAN 030720Z AUTO 16003KT 9SM CLR A3013 RMK MADISHF
ORH,2017-11-03 07:20,-71.8757,42.2673,M,M,M,210.00,12.00,M,30.12,M,10.00,M,FEW,M,M,M,900.00,M,M,M,M,KORH 030720Z AUTO 21012KT 10SM FEW009 A3012 RMK MADISHF
BOS,2017-11-03 07:20,-71.0097,42.3606,M,M,M,160.00,5.00,M,30.13,M,10.00,M,FEW,FEW,BKN,M,600.00,5500.00,12000.00,M,M,KBOS 030720Z AUTO 16005KT 10SM FEW006 FEW055 BKN120 A3013 RMK MADISHF
BED,2017-11-03 07:20,-71.2890,42.4699,M,M,M,180.00,7.00,M,30.10,M,10.00,M,SCT,BKN,M,M,5000.00,12000.00,M,M,M,KBED 030720Z AUTO 18007KT 10SM SCT050 BKN120 A3010 RMK MADISHF
CQX,2017-11-03 07:20,-69.9933,41.6875,M,M,M,270.00,3.00,M,30.16,M,8.00,M,CLR,M,M,M,M,M,M,M,M,KCQX 030720Z AUTO 27003KT 8SM CLR A3016 RMK MADISHF
ORE,2017-11-03 07:20,-72.2886,42.5701,M,M,M,180.00,5.00,M,30.10,M,10.00,M,FEW,SCT,M,M,1699.00,9000.00,M,M,M,KORE 030720Z AUTO 18005KT 10SM FEW016 SCT090 A3010 RMK MADISHF
PYM,2017-11-03 07:20,-70.7288,41.9090,M,M,M,200.00,3.00,M,30.14,M,0.75,M,VV ,M,M,M,200.00,M,M,M,BR,KPYM 030720Z AUTO 20003KT 1SM BR VV002 A3014 RMK MADISHF
FIT,2017-11-03 07:20,-71.7558,42.5519,M,M,M,150.00,5.00,M,30.10,M,10.00,M,SCT,M,M,M,1900.00,M,M,M,M,KFIT 030720Z AUTO 15005KT 10SM SCT019 A3010 RMK MADISHF
OWD,2017-11-03 07:20,-71.1733,42.1912,M,M,M,180.00,4.00,M,30.13,M,10.00,M,CLR,M,M,M,M,M,M,M,M,KOWD 030720Z AUTO 18004KT 10SM CLR A3013 RMK MADISHF
EWB,2017-11-03 07:20,-70.9583,41.6764,M,M,M,220.00,3.00,M,30.13,M,0.50,M,SCT,BKN,M,M,200.00,12000.00,M,M,FG,KEWB 030720Z AUTO 22003KT 1/2SM FG SCT002 BKN120 A3013 RMK MADISHF
HYA,2017-11-03 07:20,-70.2800,41.6700,M,M,M,180.00,4.00,M,30.13,M,5.00,M,CLR,M,M,M,M,M,M,M,BR,KHYA 030720Z AUTO 18004KT 5SM BR CLR A3013 RMK MADISHF
PVC,2017-11-03 07:25,-70.2200,42.0700,M,M,M,180.00,6.00,M,30.14,M,10.00,M,FEW,M,M,M,100.00,M,M,M,M,KPVC 030725Z AUTO 18006KT 10SM FEW001 A3014 RMK MADISHF
ORE,2017-11-03 07:25,-72.2886,42.5701,M,M,M,180.00,4.00,M,30.09,M,10.00,M,FEW,SCT,M,M,1699.00,9000.00,M,M,M,KORE 030725Z AUTO 18004KT 10SM FEW016 SCT090 A3009 RMK VRB04KT  MADISHF
ORH,2017-11-03 07:25,-71.8757,42.2673,M,M,M,M,M,M,30.11,M,10.00,M,FEW,M,M,M,900.00,M,M,M,M,KORH 030725Z AUTO /////KT 10SM FEW009 A3011 RMK MADISHF
EWB,2017-11-03 07:25,-70.9583,41.6764,M,M,M,220.00,3.00,M,30.13,M,0.25,M,VV ,M,M,M,200.00,M,M,M,FG,KEWB 030725Z AUTO 22003KT 1/4SM FG VV002 A3013 RMK MADISHF
TAN,2017-11-03 07:25,-71.0211,41.8756,M,M,M,140.00,3.00,M,30.13,M,10.00,M,CLR,M,M,M,M,M,M,M,M,KTAN 030725Z AUTO 14003KT 10SM CLR A3013 RMK MADISHF
PYM,2017-11-03 07:25,-70.7288,41.9090,M,M,M,170.00,3.00,M,30.14,M,1.00,M,VV ,M,M,M,200.00,M,M,M,BR,KPYM 030725Z AUTO 17003KT 1SM BR VV002 A3014 RMK MADISHF
FIT,2017-11-03 07:25,-71.7558,42.5519,M,M,M,160.00,5.00,M,30.10,M,10.00,M,BKN,M,M,M,1999.00,M,M,M,M,KFIT 030725Z AUTO 16005KT 10SM BKN019 A3010 RMK MADISHF
HYA,2017-11-03 07:25,-70.2800,41.6700,M,M,M,180.00,3.00,M,30.13,M,5.00,M,CLR,M,M,M,M,M,M,M,BR,KHYA 030725Z AUTO 18003KT 5SM BR CLR A3013 RMK MADISHF
BED,2017-11-03 07:25,-71.2890,42.4699,M,M,M,180.00,8.00,M,30.10,M,10.00,M,SCT,M,M,M,5000.00,M,M,M,M,KBED 030725Z AUTO 18008KT 10SM SCT050 A3010 RMK MADISHF
BOS,2017-11-03 07:25,-71.0097,42.3606,M,M,M,170.00,4.00,M,30.13,M,10.00,M,FEW,FEW,BKN,M,600.00,5500.00,12000.00,M,M,KBOS 030725Z AUTO 17004KT 10SM FEW006 FEW055 BKN120 A3013 RMK MADISHF
OWD,2017-11-03 07:25,-71.1733,42.1912,M,M,M,180.00,3.00,M,30.12,M,10.00,M,CLR,M,M,M,M,M,M,M,M,KOWD 030725Z AUTO 18003KT 10SM CLR A3012 RMK MADISHF
CQX,2017-11-03 07:25,-69.9933,41.6875,M,M,M,260.00,3.00,M,30.16,M,10.00,M,CLR,M,M,M,M,M,M,M,M,KCQX 030725Z AUTO 26003KT 10SM CLR A3016 RMK MADISHF
FIT,2017-11-03 07:27,-71.7558,42.5519,64.00,61.00,89.97,150.00,5.00,0.00,30.10,M,10.00,M,BKN,M,M,M,2000.00,M,M,M,M,KFIT 030727Z AUTO 15005KT 10SM BKN020 18/16 A3010 RMK AO2 T01780161
EWB,2017-11-03 07:30,-70.9583,41.6764,M,M,M,220.00,3.00,M,30.13,M,0.50,M,VV ,M,M,M,200.00,M,M,M,FG,KEWB 030730Z AUTO 22003KT 1/2SM FG VV002 A3013 RMK MADISHF
BED,2017-11-03 07:30,-71.2890,42.4699,M,M,M,180.00,9.00,M,30.09,M,10.00,M,FEW,M,M,M,5000.00,M,M,M,M,KBED 030730Z AUTO 18009KT 10SM FEW050 A3009 RMK MADISHF
HYA,2017-11-03 07:30,-70.2800,41.6700,M,M,M,180.00,3.00,M,30.13,M,5.00,M,CLR,M,M,M,M,M,M,M,BR,KHYA 030730Z AUTO 18003KT 5SM BR CLR A3013 RMK MADISHF
BOS,2017-11-03 07:30,-71.0097,42.3606,M,M,M,180.00,3.00,M,30.13,M,10.00,M,FEW,FEW,BKN,M,600.00,5500.00,12000.00,M,M,KBOS 030730Z AUTO 18003KT 10SM FEW006 FEW055 BKN120 A3013 RMK MADISHF
OWD,2017-11-03 07:30,-71.1733,42.1912,M,M,M,180.00,3.00,M,30.12,M,10.00,M,CLR,M,M,M,M,M,M,M,M,KOWD 030730Z AUTO 18003KT 10SM CLR A3012 RMK MADISHF
ORE,2017-11-03 07:30,-72.2886,42.5701,M,M,M,190.00,4.00,M,30.09,M,10.00,M,FEW,SCT,M,M,1699.00,9000.00,M,M,M,KORE 030730Z AUTO 19004KT 10SM FEW016 SCT090 A3009 RMK MADISHF
PVC,2017-11-03 07:30,-70.2200,42.0700,M,M,M,190.00,7.00,M,30.14,M,10.00,M,FEW,M,M,M,12000.00,M,M,M,M,KPVC 030730Z AUTO 19007KT 10SM FEW120 A3014 RMK MADISHF
CQX,2017-11-03 07:30,-69.9933,41.6875,M,M,M,250.00,3.00,M,30.15,M,9.00,M,CLR,M,M,M,M,M,M,M,M,KCQX 030730Z AUTO 25003KT 9SM CLR A3015 RMK MADISHF
ORH,2017-11-03 07:30,-71.8757,42.2673,M,M,M,M,M,M,30.11,M,10.00,M,FEW,M,M,M,900.00,M,M,M,M,KORH 030730Z AUTO /////KT 10SM FEW009 A3011 RMK MADISHF
TAN,2017-11-03 07:30,-71.0211,41.8756,M,M,M,160.00,3.00,M,30.13,M,10.00,M,CLR,M,M,M,M,M,M,M,M,KTAN 030730Z AUTO 16003KT 10SM CLR A3013 RMK MADISHF
PYM,2017-11-03 07:30,-70.7288,41.9090,59.00,57.90,96.13,0.00,0.00,0.00,30.14,M,1.00,M,VV ,M,M,M,200.00,M,M,M,BR,KPYM 030730Z AUTO 00000KT 1SM BR VV002 15/14 A3014 RMK AO2 T01500144
PVC,2017-11-03 07:35,-70.2200,42.0700,M,M,M,190.00,7.00,M,30.14,M,10.00,M,SCT,M,M,M,12000.00,M,M,M,M,KPVC 030735Z AUTO 19007KT 10SM SCT120 A3014 RMK MADISHF
CQX,2017-11-03 07:35,-69.9933,41.6875,M,M,M,230.00,3.00,M,30.15,M,8.00,M,CLR,M,M,M,M,M,M,M,M,KCQX 030735Z AUTO 23003KT 8SM CLR A3015 RMK MADISHF
BED,2017-11-03 07:35,-71.2890,42.4699,M,M,M,180.00,9.00,M,30.09,M,10.00,M,FEW,SCT,M,M,5000.00,12000.00,M,M,M,KBED 030735Z AUTO 18009KT 10SM FEW050 SCT120 A3009 RMK MADISHF
BOS,2017-11-03 07:35,-71.0097,42.3606,M,M,M,170.00,3.00,M,30.12,M,10.00,M,FEW,FEW,BKN,M,600.00,5500.00,12000.00,M,M,KBOS 030735Z AUTO 17003KT 10SM FEW006 FEW055 BKN120 A3012 RMK MADISHF
ORH,2017-11-03 07:35,-71.8757,42.2673,M,M,M,M,M,M,30.11,M,10.00,M,FEW,M,M,M,900.00,M,M,M,M,KORH 030735Z AUTO /////KT 10SM FEW009 A3011 RMK MADISHF
PYM,2017-11-03 07:35,-70.7288,41.9090,M,M,M,160.00,3.00,M,30.14,M,1.00,M,VV ,M,M,M,200.00,M,M,M,BR,KPYM 030735Z AUTO 16003KT 1SM BR VV002 A3014 RMK MADISHF
FIT,2017-11-03 07:35,-71.7558,42.5519,M,M,M,170.00,5.00,M,30.10,M,10.00,M,BKN,M,M,M,1999.00,M,M,M,M,KFIT 030735Z AUTO 17005KT 10SM BKN019 A3010 RMK MADISHF
TAN,2017-11-03 07:35,-71.0211,41.8756,M,M,M,170.00,3.00,M,30.13,M,10.00,M,CLR,M,M,M,M,M,M,M,M,KTAN 030735Z AUTO 17003KT 10SM CLR A3013 RMK MADISHF
OWD,2017-11-03 07:35,-71.1733,42.1912,M,M,M,180.00,3.00,M,30.12,M,10.00,M,FEW,M,M,M,6000.00,M,M,M,M,KOWD 030735Z AUTO 18003KT 10SM FEW060 A3012 RMK MADISHF
EWB,2017-11-03 07:35,-70.9583,41.6764,M,M,M,220.00,4.00,M,30.13,M,0.50,M,VV ,M,M,M,200.00,M,M,M,FG,KEWB 030735Z AUTO 22004KT 1/2SM FG VV002 A3013 RMK MADISHF
ORE,2017-11-03 07:35,-72.2886,42.5701,M,M,M,190.00,8.00,M,30.09,M,10.00,M,FEW,FEW,M,M,1900.00,9000.00,M,M,M,KORE 030735Z AUTO 19008KT 10SM FEW019 FEW090 A3009 RMK MADISHF
HYA,2017-11-03 07:35,-70.2800,41.6700,M,M,M,170.00,3.00,M,30.13,M,5.00,M,CLR,M,M,M,M,M,M,M,BR,KHYA 030735Z AUTO 17003KT 5SM BR CLR A3013 RMK MADISHF
GHG,2017-11-03 07:35,-70.6721,42.0982,57.20,57.20,100.00,200.00,4.00,0.00,30.12,M,10.00,M,CLR,M,M,M,M,M,M,M,M,KGHG 030735Z AUTO 20004KT 10SM CLR 14/14 A3012 RMK AO2
FMH,2017-11-03 07:35,-70.5215,41.6585,53.60,53.60,100.00,300.00,5.00,0.00,30.15,M,0.25,M,OVC,M,M,M,100.00,M,M,M,FG,KFMH 030735Z AUTO 30005KT M1/4SM FG OVC001 12/12 A3015 RMK AO2
EWB,2017-11-03 07:39,-70.9583,41.6764,53.10,52.00,96.03,210.00,4.00,0.00,30.13,M,0.50,M,CLR,M,M,M,M,M,M,M,FG,KEWB 030739Z AUTO 21004KT 1/2SM R05/1400V2800FT FG CLR 12/11 A3013 RMK AO2 T01170111
PVC,2017-11-03 07:40,-70.2200,42.0700,M,M,M,190.00,8.00,M,30.14,M,10.00,M,SCT,M,M,M,12000.00,M,M,M,M,KPVC 030740Z AUTO 19008KT 10SM SCT120 A3014 RMK MADISHF
FIT,2017-11-03 07:40,-71.7558,42.5519,M,M,M,170.00,5.00,M,30.10,M,10.00,M,BKN,M,M,M,1999.00,M,M,M,M,KFIT 030740Z AUTO 17005KT 10SM BKN019 A3010 RMK MADISHF
ORE,2017-11-03 07:40,-72.2886,42.5701,M,M,M,180.00,6.00,M,30.08,M,10.00,M,FEW,M,M,M,9000.00,M,M,M,M,KORE 030740Z AUTO 18006KT 10SM FEW090 A3008 RMK MADISHF
ORH,2017-11-03 07:40,-71.8757,42.2673,M,M,M,M,M,M,30.11,M,10.00,M,FEW,M,M,M,999.00,M,M,M,M,KORH 030740Z AUTO /////KT 10SM FEW009 A3011 RMK MADISHF
EWB,2017-11-03 07:40,-70.9583,41.6764,M,M,M,210.00,3.00,M,30.13,M,0.50,M,CLR,M,M,M,M,M,M,M,FG,KEWB 030740Z AUTO 21003KT 1/2SM FG CLR A3013 RMK MADISHF
BED,2017-11-03 07:40,-71.2890,42.4699,M,M,M,180.00,8.00,M,30.09,M,10.00,M,SCT,M,M,M,12000.00,M,M,M,M,KBED 030740Z AUTO 18008KT 10SM SCT120 A3009 RMK MADISHF
TAN,2017-11-03 07:40,-71.0211,41.8756,M,M,M,190.00,3.00,M,30.12,M,10.00,M,CLR,M,M,M,M,M,M,M,M,KTAN 030740Z AUTO 19003KT 10SM CLR A3012 RMK MADISHF
PYM,2017-11-03 07:40,-70.7288,41.9090,M,M,M,0.00,0.00,M,30.13,M,1.50,M,BKN,M,M,M,200.00,M,M,M,BR,KPYM 030740Z AUTO 00000KT 1 1/2SM BR BKN002 A3013 RMK MADISHF
OWD,2017-11-03 07:40,-71.1733,42.1912,M,M,M,160.00,3.00,M,30.12,M,10.00,M,SCT,M,M,M,6000.00,M,M,M,M,KOWD 030740Z AUTO 16003KT 10SM SCT060 A3012 RMK MADISHF
BOS,2017-11-03 07:40,-71.0097,42.3606,M,M,M,170.00,4.00,M,30.12,M,9.00,M,FEW,FEW,BKN,M,600.00,5500.00,12000.00,M,M,KBOS 030740Z AUTO 17004KT 9SM FEW006 FEW055 BKN120 A3012 RMK MADISHF
HYA,2017-11-03 07:40,-70.2800,41.6700,M,M,M,0.00,0.00,M,30.13,M,4.00,M,CLR,M,M,M,M,M,M,M,BR,KHYA 030740Z AUTO 00000KT 4SM BR CLR A3013 RMK MADISHF
CQX,2017-11-03 07:40,-69.9933,41.6875,M,M,M,0.00,0.00,M,30.15,M,7.00,M,CLR,M,M,M,M,M,M,M,M,KCQX 030740Z AUTO 00000KT 7SM CLR A3015 RMK MADISHF
HYA,2017-11-03 07:42,-70.2800,41.6700,59.00,59.00,100.00,0.00,0.00,0.00,30.13,M,1.50,M,FEW,M,M,M,300.00,M,M,M,BR,KHYA 030742Z AUTO 00000KT 1 1/2SM BR FEW003 15/15 A3013 RMK AO2 T01500150
PYM,2017-11-03 07:44,-70.7288,41.9090,59.00,57.00,93.07,170.00,3.00,0.00,30.13,M,3.00,M,BKN,M,M,M,200.00,M,M,M,BR,KPYM 030744Z AUTO 17003KT 3SM BR BKN002 15/14 A3013 RMK AO2 T01500139
PYM,2017-11-03 07:45,-70.7288,41.9090,M,M,M,170.00,3.00,M,30.13,M,4.00,M,BKN,M,M,M,200.00,M,M,M,BR,KPYM 030745Z AUTO 17003KT 4SM BR BKN002 A3013 RMK MADISHF
HYA,2017-11-03 07:45,-70.2800,41.6700,M,M,M,0.00,0.00,M,30.13,M,0.75,M,VV ,M,M,M,300.00,M,M,M,BR,KHYA 030745Z AUTO 00000KT 1SM BR VV003 A3013 RMK MADISHF
CQX,2017-11-03 07:45,-69.9933,41.6875,M,M,M,200.00,3.00,M,30.15,M,6.00,M,CLR,M,M,M,M,M,M,M,BR,KCQX 030745Z AUTO 20003KT 6SM BR CLR A3015 RMK MADISHF
FIT,2017-11-03 07:45,-71.7558,42.5519,M,M,M,180.00,5.00,M,30.09,M,10.00,M,BKN,M,M,M,1999.00,M,M,M,M,KFIT 030745Z AUTO 18005KT 10SM BKN019 A3009 RMK MADISHF
ORE,2017-11-03 07:45,-72.2886,42.5701,M,M,M,190.00,7.00,M,30.08,M,10.00,M,CLR,M,M,M,M,M,M,M,M,KORE 030745Z AUTO 19007KT 10SM CLR A3008 RMK MADISHF
PVC,2017-11-03 07:45,-70.2200,42.0700,M,M,M,190.00,8.00,M,30.14,M,10.00,M,BKN,M,M,M,12000.00,M,M,M,M,KPVC 030745Z AUTO 19008KT 10SM BKN120 A3014 RMK MADISHF
BED,2017-11-03 07:45,-71.2890,42.4699,M,M,M,180.00,8.00,M,30.09,M,10.00,M,SCT,M,M,M,12000.00,M,M,M,M,KBED 030745Z AUTO 18008KT 10SM SCT120 A3009 RMK MADISHF
BOS,2017-11-03 07:45,-71.0097,42.3606,M,M,M,160.00,5.00,M,30.12,M,9.00,M,FEW,FEW,M,M,600.00,12000.00,M,M,M,KBOS 030745Z AUTO 16005KT 9SM FEW006 FEW120 A3012 RMK MADISHF
ORH,2017-11-03 07:45,-71.8757,42.2673,M,M,M,M,M,M,30.10,M,10.00,M,FEW,M,M,M,999.00,M,M,M,M,KORH 030745Z AUTO /////KT 10SM FEW009 A3010 RMK MADISHF
OWD,2017-11-03 07:45,-71.1733,42.1912,M,M,M,150.00,3.00,M,30.12,M,10.00,M,SCT,M,M,M,6000.00,M,M,M,M,KOWD 030745Z AUTO 15003KT 10SM SCT060 A3012 RMK MADISHF
EWB,2017-11-03 07:45,-70.9583,41.6764,52.00,51.10,96.73,180.00,3.00,0.00,30.13,M,0.25,M,VV ,M,M,M,200.00,M,M,M,FG,KEWB 030745Z AUTO 18003KT 1/4SM R05/2000VP6000FT FG VV002 11/11 A3013 RMK AO2 T01110106
HYA,2017-11-03 07:48,-70.2800,41.6700,55.90,55.90,100.00,0.00,0.00,0.00,30.13,M,0.25,M,VV ,M,M,M,300.00,M,M,M,FG,KHYA 030748Z AUTO 00000KT 1/4SM FG VV003 13/13 A3013 RMK AO2 T01330133
EWB,2017-11-03 07:49,-70.9583,41.6764,51.80,51.80,100.00,0.00,0.00,0.00,30.12,M,0.50,M,VV ,M,M,M,100.00,M,M,M,FG,KEWB 030749Z AUTO 00000KT 1/2SM R05/2200VP6000FT FG VV001 11/11 A3012 RMK AO2
EWB,2017-11-03 07:50,-70.9583,41.6764,M,M,M,0.00,0.00,M,30.12,M,0.50,M,VV ,M,M,M,100.00,M,M,M,FG,KEWB 030750Z AUTO 00000KT 1/2SM FG VV001 A3012 RMK MADISHF
TAN,2017-11-03 07:50,-71.0211,41.8756,M,M,M,170.00,3.00,M,30.12,M,7.00,M,CLR,M,M,M,M,M,M,M,M,KTAN 030750Z AUTO 17003KT 7SM CLR A3012 RMK MADISHF
PVC,2017-11-03 07:50,-70.2200,42.0700,M,M,M,190.00,8.00,M,30.13,M,10.00,M,BKN,M,M,M,12000.00,M,M,M,M,KPVC 030750Z AUTO 19008KT 10SM BKN120 A3013 RMK MADISHF
BOS,2017-11-03 07:50,-71.0097,42.3606,M,M,M,160.00,5.00,M,30.11,M,9.00,M,FEW,FEW,M,M,499.00,12000.00,M,M,M,KBOS 030750Z AUTO 16005KT 9SM FEW004 FEW120 A3011 RMK MADISHF
HYA,2017-11-03 07:50,-70.2800,41.6700,M,M,M,0.00,0.00,M,30.13,M,0.25,M,VV ,M,M,M,300.00,M,M,M,FG,KHYA 030750Z AUTO 00000KT 1/4SM FG VV003 A3013 RMK MADISHF
BED,2017-11-03 07:50,-71.2890,42.4699,M,M,M,170.00,10.00,M,30.09,M,10.00,M,FEW,M,M,M,12000.00,M,M,M,M,KBED 030750Z AUTO 17010KT 10SM FEW120 A3009 RMK MADISHF
CQX,2017-11-03 07:50,-69.9933,41.6875,M,M,M,200.00,3.00,M,30.15,M,6.00,M,CLR,M,M,M,M,M,M,M,BR,KCQX 030750Z AUTO 20003KT 6SM BR CLR A3015 RMK MADISHF
OWD,2017-11-03 07:50,-71.1733,42.1912,M,M,M,140.00,3.00,M,30.11,M,10.00,M,SCT,M,M,M,6000.00,M,M,M,M,KOWD 030750Z AUTO 14003KT 10SM SCT060 A3011 RMK MADISHF
ORH,2017-11-03 07:50,-71.8757,42.2673,M,M,M,210.00,13.00,M,30.11,M,10.00,M,FEW,M,M,M,999.00,M,M,M,M,KORH 030750Z AUTO 21013KT 10SM FEW009 A3011 RMK MADISHF
PYM,2017-11-03 07:52,-70.7288,41.9090,59.00,57.00,93.07,170.00,3.00,0.00,30.13,1020.20,4.00,M,SCT,M,M,M,200.00,M,M,M,BR,KPYM 030752Z AUTO 17003KT 4SM BR SCT002 15/14 A3013 RMK AO2 SLP202 T01500139
ORE,2017-11-03 07:52,-72.2886,42.5701,62.10,59.00,89.57,180.00,8.00,0.00,30.08,1018.50,10.00,M,CLR,M,M,M,M,M,M,M,M,KORE 030752Z AUTO 18008KT 10SM CLR 17/15 A3008 RMK AO2 SLP185 T01670150 TSNO
TAN,2017-11-03 07:52,-71.0211,41.8756,53.10,51.10,92.89,170.00,4.00,0.00,30.12,1019.90,9.00,M,CLR,M,M,M,M,M,M,M,M,KTAN 030752Z AUTO 17004KT 9SM CLR 12/11 A3012 RMK AO2 SLP199 T01170106
FIT,2017-11-03 07:52,-71.7558,42.5519,64.90,61.00,87.18,180.00,6.00,0.00,30.09,1018.90,10.00,M,BKN,M,M,M,2000.00,M,M,M,M,KFIT 030752Z AUTO 18006KT 10SM BKN020 18/16 A3009 RMK AO2 SLP189 T01830161
CQX,2017-11-03 07:52,-69.9933,41.6875,55.90,55.90,100.00,0.00,0.00,0.00,30.15,1021.10,6.00,M,CLR,M,M,M,M,M,M,M,BR,KCQX 030752Z AUTO 00000KT 6SM BR CLR 13/13 A3015 RMK AO2 SLP211 T01330133
OWD,2017-11-03 07:53,-71.1733,42.1912,60.10,57.90,92.43,140.00,3.00,0.00,30.11,1019.60,10.00,M,SCT,M,M,M,6000.00,M,M,M,M,KOWD 030753Z AUTO 14003KT 10SM SCT060 16/14 A3011 RMK AO2 SLP196 T01560144
EWB,2017-11-03 07:53,-70.9583,41.6764,54.00,53.10,96.76,220.00,3.00,0.00,30.12,1020.00,0.75,M,VV ,M,M,M,100.00,M,M,M,BR,KEWB 030753Z AUTO 22003KT 3/4SM R05/2600VP6000FT BR VV001 12/12 A3012 RMK AO2 SLP200 T01220117
ORH,2017-11-03 07:54,-71.8757,42.2673,60.10,57.00,89.48,210.00,13.00,0.00,30.11,1019.40,10.00,20.00,FEW,M,M,M,900.00,M,M,M,M,KORH 030754Z AUTO 21013G20KT 10SM FEW009 16/14 A3011 RMK AO2 SLP194 T01560139
BOS,2017-11-03 07:54,-71.0097,42.3606,55.90,55.90,100.00,160.00,5.00,0.00,30.11,1019.60,10.00,M,FEW,FEW,BKN,M,500.00,12000.00,25000.00,M,M,KBOS 030754Z 16005KT 10SM FEW005 FEW120 BKN250 13/13 A3011 RMK AO2 SLP196 T01330133
PYM,2017-11-03 07:55,-70.7288,41.9090,M,M,M,160.00,3.00,M,30.13,M,2.50,M,SCT,M,M,M,200.00,M,M,M,BR,KPYM 030755Z AUTO 16003KT 2 1/2SM BR SCT002 A3013 RMK MADISHF
ORE,2017-11-03 07:55,-72.2886,42.5701,M,M,M,200.00,8.00,M,30.08,M,10.00,M,CLR,M,M,M,M,M,M,M,M,KORE 030755Z AUTO 20008KT 10SM CLR A3008 RMK MADISHF
FIT,2017-11-03 07:55,-71.7558,42.5519,M,M,M,170.00,4.00,M,30.09,M,10.00,M,BKN,M,M,M,1999.00,M,M,M,M,KFIT 030755Z AUTO 17004KT 10SM BKN019 A3009 RMK MADISHF
CQX,2017-11-03 07:55,-69.9933,41.6875,M,M,M,200.00,3.00,M,30.15,M,7.00,M,CLR,M,M,M,M,M,M,M,M,KCQX 030755Z AUTO 20003KT 7SM CLR A3015 RMK MADISHF
PVC,2017-11-03 07:55,-70.2200,42.0700,M,M,M,180.00,6.00,M,30.13,M,10.00,M,SCT,M,M,M,12000.00,M,M,M,M,KPVC 030755Z AUTO 18006KT 10SM SCT120 A3013 RMK MADISHF
TAN,2017-11-03 07:55,-71.0211,41.8756,M,M,M,180.00,3.00,M,30.12,M,10.00,M,CLR,M,M,M,M,M,M,M,M,KTAN 030755Z AUTO 18003KT 10SM CLR A3012 RMK MADISHF
OWD,2017-11-03 07:55,-71.1733,42.1912,M,M,M,140.00,3.00,M,30.11,M,10.00,M,SCT,M,M,M,6000.00,M,M,M,M,KOWD 030755Z AUTO 14003KT 10SM SCT060 A3011 RMK MADISHF
EWB,2017-11-03 07:55,-70.9583,41.6764,M,M,M,220.00,4.00,M,30.12,M,1.25,M,FEW,M,M,M,100.00,M,M,M,BR,KEWB 030755Z AUTO 22004KT 1 1/2SM BR FEW001 A3012 RMK MADISHF
HYA,2017-11-03 07:55,-70.2800,41.6700,M,M,M,0.00,0.00,M,30.12,M,0.24,M,VV ,M,M,M,300.00,M,M,M,FG,KHYA 030755Z AUTO 00000KT 1/4SM FG VV003 A3012 RMK MADISHF
BED,2017-11-03 07:55,-71.2890,42.4699,M,M,M,170.00,9.00,M,30.09,M,10.00,M,FEW,M,M,M,12000.00,M,M,M,M,KBED 030755Z AUTO 17009KT 10SM FEW120 A3009 RMK MADISHF
ORH,2017-11-03 07:55,-71.8757,42.2673,M,M,M,M,M,M,30.11,M,10.00,M,FEW,M,M,M,900.00,M,M,M,M,KORH 030755Z AUTO /////KT 10SM FEW009 A3011 RMK MADISHF
BOS,2017-11-03 07:55,-71.0097,42.3606,M,M,M,160.00,5.00,M,30.11,M,10.00,M,FEW,FEW,M,M,499.00,12000.00,M,M,M,KBOS 030755Z AUTO 16005KT 10SM FEW004 FEW120 A3011 RMK MADISHF
GHG,2017-11-03 07:55,-70.6721,42.0982,57.20,57.20,100.00,210.00,3.00,0.00,30.12,M,10.00,M,CLR,M,M,M,M,M,M,M,M,KGHG 030755Z AUTO 21003KT 10SM CLR 14/14 A3012 RMK AO2
FMH,2017-11-03 07:55,-70.5215,41.6585,53.60,53.60,100.00,250.00,3.00,0.00,30.14,M,0.25,M,OVC,M,M,M,100.00,M,M,M,FG,KFMH 030755Z AUTO 25003KT M1/4SM FG OVC001 12/12 A3014 RMK AO2
HYA,2017-11-03 07:56,-70.2800,41.6700,55.90,54.00,93.32,0.00,0.00,0.00,30.12,1020.10,0.25,M,VV ,M,M,M,300.00,M,M,M,FG,KHYA 030756Z AUTO 00000KT 1/4SM FG VV003 13/12 A3012 RMK AO2 SLP201 T01330122
BED,2017-11-03 07:56,-71.2890,42.4699,61.00,59.00,93.12,170.00,8.00,0.00,30.09,1019.90,10.00,M,FEW,M,M,M,12000.00,M,M,M,M,KBED 030756Z AUTO 17008KT 10SM FEW120 16/15 A3009 RMK AO2 SLP199 T01610150
MQE,2017-11-03 07:56,-71.1142,42.2121,59.00,55.90,89.44,200.00,14.00,0.00,30.11,1020.50,M,M,M,M,M,M,M,M,M,M,M,KMQE 030756Z AUTO 20014KT 15/13 A3011 RMK AO1 SLP205 T01500133
PVC,2017-11-03 07:56,-70.2200,42.0700,60.10,57.90,92.43,190.00,6.00,0.00,30.13,1020.30,10.00,M,SCT,M,M,M,12000.00,M,M,M,M,KPVC 030756Z AUTO 19006KT 10SM SCT120 16/14 A3013 RMK AO2 SLP203 T01560144
EWB,2017-11-03 07:57,-70.9583,41.6764,55.90,54.00,93.32,220.00,5.00,0.00,30.12,M,3.00,M,FEW,M,M,M,100.00,M,M,M,BR,KEWB 030757Z AUTO 22005KT 3SM R05/2600VP6000FT BR FEW001 13/12 A3012 RMK AO2 T01330122
PYM,2017-11-03 07:58,-70.7288,41.9090,59.00,57.00,93.07,0.00,0.00,0.00,30.13,M,1.75,M,SCT,M,M,M,200.00,M,M,M,BR,KPYM 030758Z AUTO 00000KT 1 3/4SM BR SCT002 15/14 A3013 RMK AO2 T01500139
PVC,2017-11-03 08:00,-70.2200,42.0700,M,M,M,190.00,6.00,M,30.13,M,10.00,M,SCT,M,M,M,12000.00,M,M,M,M,KPVC 030800Z AUTO 19006KT 10SM SCT120 A3013 RMK MADISHF
FIT,2017-11-03 08:00,-71.7558,42.5519,M,M,M,190.00,5.00,M,30.09,M,10.00,M,BKN,M,M,M,1999.00,M,M,M,M,KFIT 030800Z AUTO 19005KT 10SM BKN019 A3009 RMK MADISHF
PYM,2017-11-03 08:00,-70.7288,41.9090,M,M,M,0.00,0.00,M,30.13,M,1.25,M,SCT,M,M,M,200.00,M,M,M,BR,KPYM 030800Z AUTO 00000KT 1 1/2SM BR SCT002 A3013 RMK MADISHF
ORE,2017-11-03 08:00,-72.2886,42.5701,M,M,M,200.00,8.00,M,30.08,M,10.00,M,CLR,M,M,M,M,M,M,M,M,KORE 030800Z AUTO 20008KT 10SM CLR A3008 RMK MADISHF
BED,2017-11-03 08:00,-71.2890,42.4699,M,M,M,170.00,7.00,M,30.09,M,10.00,M,FEW,M,M,M,12000.00,M,M,M,M,KBED 030800Z AUTO 17007KT 10SM FEW120 A3009 RMK MADISHF
BOS,2017-11-03 08:00,-71.0097,42.3606,M,M,M,160.00,5.00,M,30.11,M,10.00,M,FEW,FEW,M,M,499.00,12000.00,M,M,M,KBOS 030800Z AUTO 16005KT 10SM FEW004 FEW120 A3011 RMK MADISHF
OWD,2017-11-03 08:00,-71.1733,42.1912,M,M,M,0.00,0.00,M,30.11,M,10.00,M,SCT,M,M,M,6000.00,M,M,M,M,KOWD 030800Z AUTO 00000KT 10SM SCT060 A3011 RMK MADISHF
EWB,2017-11-03 08:00,-70.9583,41.6764,M,M,M,220.00,5.00,M,30.12,M,4.00,M,FEW,M,M,M,100.00,M,M,M,BR,KEWB 030800Z AUTO 22005KT 4SM BR FEW001 A3012 RMK MADISHF
TAN,2017-11-03 08:00,-71.0211,41.8756,M,M,M,0.00,0.00,M,30.12,M,10.00,M,CLR,M,M,M,M,M,M,M,M,KTAN 030800Z AUTO 00000KT 10SM CLR A3012 RMK MADISHF
ORH,2017-11-03 08:00,-71.8757,42.2673,M,M,M,M,M,M,30.10,M,10.00,M,SCT,M,M,M,900.00,M,M,M,M,KORH 030800Z AUTO /////KT 10SM SCT009 A3010 RMK MADISHF
HYA,2017-11-03 08:00,-70.2800,41.6700,M,M,M,0.00,0.00,M,30.12,M,0.24,M,VV ,M,M,M,200.00,M,M,M,FG,KHYA 030800Z AUTO 00000KT 1/4SM FG VV002 A3012 RMK MADISHF
BED,2017-11-03 08:05,-71.2890,42.4699,M,M,M,170.00,7.00,M,30.09,M,10.00,M,FEW,M,M,M,12000.00,M,M,M,M,KBED 030805Z AUTO 17007KT 10SM FEW120 A3009 RMK MADISHF
HYA,2017-11-03 08:05,-70.2800,41.6700,M,M,M,0.00,0.00,M,30.12,M,0.25,M,OVC,M,M,M,200.00,M,M,M,FG,KHYA 030805Z AUTO 00000KT 1/4SM FG OVC002 A3012 RMK MADISHF
PVC,2017-11-03 08:05,-70.2200,42.0700,M,M,M,190.00,6.00,M,30.13,M,10.00,M,FEW,M,M,M,12000.00,M,M,M,M,KPVC 030805Z AUTO 19006KT 10SM FEW120 A3013 RMK MADISHF
BOS,2017-11-03 08:05,-71.0097,42.3606,M,M,M,160.00,6.00,M,30.10,M,10.00,M,FEW,FEW,M,M,499.00,12000.00,M,M,M,KBOS 030805Z AUTO 16006KT 10SM FEW004 FEW120 A3010 RMK MADISHF
PYM,2017-11-03 08:05,-70.7288,41.9090,M,M,M,160.00,3.00,M,30.12,M,1.00,M,VV ,M,M,M,200.00,M,M,M,BR,KPYM 030805Z AUTO 16003KT 1SM BR VV002 A3012 RMK MADISHF
ORE,2017-11-03 08:05,-72.2886,42.5701,M,M,M,190.00,6.00,M,30.08,M,10.00,M,CLR,M,M,M,M,M,M,M,M,KORE 030805Z AUTO 19006KT 10SM CLR A3008 RMK MADISHF
EWB,2017-11-03 08:05,-70.9583,41.6764,M,M,M,210.00,5.00,M,30.12,M,6.00,M,FEW,M,M,M,100.00,M,M,M,BR,KEWB 030805Z AUTO 21005KT 6SM BR FEW001 A3012 RMK MADISHF
ORH,2017-11-03 08:05,-71.8757,42.2673,M,M,M,M,M,M,30.10,M,10.00,M,SCT,M,M,M,900.00,M,M,M,M,KORH 030805Z AUTO /////KT 10SM SCT009 A3010 RMK MADISHF
OWD,2017-11-03 08:05,-71.1733,42.1912,M,M,M,140.00,3.00,M,30.11,M,10.00,M,FEW,M,M,M,5500.00,M,M,M,M,KOWD 030805Z AUTO 14003KT 10SM FEW055 A3011 RMK MADISHF
FIT,2017-11-03 08:05,-71.7558,42.5519,M,M,M,190.00,5.00,M,30.09,M,10.00,M,BKN,M,M,M,1999.00,M,M,M,M,KFIT 030805Z AUTO 19005KT 10SM BKN019 A3009 RMK MADISHF
CQX,2017-11-03 08:05,-69.9933,41.6875,M,M,M,170.00,3.00,M,30.15,M,8.00,M,CLR,M,M,M,M,M,M,M,M,KCQX 030805Z AUTO 17003KT 8SM CLR A3015 RMK MADISHF
PYM,2017-11-03 08:07,-70.7288,41.9090,59.00,57.00,93.07,160.00,3.00,0.00,30.12,M,1.00,M,VV ,M,M,M,200.00,M,M,M,BR,KPYM 030807Z AUTO 16003KT 1SM BR VV002 15/14 A3012 RMK AO2 T01500139
TAN,2017-11-03 08:10,-71.0211,41.8756,M,M,M,0.00,0.00,M,30.12,M,2.00,M,CLR,M,M,M,M,M,M,M,BR,KTAN 030810Z AUTO 00000KT 2SM BR CLR A3012 RMK MADISHF
OWD,2017-11-03 08:10,-71.1733,42.1912,M,M,M,140.00,3.00,M,30.10,M,9.00,M,FEW,M,M,M,5500.00,M,M,M,M,KOWD 030810Z AUTO 14003KT 9SM FEW055 A3010 RMK MADISHF
BED,2017-11-03 08:10,-71.2890,42.4699,M,M,M,170.00,7.00,M,30.09,M,10.00,M,CLR,M,M,M,M,M,M,M,M,KBED 030810Z AUTO 17007KT 10SM CLR A3009 RMK MADISHF
ORE,2017-11-03 08:10,-72.2886,42.5701,M,M,M,200.00,6.00,M,30.08,M,10.00,M,CLR,M,M,M,M,M,M,M,M,KORE 030810Z AUTO 20006KT 10SM CLR A3008 RMK MADISHF
EWB,2017-11-03 08:10,-70.9583,41.6764,M,M,M,220.00,5.00,M,30.12,M,2.00,M,FEW,M,M,M,100.00,M,M,M,BR,KEWB 030810Z AUTO 22005KT 2SM BR FEW001 A3012 RMK MADISHF
BOS,2017-11-03 08:10,-71.0097,42.3606,M,M,M,160.00,6.00,M,30.10,M,10.00,M,FEW,FEW,M,M,499.00,12000.00,M,M,M,KBOS 030810Z AUTO 16006KT 10SM FEW004 FEW120 A3010 RMK MADISHF
ORH,2017-11-03 08:10,-71.8757,42.2673,M,M,M,M,M,M,30.10,M,10.00,M,SCT,M,M,M,900.00,M,M,M,M,KORH 030810Z AUTO /////KT 10SM SCT009 A3010 RMK MADISHF
PVC,2017-11-03 08:10,-70.2200,42.0700,M,M,M,180.00,7.00,M,30.13,M,10.00,M,FEW,M,M,M,12000.00,M,M,M,M,KPVC 030810Z AUTO 18007KT 10SM FEW120 A3013 RMK MADISHF
CQX,2017-11-03 08:10,-69.9933,41.6875,M,M,M,0.00,0.00,M,30.15,M,8.00,M,CLR,M,M,M,M,M,M,M,M,KCQX 030810Z AUTO 00000KT 8SM CLR A3015 RMK MADISHF
HYA,2017-11-03 08:10,-70.2800,41.6700,M,M,M,160.00,3.00,M,30.12,M,0.50,M,OVC,M,M,M,200.00,M,M,M,FG,KHYA 030810Z AUTO 16003KT 1/2SM FG OVC002 A3012 RMK MADISHF
EWB,2017-11-03 08:11,-70.9583,41.6764,55.00,55.00,100.00,220.00,4.00,0.00,30.12,M,1.75,M,FEW,M,M,M,100.00,M,M,M,BR,KEWB 030811Z AUTO 22004KT 1 3/4SM R05/2400V4000FT BR FEW001 13/13 A3012 RMK AO2 T01280128
TAN,2017-11-03 08:13,-71.0211,41.8756,51.10,48.90,92.14,0.00,0.00,0.00,30.12,M,1.75,M,CLR,M,M,M,M,M,M,M,BR,KTAN 030813Z AUTO 00000KT 1 3/4SM BR CLR 11/09 A3012 RMK AO2 T01060094
HYA,2017-11-03 08:14,-70.2800,41.6700,59.00,57.00,93.07,0.00,0.00,0.00,30.12,M,0.75,M,OVC,M,M,M,200.00,M,M,M,BR,KHYA 030814Z AUTO 00000KT 3/4SM BR OVC002 15/14 A3012 RMK AO2 T01500139
CQX,2017-11-03 08:15,-69.9933,41.6875,M,M,M,0.00,0.00,M,30.15,M,9.00,M,CLR,M,M,M,M,M,M,M,M,KCQX 030815Z AUTO 00000KT 9SM CLR A3015 RMK MADISHF
FIT,2017-11-03 08:15,-71.7558,42.5519,M,M,M,180.00,6.00,M,30.09,M,10.00,M,SCT,M,M,M,1999.00,M,M,M,M,KFIT 030815Z AUTO 18006KT 10SM SCT019 A3009 RMK MADISHF
OWD,2017-11-03 08:15,-71.1733,42.1912,M,M,M,150.00,3.00,M,30.10,M,9.00,M,CLR,M,M,M,M,M,M,M,M,KOWD 030815Z AUTO 15003KT 9SM CLR A3010 RMK MADISHF
BED,2017-11-03 08:15,-71.2890,42.4699,M,M,M,180.00,7.00,M,30.08,M,10.00,M,CLR,M,M,M,M,M,M,M,M,KBED 030815Z AUTO 18007KT 10SM CLR A3008 RMK MADISHF
PVC,2017-11-03 08:15,-70.2200,42.0700,M,M,M,190.00,7.00,M,30.13,M,10.00,M,CLR,M,M,M,M,M,M,M,M,KPVC 030815Z AUTO 19007KT 10SM CLR A3013 RMK MADISHF
ORH,2017-11-03 08:15,-71.8757,42.2673,M,M,M,M,M,M,30.10,M,10.00,M,SCT,M,M,M,900.00,M,M,M,M,KORH 030815Z AUTO /////KT 10SM SCT009 A3010 RMK MADISHF
BOS,2017-11-03 08:15,-71.0097,42.3606,M,M,M,160.00,6.00,M,30.10,M,10.00,M,FEW,FEW,M,M,499.00,12000.00,M,M,M,KBOS 030815Z AUTO 16006KT 10SM FEW004 FEW120 A3010 RMK MADISHF
EWB,2017-11-03 08:15,-70.9583,41.6764,M,M,M,220.00,5.00,M,30.12,M,1.50,M,CLR,M,M,M,M,M,M,M,BR,KEWB 030815Z AUTO 22005KT 1 1/2SM BR CLR A3012 RMK MADISHF
ORE,2017-11-03 08:15,-72.2886,42.5701,M,M,M,190.00,6.00,M,30.07,M,10.00,M,FEW,M,M,M,1600.00,M,M,M,M,KORE 030815Z AUTO 19006KT 10SM FEW016 A3007 RMK VRB06KT  MADISHF
HYA,2017-11-03 08:15,-70.2800,41.6700,M,M,M,0.00,0.00,M,30.12,M,1.00,M,OVC,M,M,M,200.00,M,M,M,BR,KHYA 030815Z AUTO 00000KT 1SM BR OVC002 A3012 RMK MADISHF
PYM,2017-11-03 08:15,-70.7288,41.9090,M,M,M,160.00,3.00,M,30.12,M,0.75,M,VV ,M,M,M,200.00,M,M,M,BR,KPYM 030815Z AUTO 16003KT 1SM BR VV002 A3012 RMK MADISHF
TAN,2017-11-03 08:15,-71.0211,41.8756,M,M,M,0.00,0.00,M,30.12,M,1.75,M,CLR,M,M,M,M,M,M,M,BR,KTAN 030815Z AUTO 00000KT 2SM BR CLR A3012 RMK MADISHF
FMH,2017-11-03 08:15,-70.5215,41.6585,53.60,53.60,100.00,260.00,4.00,0.00,30.14,M,0.25,M,OVC,M,M,M,200.00,M,M,M,FG,KFMH 030815Z AUTO 26004KT M1/4SM FG OVC002 12/12 A3014 RMK AO2
GHG,2017-11-03 08:15,-70.6721,42.0982,55.40,55.40,100.00,230.00,4.00,0.00,30.11,M,10.00,M,CLR,M,M,M,M,M,M,M,M,KGHG 030815Z AUTO 23004KT 10SM CLR 13/13 A3011 RMK AO2
PYM,2017-11-03 08:16,-70.7288,41.9090,57.90,57.00,96.81,160.00,3.00,0.00,30.12,M,0.75,M,VV ,M,M,M,200.00,M,M,M,BR,KPYM 030816Z AUTO 16003KT 3/4SM BR VV002 14/14 A3012 RMK AO2 T01440139
FIT,2017-11-03 08:16,-71.7558,42.5519,64.90,61.00,87.18,190.00,7.00,0.00,30.08,M,10.00,M,SCT,M,M,M,2000.00,M,M,M,M,KFIT 030816Z AUTO 19007KT 150V210 10SM SCT020 18/16 A3008 RMK AO2 T01830161
TAN,2017-11-03 08:19,-71.0211,41.8756,50.00,48.90,95.98,0.00,0.00,0.00,30.12,M,3.00,M,CLR,M,M,M,M,M,M,M,BR,KTAN 030819Z AUTO 00000KT 3SM BR CLR 10/09 A3012 RMK AO2 T01000094
BED,2017-11-03 08:20,-71.2890,42.4699,M,M,M,180.00,7.00,M,30.08,M,10.00,M,CLR,M,M,M,M,M,M,M,M,KBED 030820Z AUTO 18007KT 10SM CLR A3008 RMK MADISHF
BOS,2017-11-03 08:20,-71.0097,42.3606,M,M,M,170.00,6.00,M,30.10,M,10.00,M,FEW,FEW,M,M,499.00,12000.00,M,M,M,KBOS 030820Z AUTO 17006KT 10SM FEW004 FEW120 A3010 RMK MADISHF
HYA,2017-11-03 08:20,-70.2800,41.6700,M,M,M,0.00,0.00,M,30.12,M,1.00,M,OVC,M,M,M,200.00,M,M,M,BR,KHYA 030820Z AUTO 00000KT 1SM BR OVC002 A3012 RMK MADISHF
ORH,2017-11-03 08:20,-71.8757,42.2673,M,M,M,M,M,M,30.10,M,10.00,M,BKN,M,M,M,900.00,M,M,M,M,KORH 030820Z AUTO /////KT 10SM BKN009 A3010 RMK CIG 7V12  MADISHF
PVC,2017-11-03 08:20,-70.2200,42.0700,M,M,M,190.00,8.00,M,30.13,M,10.00,M,CLR,M,M,M,M,M,M,M,M,KPVC 030820Z AUTO 19008KT 10SM CLR A3013 RMK MADISHF
FIT,2017-11-03 08:20,-71.7558,42.5519,M,M,M,180.00,9.00,M,30.08,M,10.00,M,FEW,M,M,M,1999.00,M,M,M,M,KFIT 030820Z AUTO 18009KT 10SM FEW019 A3008 RMK MADISHF
OWD,2017-11-03 08:20,-71.1733,42.1912,M,M,M,140.00,4.00,M,30.10,M,10.00,M,CLR,M,M,M,M,M,M,M,M,KOWD 030820Z AUTO 14004KT 10SM CLR A3010 RMK MADISHF
TAN,2017-11-03 08:20,-71.0211,41.8756,M,M,M,0.00,0.00,M,30.12,M,4.00,M,CLR,M,M,M,M,M,M,M,BR,KTAN 030820Z AUTO 00000KT 4SM BR CLR A3012 RMK MADISHF
ORE,2017-11-03 08:20,-72.2886,42.5701,M,M,M,190.00,8.00,M,30.07,M,10.00,M,FEW,M,M,M,1600.00,M,M,M,M,KORE 030820Z AUTO 19008KT 10SM FEW016 A3007 RMK MADISHF
EWB,2017-11-03 08:20,-70.9583,41.6764,57.00,57.00,100.00,220.00,5.00,0.00,30.11,M,3.00,M,CLR,M,M,M,M,M,M,M,BR,KEWB 030820Z AUTO 22005KT 3SM R05/2600VP6000FT BR CLR 14/14 A3011 RMK AO2 T01390139
ORH,2017-11-03 08:22,-71.8757,42.2673,60.10,57.00,89.48,220.00,11.00,0.00,30.10,M,10.00,M,BKN,M,M,M,900.00,M,M,M,M,KORH 030822Z AUTO 22011KT 10SM BKN009 16/14 A3010 RMK AO2 CIG 007V012 T01560139
PYM,2017-11-03 08:24,-70.7288,41.9090,57.90,57.00,96.81,0.00,0.00,0.00,30.12,M,1.75,M,BKN,M,M,M,200.00,M,M,M,BR,KPYM 030824Z AUTO 00000KT 1 3/4SM BR BKN002 14/14 A3012 RMK AO2 VIS 1V4 T01440139
BED,2017-11-03 08:25,-71.2890,42.4699,M,M,M,180.00,6.00,M,30.08,M,10.00,M,CLR,M,M,M,M,M,M,M,M,KBED 030825Z AUTO 18006KT 10SM CLR A3008 RMK MADISHF
FIT,2017-11-03 08:25,-71.7558,42.5519,M,M,M,190.00,6.00,M,30.08,M,10.00,M,FEW,M,M,M,1999.00,M,M,M,M,KFIT 030825Z AUTO 19006KT 10SM FEW019 A3008 RMK MADISHF
PVC,2017-11-03 08:25,-70.2200,42.0700,M,M,M,190.00,8.00,M,30.13,M,10.00,M,CLR,M,M,M,M,M,M,M,M,KPVC 030825Z AUTO 19008KT 10SM CLR A3013 RMK MADISHF
OWD,2017-11-03 08:25,-71.1733,42.1912,M,M,M,140.00,4.00,M,30.10,M,10.00,M,CLR,M,M,M,M,M,M,M,M,KOWD 030825Z AUTO 14004KT 10SM CLR A3010 RMK MADISHF
ORH,2017-11-03 08:25,-71.8757,42.2673,M,M,M,220.00,11.00,M,30.10,M,10.00,M,BKN,M,M,M,900.00,M,M,M,M,KORH 030825Z AUTO 22011KT 10SM BKN009 A3010 RMK CIG 7V12  MADISHF
BOS,2017-11-03 08:25,-71.0097,42.3606,M,M,M,180.00,6.00,M,30.10,M,10.00,M,FEW,FEW,M,M,499.00,12000.00,M,M,M,KBOS 030825Z AUTO 18006KT 10SM FEW004 FEW120 A3010 RMK MADISHF
HYA,2017-11-03 08:25,-70.2800,41.6700,M,M,M,170.00,3.00,M,30.12,M,0.50,M,OVC,M,M,M,200.00,M,M,M,FG,KHYA 030825Z AUTO 17003KT 1/2SM FG OVC002 A3012 RMK MADISHF
EWB,2017-11-03 08:25,-70.9583,41.6764,M,M,M,230.00,6.00,M,30.11,M,10.00,M,CLR,M,M,M,M,M,M,M,M,KEWB 030825Z AUTO 23006KT 10SM CLR A3011 RMK MADISHF
PYM,2017-11-03 08:25,-70.7288,41.9090,M,M,M,0.00,0.00,M,30.12,M,2.00,M,BKN,M,M,M,200.00,M,M,M,BR,KPYM 030825Z AUTO 00000KT 2SM BR BKN002 A3012 RMK MADISHF
CQX,2017-11-03 08:25,-69.9933,41.6875,M,M,M,130.00,3.00,M,30.15,M,4.00,M,CLR,M,M,M,M,M,M,M,BR,KCQX 030825Z AUTO 13003KT 4SM BR CLR A3015 RMK MADISHF
ORE,2017-11-03 08:25,-72.2886,42.5701,M,M,M,200.00,6.00,M,30.07,M,10.00,M,SCT,M,M,M,1600.00,M,M,M,M,KORE 030825Z AUTO 20006KT 10SM SCT016 A3007 RMK MADISHF
PYM,2017-11-03 08:28,-70.7288,41.9090,57.90,57.00,96.81,0.00,0.00,0.00,30.12,M,2.00,M,SCT,M,M,M,200.00,M,M,M,BR,KPYM 030828Z AUTO 00000KT 2SM BR SCT002 14/14 A3012 RMK AO2 VIS 1 1/2V4 T01440139
PVC,2017-11-03 08:30,-70.2200,42.0700,M,M,M,200.00,8.00,M,30.13,M,10.00,M,CLR,M,M,M,M,M,M,M,M,KPVC 030830Z AUTO 20008KT 10SM CLR A3013 RMK MADISHF
CQX,2017-11-03 08:30,-69.9933,41.6875,M,M,M,140.00,3.00,M,30.14,M,2.50,M,CLR,M,M,M,M,M,M,M,BR,KCQX 030830Z AUTO 14003KT 2 1/2SM BR CLR A3014 RMK MADISHF
EWB,2017-11-03 08:30,-70.9583,41.6764,M,M,M,230.00,5.00,M,30.11,M,10.00,M,CLR,M,M,M,M,M,M,M,M,KEWB 030830Z AUTO 23005KT 10SM CLR A3011 RMK MADISHF
BOS,2017-11-03 08:30,-71.0097,42.3606,M,M,M,190.00,6.00,M,30.10,M,10.00,M,FEW,FEW,M,M,499.00,12000.00,M,M,M,KBOS 030830Z AUTO 19006KT 10SM FEW004 FEW120 A3010 RMK MADISHF
BED,2017-11-03 08:30,-71.2890,42.4699,M,M,M,170.00,7.00,M,30.08,M,10.00,M,FEW,M,M,M,1400.00,M,M,M,M,KBED 030830Z AUTO 17007KT 10SM FEW014 A3008 RMK MADISHF
TAN,2017-11-03 08:30,-71.0211,41.8756,M,M,M,0.00,0.00,M,30.12,M,3.00,M,CLR,M,M,M,M,M,M,M,BR,KTAN 030830Z AUTO 00000KT 3SM BR CLR A3012 RMK MADISHF
OWD,2017-11-03 08:30,-71.1733,42.1912,M,M,M,160.00,3.00,M,30.10,M,10.00,M,CLR,M,M,M,M,M,M,M,M,KOWD 030830Z AUTO 16003KT 10SM CLR A3010 RMK MADISHF
ORH,2017-11-03 08:30,-71.8757,42.2673,M,M,M,M,M,M,30.10,M,10.00,M,BKN,M,M,M,900.00,M,M,M,M,KORH 030830Z AUTO /////KT 10SM BKN009 A3010 RMK CIG 7V12  MADISHF
PYM,2017-11-03 08:30,-70.7288,41.9090,M,M,M,0.00,0.00,M,30.12,M,2.00,M,SCT,M,M,M,200.00,M,M,M,BR,KPYM 030830Z AUTO 00000KT 2SM BR SCT002 A3012 RMK MADISHF
HYA,2017-11-03 08:30,-70.2800,41.6700,M,M,M,0.00,0.00,M,30.12,M,0.50,M,OVC,M,M,M,200.00,M,M,M,FG,KHYA 030830Z AUTO 00000KT 1/2SM FG OVC002 A3012 RMK MADISHF
CQX,2017-11-03 08:34,-69.9933,41.6875,55.00,55.00,100.00,150.00,3.00,0.00,30.14,M,2.50,M,CLR,M,M,M,M,M,M,M,BR,KCQX 030834Z AUTO 15003KT 2 1/2SM BR CLR 13/13 A3014 RMK AO2 VIS 1 1/2V4 T01280128
OWD,2017-11-03 08:35,-71.1733,42.1912,M,M,M,160.00,5.00,M,30.09,M,10.00,M,CLR,M,M,M,M,M,M,M,M,KOWD 030835Z AUTO 16005KT 10SM CLR A3009 RMK MADISHF
FIT,2017-11-03 08:35,-71.7558,42.5519,M,M,M,180.00,6.00,M,30.08,M,10.00,M,FEW,M,M,M,1800.00,M,M,M,M,KFIT 030835Z AUTO 18006KT 10SM FEW018 A3008 RMK MADISHF
PVC,2017-11-03 08:35,-70.2200,42.0700,M,M,M,190.00,7.00,M,30.13,M,10.00,M,CLR,M,M,M,M,M,M,M,M,KPVC 030835Z AUTO 19007KT 10SM CLR A3013 RMK MADISHF
BED,2017-11-03 08:35,-71.2890,42.4699,M,M,M,180.00,6.00,M,30.08,M,10.00,M,FEW,M,M,M,1400.00,M,M,M,M,KBED 030835Z AUTO 18006KT 10SM FEW014 A3008 RMK MADISHF
CQX,2017-11-03 08:35,-69.9933,41.6875,M,M,M,150.00,3.00,M,30.14,M,2.50,M,CLR,M,M,M,M,M,M,M,BR,KCQX 030835Z AUTO 15003KT 2 1/2SM BR CLR A3014 RMK MADISHF
TAN,2017-11-03 08:35,-71.0211,41.8756,M,M,M,0.00,0.00,M,30.11,M,3.00,M,CLR,M,M,M,M,M,M,M,BR,KTAN 030835Z AUTO 00000KT 3SM BR CLR A3011 RMK MADISHF
ORH,2017-11-03 08:35,-71.8757,42.2673,M,M,M,210.00,10.00,M,30.10,M,10.00,M,OVC,M,M,M,900.00,M,M,M,M,KORH 030835Z AUTO 21010KT 10SM OVC009 A3010 RMK CIG 7V12  MADISHF
EWB,2017-11-03 08:35,-70.9583,41.6764,M,M,M,210.00,6.00,M,30.11,M,7.00,M,FEW,M,M,M,200.00,M,M,M,M,KEWB 030835Z AUTO 21006KT 7SM FEW002 A3011 RMK MADISHF
HYA,2017-11-03 08:35,-70.2800,41.6700,M,M,M,0.00,0.00,M,30.12,M,0.50,M,OVC,M,M,M,200.00,M,M,M,FG,KHYA 030835Z AUTO 00000KT 1/2SM FG OVC002 A3012 RMK MADISHF
BOS,2017-11-03 08:35,-71.0097,42.3606,M,M,M,200.00,5.00,M,30.10,M,10.00,M,FEW,FEW,M,M,499.00,12000.00,M,M,M,KBOS 030835Z AUTO 20005KT 10SM FEW004 FEW120 A3010 RMK MADISHF
FMH,2017-11-03 08:35,-70.5215,41.6585,53.60,55.40,106.79,210.00,3.00,0.00,30.14,M,0.25,M,OVC,M,M,M,200.00,M,M,M,FG,KFMH 030835Z AUTO 21003KT M1/4SM FG OVC002 12/13 A3014 RMK AO2
ORE,2017-11-03 08:35,-72.2886,42.5701,61.00,59.00,93.12,190.00,4.00,0.00,30.07,M,10.00,M,BKN,M,M,M,1700.00,M,M,M,M,KORE 030835Z AUTO 19004KT 10SM BKN017 16/15 A3007 RMK AO2 T01610150 TSNO
GHG,2017-11-03 08:35,-70.6721,42.0982,55.40,55.40,100.00,220.00,4.00,0.00,30.11,M,8.00,M,CLR,M,M,M,M,M,M,M,M,KGHG 030835Z AUTO 22004KT 8SM CLR 13/13 A3011 RMK AO2
EWB,2017-11-03 08:38,-70.9583,41.6764,57.00,57.00,100.00,210.00,5.00,0.00,30.11,M,4.00,M,SCT,M,M,M,200.00,M,M,M,BR,KEWB 030838Z AUTO 21005KT 4SM R05/2400V6000FT BR SCT002 14/14 A3011 RMK AO2 T01390139
PYM,2017-11-03 08:38,-70.7288,41.9090,57.00,55.90,96.10,0.00,0.00,0.00,30.12,M,1.00,M,VV ,M,M,M,200.00,M,M,M,BR,KPYM 030838Z AUTO 00000KT 1SM BR VV002 14/13 A3012 RMK AO2 VIS 1/4V2 1/2 T01390133
BED,2017-11-03 08:40,-71.2890,42.4699,M,M,M,200.00,5.00,M,30.08,M,10.00,M,FEW,M,M,M,1400.00,M,M,M,M,KBED 030840Z AUTO 20005KT 10SM FEW014 A3008 RMK MADISHF
BOS,2017-11-03 08:40,-71.0097,42.3606,M,M,M,200.00,4.00,M,30.10,M,10.00,M,FEW,FEW,M,M,499.00,12000.00,M,M,M,KBOS 030840Z AUTO 20004KT 10SM FEW004 FEW120 A3010 RMK MADISHF
PYM,2017-11-03 08:40,-70.7288,41.9090,M,M,M,0.00,0.00,M,30.12,M,0.75,M,VV ,M,M,M,200.00,M,M,M,BR,KPYM 030840Z AUTO 00000KT 1SM BR VV002 A3012 RMK MADISHF
PVC,2017-11-03 08:40,-70.2200,42.0700,M,M,M,180.00,7.00,M,30.13,M,10.00,M,CLR,M,M,M,M,M,M,M,M,KPVC 030840Z AUTO 18007KT 10SM CLR A3013 RMK MADISHF
CQX,2017-11-03 08:40,-69.9933,41.6875,M,M,M,0.00,0.00,M,30.14,M,4.00,M,CLR,M,M,M,M,M,M,M,BR,KCQX 030840Z AUTO 00000KT 4SM BR CLR A3014 RMK MADISHF
TAN,2017-11-03 08:40,-71.0211,41.8756,M,M,M,0.00,0.00,M,30.11,M,1.75,M,CLR,M,M,M,M,M,M,M,BR,KTAN 030840Z AUTO 00000KT 2SM BR CLR A3011 RMK MADISHF
ORE,2017-11-03 08:40,-72.2886,42.5701,M,M,M,170.00,5.00,M,30.07,M,10.00,M,BKN,M,M,M,1699.00,M,M,M,M,KORE 030840Z AUTO 17005KT 10SM BKN016 A3007 RMK MADISHF
FIT,2017-11-03 08:40,-71.7558,42.5519,M,M,M,150.00,4.00,M,30.08,M,10.00,M,FEW,M,M,M,1800.00,M,M,M,M,KFIT 030840Z AUTO 15004KT 10SM FEW018 A3008 RMK MADISHF
ORH,2017-11-03 08:40,-71.8757,42.2673,M,M,M,M,M,M,30.10,M,10.00,M,OVC,M,M,M,900.00,M,M,M,M,KORH 030840Z AUTO /////KT 10SM OVC009 A3010 RMK CIG 7V12  MADISHF
HYA,2017-11-03 08:40,-70.2800,41.6700,M,M,M,160.00,3.00,M,30.12,M,0.25,M,VV ,M,M,M,200.00,M,M,M,FG,KHYA 030840Z AUTO 16003KT 1/4SM FG VV002 A3012 RMK MADISHF
OWD,2017-11-03 08:40,-71.1733,42.1912,M,M,M,160.00,4.00,M,30.09,M,10.00,M,CLR,M,M,M,M,M,M,M,M,KOWD 030840Z AUTO 16004KT 10SM CLR A3009 RMK MADISHF
EWB,2017-11-03 08:40,-70.9583,41.6764,57.00,57.00,100.00,210.00,5.00,0.00,30.11,M,2.00,M,BKN,M,M,M,200.00,M,M,M,BR,KEWB 030840Z AUTO 21005KT 2SM R05/2400V5000FT BR BKN002 14/14 A3011 RMK AO2 T01390139
TAN,2017-11-03 08:41,-71.0211,41.8756,50.00,48.00,92.80,0.00,0.00,0.00,30.11,M,1.25,M,CLR,M,M,M,M,M,M,M,BR,KTAN 030841Z AUTO 00000KT 1 1/4SM BR CLR 10/09 A3011 RMK AO2 T01000089
CQX,2017-11-03 08:42,-69.9933,41.6875,55.90,55.90,100.00,160.00,3.00,0.00,30.14,M,5.00,M,CLR,M,M,M,M,M,M,M,BR,KCQX 030842Z AUTO 16003KT 5SM BR CLR 13/13 A3014 RMK AO2 T01330133
HYA,2017-11-03 08:43,-70.2800,41.6700,59.00,57.90,96.13,0.00,0.00,0.00,30.12,M,0.25,M,VV ,M,M,M,200.00,M,M,M,FG,KHYA 030843Z AUTO 00000KT 1/4SM FG VV002 15/14 A3012 RMK AO2 T01500144
EWB,2017-11-03 08:44,-70.9583,41.6764,55.90,55.90,100.00,210.00,5.00,0.00,30.11,M,0.75,M,VV ,M,M,M,200.00,M,M,M,BR,KEWB 030844Z AUTO 21005KT 3/4SM R05/2400V3000FT BR VV002 13/13 A3011 RMK AO2 T01330133
PYM,2017-11-03 08:44,-70.7288,41.9090,57.00,55.00,93.01,0.00,0.00,0.00,30.12,M,0.25,M,VV ,M,M,M,200.00,M,M,M,FG,KPYM 030844Z AUTO 00000KT 1/4SM FG VV002 14/13 A3012 RMK AO2 T01390128
BED,2017-11-03 08:45,-71.2890,42.4699,M,M,M,190.00,7.00,M,30.08,M,10.00,M,FEW,M,M,M,1400.00,M,M,M,M,KBED 030845Z AUTO 19007KT 10SM FEW014 A3008 RMK MADISHF
HYA,2017-11-03 08:45,-70.2800,41.6700,M,M,M,0.00,0.00,M,30.12,M,0.25,M,VV ,M,M,M,200.00,M,M,M,FG,KHYA 030845Z AUTO 00000KT 1/4SM FG VV002 A3012 RMK MADISHF
CQX,2017-11-03 08:45,-69.9933,41.6875,M,M,M,140.00,4.00,M,30.14,M,4.00,M,CLR,M,M,M,M,M,M,M,BR,KCQX 030845Z AUTO 14004KT 4SM BR CLR A3014 RMK MADISHF
ORE,2017-11-03 08:45,-72.2886,42.5701,M,M,M,160.00,6.00,M,30.07,M,10.00,M,BKN,M,M,M,1699.00,M,M,M,M,KORE 030845Z AUTO 16006KT 10SM BKN016 A3007 RMK MADISHF
PVC,2017-11-03 08:45,-70.2200,42.0700,M,M,M,190.00,6.00,M,30.13,M,10.00,M,M,M,M,M,M,M,M,M,M,KPVC 030845Z AUTO 19006KT 10SM A3013 RMK MADISHF
PYM,2017-11-03 08:45,-70.7288,41.9090,M,M,M,0.00,0.00,M,30.12,M,0.25,M,VV ,M,M,M,200.00,M,M,M,FG,KPYM 030845Z AUTO 00000KT 1/4SM FG VV002 A3012 RMK MADISHF
FIT,2017-11-03 08:45,-71.7558,42.5519,M,M,M,150.00,3.00,M,30.08,M,10.00,M,CLR,M,M,M,M,M,M,M,M,KFIT 030845Z AUTO 15003KT 10SM CLR A3008 RMK MADISHF
BOS,2017-11-03 08:45,-71.0097,42.3606,M,M,M,190.00,4.00,M,30.09,M,10.00,M,M,M,M,M,M,M,M,M,M,KBOS 030845Z AUTO 19004KT 10SM A3009 RMK MADISHF
EWB,2017-11-03 08:45,-70.9583,41.6764,M,M,M,200.00,5.00,M,30.11,M,0.75,M,VV ,M,M,M,200.00,M,M,M,BR,KEWB 030845Z AUTO 20005KT 1SM BR VV002 A3011 RMK MADISHF
OWD,2017-11-03 08:45,-71.1733,42.1912,M,M,M,160.00,4.00,M,30.09,M,10.00,M,CLR,M,M,M,M,M,M,M,M,KOWD 030845Z AUTO 16004KT 10SM CLR A3009 RMK MADISHF
ORH,2017-11-03 08:45,-71.8757,42.2673,M,M,M,210.00,10.00,M,30.10,M,10.00,M,OVC,M,M,M,900.00,M,M,M,M,KORH 030845Z AUTO 21010KT 10SM OVC009 A3010 RMK CIG 7V12  MADISHF
TAN,2017-11-03 08:49,-71.0211,41.8756,48.20,48.20,100.00,0.00,0.00,0.00,30.11,M,0.25,M,CLR,M,M,M,M,M,M,M,FG,KTAN 030849Z AUTO 00000KT 1/4SM FG CLR 09/09 A3011 RMK AO2
CQX,2017-11-03 08:50,-69.9933,41.6875,M,M,M,140.00,4.00,M,30.14,M,3.00,M,FEW,M,M,M,100.00,M,M,M,BR,KCQX 030850Z AUTO 14004KT 3SM BR FEW001 A3014 RMK MADISHF
PVC,2017-11-03 08:50,-70.2200,42.0700,M,M,M,190.00,7.00,M,30.13,M,10.00,M,M,M,M,M,M,M,M,M,M,KPVC 030850Z AUTO 19007KT 10SM A3013 RMK MADISHF
BED,2017-11-03 08:50,-71.2890,42.4699,M,M,M,190.00,7.00,M,30.08,M,10.00,M,FEW,M,M,M,1400.00,M,M,M,M,KBED 030850Z AUTO 19007KT 10SM FEW014 A3008 RMK MADISHF
ORE,2017-11-03 08:50,-72.2886,42.5701,M,M,M,170.00,6.00,M,30.07,M,10.00,M,BKN,M,M,M,1699.00,M,M,M,M,KORE 030850Z AUTO 17006KT 10SM BKN016 A3007 RMK MADISHF
HYA,2017-11-03 08:50,-70.2800,41.6700,M,M,M,0.00,0.00,M,30.12,M,0.50,M,VV ,M,M,M,200.00,M,M,M,FG,KHYA 030850Z AUTO 00000KT 1/2SM FG VV002 A3012 RMK MADISHF
PYM,2017-11-03 08:50,-70.7288,41.9090,M,M,M,0.00,0.00,M,30.12,M,0.25,M,VV ,M,M,M,200.00,M,M,M,FG,KPYM 030850Z AUTO 00000KT 1/4SM FG VV002 A3012 RMK MADISHF
TAN,2017-11-03 08:50,-71.0211,41.8756,M,M,M,0.00,0.00,M,30.11,M,0.25,M,CLR,M,M,M,M,M,M,M,FG,KTAN 030850Z AUTO 00000KT 1/4SM FG CLR A3011 RMK MADISHF
BOS,2017-11-03 08:50,-71.0097,42.3606,M,M,M,190.00,4.00,M,30.09,M,10.00,M,M,M,M,M,M,M,M,M,M,KBOS 030850Z AUTO 19004KT 10SM A3009 RMK MADISHF
EWB,2017-11-03 08:50,-70.9583,41.6764,M,M,M,200.00,5.00,M,30.11,M,0.50,M,VV ,M,M,M,200.00,M,M,M,FG,KEWB 030850Z AUTO 20005KT 1/2SM FG VV002 A3011 RMK MADISHF
OWD,2017-11-03 08:50,-71.1733,42.1912,M,M,M,160.00,4.00,M,30.09,M,10.00,M,CLR,M,M,M,M,M,M,M,M,KOWD 030850Z AUTO 16004KT 10SM CLR A3009 RMK MADISHF
ORH,2017-11-03 08:50,-71.8757,42.2673,M,M,M,210.00,13.00,M,30.09,M,10.00,M,OVC,M,M,M,900.00,M,M,M,M,KORH 030850Z AUTO 21013KT 10SM OVC009 A3009 RMK CIG 7V12  MADISHF
FIT,2017-11-03 08:50,-71.7558,42.5519,M,M,M,150.00,3.00,M,30.08,M,10.00,M,FEW,M,M,M,1800.00,M,M,M,M,KFIT 030850Z AUTO 15003KT 10SM FEW018 A3008 RMK MADISHF
ORE,2017-11-03 08:52,-72.2886,42.5701,61.00,59.00,93.12,170.00,7.00,0.00,30.07,1018.10,10.00,M,BKN,M,M,M,1700.00,M,M,M,M,KORE 030852Z AUTO 17007KT 10SM BKN017 16/15 A3007 RMK AO2 SLP181 T01610150 56018 TSNO
PYM,2017-11-03 08:52,-70.7288,41.9090,55.90,55.00,96.78,0.00,0.00,0.00,30.12,1019.90,0.25,M,VV ,M,M,M,200.00,M,M,M,FG,KPYM 030852Z AUTO 00000KT 1/4SM FG VV002 13/13 A3012 RMK AO2 SLP199 T01330128 56017
CQX,2017-11-03 08:52,-69.9933,41.6875,55.00,55.00,100.00,150.00,3.00,0.00,30.14,1020.70,2.00,M,SCT,M,M,M,100.00,M,M,M,BR,KCQX 030852Z AUTO 15003KT 2SM BR SCT001 13/13 A3014 RMK AO2 VIS 1 1/4V5 SLP207 T01280128 57014
TAN,2017-11-03 08:52,-71.0211,41.8756,50.00,48.00,92.80,0.00,0.00,0.00,30.11,1019.60,0.25,M,CLR,M,M,M,M,M,M,M,FG,KTAN 030852Z AUTO 00000KT 1/4SM FG CLR 10/09 A3011 RMK AO2 SLP196 T01000089 56012
FIT,2017-11-03 08:52,-71.7558,42.5519,64.00,61.00,89.97,170.00,4.00,0.00,30.08,1018.50,10.00,M,FEW,M,M,M,1800.00,M,M,M,M,KFIT 030852Z AUTO 17004KT 10SM FEW018 18/16 A3008 RMK AO2 SLP185 T01780161 56017
HYA,2017-11-03 08:53,-70.2800,41.6700,59.00,59.00,100.00,0.00,0.00,0.00,30.12,M,0.50,M,VV ,M,M,M,200.00,M,M,M,FG,KHYA 030853Z AUTO 00000KT 1/2SM FG VV002 15/15 A3012 RMK AO2
OWD,2017-11-03 08:53,-71.1733,42.1912,59.00,57.00,93.07,170.00,4.00,0.00,30.09,1018.90,10.00,M,CLR,M,M,M,M,M,M,M,M,KOWD 030853Z AUTO 17004KT 10SM CLR 15/14 A3009 RMK AO2 SLP189 T01500139 58019
EWB,2017-11-03 08:53,-70.9583,41.6764,55.00,55.00,100.00,210.00,5.00,0.00,30.11,1019.60,0.50,M,VV ,M,M,M,200.00,M,M,M,FG,KEWB 030853Z AUTO 21005KT 1/2SM R05/3000VP6000FT FG VV002 13/13 A3011 RMK AO2 SLP196 T01280128 58012
BOS,2017-11-03 08:54,-71.0097,42.3606,59.00,57.00,93.07,180.00,4.00,0.00,30.09,1018.90,10.00,M,FEW,FEW,BKN,M,15000.00,20000.00,25000.00,M,M,KBOS 030854Z 18004KT 10SM FEW150 FEW200 BKN250 15/14 A3009 RMK AO2 SLP189 T01500139 56021
ORH,2017-11-03 08:54,-71.8757,42.2673,60.10,57.00,89.48,210.00,13.00,0.00,30.09,1018.90,10.00,M,OVC,M,M,M,900.00,M,M,M,M,KORH 030854Z AUTO 21013KT 10SM OVC009 16/14 A3009 RMK AO2 CIG 007V012 SLP189 T01560139 57017
PVC,2017-11-03 08:55,-70.2200,42.0700,M,M,M,190.00,6.00,M,30.13,M,10.00,M,M,M,M,M,M,M,M,M,M,KPVC 030855Z AUTO 19006KT 10SM A3013 RMK MADISHF
TAN,2017-11-03 08:55,-71.0211,41.8756,M,M,M,0.00,0.00,M,30.11,M,0.25,M,VV ,M,M,M,300.00,M,M,M,FG,KTAN 030855Z AUTO 00000KT 1/4SM FG VV003 A3011 RMK MADISHF
ORE,2017-11-03 08:55,-72.2886,42.5701,M,M,M,150.00,5.00,M,30.07,M,10.00,M,BKN,M,M,M,1699.00,M,M,M,M,KORE 030855Z AUTO 15005KT 10SM BKN016 A3007 RMK MADISHF
FIT,2017-11-03 08:55,-71.7558,42.5519,M,M,M,170.00,4.00,M,30.08,M,10.00,M,FEW,M,M,M,1800.00,M,M,M,M,KFIT 030855Z AUTO 17004KT 10SM FEW018 A3008 RMK VRB04KT  MADISHF
ORH,2017-11-03 08:55,-71.8757,42.2673,M,M,M,M,M,M,30.09,M,10.00,M,OVC,M,M,M,900.00,M,M,M,M,KORH 030855Z AUTO /////KT 10SM OVC009 A3009 RMK CIG 7V12  MADISHF
OWD,2017-11-03 08:55,-71.1733,42.1912,M,M,M,170.00,3.00,M,30.09,M,10.00,M,CLR,M,M,M,M,M,M,M,M,KOWD 030855Z AUTO 17003KT 10SM CLR A3009 RMK MADISHF
BOS,2017-11-03 08:55,-71.0097,42.3606,M,M,M,190.00,4.00,M,30.09,M,10.00,M,M,M,M,M,M,M,M,M,M,KBOS 030855Z AUTO 19004KT 10SM A3009 RMK MADISHF
BED,2017-11-03 08:55,-71.2890,42.4699,M,M,M,190.00,7.00,M,30.07,M,10.00,M,FEW,M,M,M,1400.00,M,M,M,M,KBED 030855Z AUTO 19007KT 10SM FEW014 A3007 RMK MADISHF
HYA,2017-11-03 08:55,-70.2800,41.6700,M,M,M,0.00,0.00,M,30.12,M,0.75,M,VV ,M,M,M,200.00,M,M,M,BR,KHYA 030855Z AUTO 00000KT 1SM BR VV002 A3012 RMK MADISHF
EWB,2017-11-03 08:55,-70.9583,41.6764,M,M,M,210.00,5.00,M,30.11,M,0.50,M,VV ,M,M,M,200.00,M,M,M,FG,KEWB 030855Z AUTO 21005KT 1/2SM FG VV002 A3011 RMK MADISHF
PYM,2017-11-03 08:55,-70.7288,41.9090,M,M,M,0.00,0.00,M,30.12,M,0.25,M,VV ,M,M,M,200.00,M,M,M,FG,KPYM 030855Z AUTO 00000KT 1/4SM FG VV002 A3012 RMK MADISHF
CQX,2017-11-03 08:55,-69.9933,41.6875,M,M,M,140.00,3.00,M,30.14,M,1.25,M,SCT,M,M,M,100.00,M,M,M,BR,KCQX 030855Z AUTO 14003KT 1 1/2SM BR SCT001 A3014 RMK MADISHF
GHG,2017-11-03 08:55,-70.6721,42.0982,53.60,53.60,100.00,190.00,4.00,0.00,30.10,M,7.00,M,CLR,M,M,M,M,M,M,M,M,KGHG 030855Z AUTO 19004KT 7SM CLR 12/12 A3010 RMK AO2
FMH,2017-11-03 08:55,-70.5215,41.6585,55.40,55.40,100.00,0.00,0.00,0.00,30.13,M,0.25,M,OVC,M,M,M,200.00,M,M,M,FG,KFMH 030855Z AUTO 00000KT M1/4SM FG OVC002 13/13 A3013 RMK AO2
CQX,2017-11-03 08:56,-69.9933,41.6875,55.00,55.00,100.00,140.00,3.00,0.00,30.14,M,1.00,M,VV ,M,M,M,100.00,M,M,M,BR,KCQX 030856Z AUTO 14003KT 1SM BR VV001 13/13 A3014 RMK AO2 T01280128
HYA,2017-11-03 08:56,-70.2800,41.6700,59.00,59.00,100.00,0.00,0.00,0.00,30.11,1019.80,0.75,M,VV ,M,M,M,200.00,M,M,M,BR,KHYA 030856Z AUTO 00000KT 3/4SM BR VV002 15/15 A3011 RMK AO2 SLP198 T01500150 56009
BED,2017-11-03 08:56,-71.2890,42.4699,60.10,57.00,89.48,190.00,7.00,0.00,30.07,1019.50,10.00,M,FEW,M,M,M,1400.00,M,M,M,M,KBED 030856Z AUTO 19007KT 10SM FEW014 16/14 A3007 RMK AO2 SLP195 T01560139 58013
MQE,2017-11-03 08:56,-71.1142,42.2121,59.00,55.00,86.56,200.00,15.00,0.00,30.09,1019.80,M,M,M,M,M,M,M,M,M,M,M,KMQE 030856Z AUTO 20015KT 15/13 A3009 RMK AO1 SLP198 T01500128 58019
PVC,2017-11-03 08:56,-70.2200,42.0700,57.90,57.00,96.81,190.00,6.00,0.00,30.13,1020.10,10.00,M,M,M,M,M,M,M,M,M,M,KPVC 030856Z AUTO 19006KT 10SM 14/14 A3013 RMK AO2 SLP201 T01440139 56016 $
FIT,2017-11-03 09:00,-71.7558,42.5519,M,M,M,150.00,5.00,M,30.08,M,10.00,M,FEW,M,M,M,1699.00,M,M,M,M,KFIT 030900Z AUTO 15005KT 10SM FEW016 A3008 RMK MADISHF
PVC,2017-11-03 09:00,-70.2200,42.0700,M,M,M,190.00,6.00,M,30.13,M,10.00,M,M,M,M,M,M,M,M,M,M,KPVC 030900Z AUTO 19006KT 10SM A3013 RMK MADISHF
ORH,2017-11-03 09:00,-71.8757,42.2673,M,M,M,220.00,11.00,M,30.09,M,10.00,M,OVC,M,M,M,900.00,M,M,M,M,KORH 030900Z AUTO 22011KT 10SM OVC009 A3009 RMK CIG 7V12  MADISHF
BOS,2017-11-03 09:00,-71.0097,42.3606,M,M,M,190.00,4.00,M,30.09,M,10.00,M,M,M,M,M,M,M,M,M,M,KBOS 030900Z AUTO 19004KT 10SM A3009 RMK MADISHF
BED,2017-11-03 09:00,-71.2890,42.4699,M,M,M,190.00,7.00,M,30.07,M,10.00,M,CLR,M,M,M,M,M,M,M,M,KBED 030900Z AUTO 19007KT 10SM CLR A3007 RMK MADISHF
EWB,2017-11-03 09:00,-70.9583,41.6764,M,M,M,220.00,4.00,M,30.11,M,0.50,M,VV ,M,M,M,200.00,M,M,M,FG,KEWB 030900Z AUTO 22004KT 1/2SM FG VV002 A3011 RMK MADISHF
PYM,2017-11-03 09:00,-70.7288,41.9090,M,M,M,0.00,0.00,M,30.12,M,0.24,M,VV ,M,M,M,100.00,M,M,M,FG,KPYM 030900Z AUTO 00000KT 1/4SM FG VV001 A3012 RMK MADISHF
OWD,2017-11-03 09:00,-71.1733,42.1912,M,M,M,180.00,3.00,M,30.09,M,10.00,M,CLR,M,M,M,M,M,M,M,M,KOWD 030900Z AUTO 18003KT 10SM CLR A3009 RMK MADISHF
CQX,2017-11-03 09:00,-69.9933,41.6875,M,M,M,0.00,0.00,M,30.14,M,0.50,M,VV ,M,M,M,200.00,M,M,M,FG,KCQX 030900Z AUTO 00000KT 1/2SM FG VV002 A3014 RMK MADISHF
HYA,2017-11-03 09:00,-70.2800,41.6700,M,M,M,160.00,3.00,M,30.11,M,0.75,M,VV ,M,M,M,200.00,M,M,M,BR,KHYA 030900Z AUTO 16003KT 1SM BR VV002 A3011 RMK MADISHF
ORE,2017-11-03 09:00,-72.2886,42.5701,M,M,M,140.00,5.00,M,30.07,M,10.00,M,BKN,M,M,M,1699.00,M,M,M,M,KORE 030900Z AUTO 14005KT 10SM BKN016 A3007 RMK MADISHF
TAN,2017-11-03 09:01,-71.0211,41.8756,48.90,46.90,92.77,0.00,0.00,0.00,30.11,M,0.50,M,VV ,M,M,M,300.00,M,M,M,FG,KTAN 030901Z AUTO 00000KT 1/2SM FG VV003 09/08 A3011 RMK AO2 T00940083
CQX,2017-11-03 09:03,-69.9933,41.6875,55.00,55.00,100.00,0.00,0.00,0.00,30.14,M,0.50,M,VV ,M,M,M,200.00,M,M,M,FG,KCQX 030903Z AUTO 00000KT 1/2SM FG VV002 13/13 A3014 RMK AO2 T01280128
CQX,2017-11-03 09:05,-69.9933,41.6875,M,M,M,0.00,0.00,M,30.13,M,0.50,M,VV ,M,M,M,200.00,M,M,M,FG,KCQX 030905Z AUTO 00000KT 1/2SM FG VV002 A3013 RMK MADISHF
HYA,2017-11-03 09:05,-70.2800,41.6700,M,M,M,0.00,0.00,M,30.11,M,1.00,M,VV ,M,M,M,200.00,M,M,M,BR,KHYA 030905Z AUTO 00000KT 1SM BR VV002 A3011 RMK MADISHF
BOS,2017-11-03 09:05,-71.0097,42.3606,M,M,M,200.00,5.00,M,30.09,M,10.00,M,M,M,M,M,M,M,M,M,M,KBOS 030905Z AUTO 20005KT 10SM A3009 RMK MADISHF
ORH,2017-11-03 09:05,-71.8757,42.2673,M,M,M,210.00,11.00,M,30.09,M,10.00,M,OVC,M,M,M,900.00,M,M,M,M,KORH 030905Z AUTO 21011KT 10SM OVC009 A3009 RMK CIG 7V14  MADISHF
ORE,2017-11-03 09:05,-72.2886,42.5701,M,M,M,130.00,4.00,M,30.07,M,10.00,M,BKN,M,M,M,1500.00,M,M,M,M,KORE 030905Z AUTO 13004KT 10SM BKN015 A3007 RMK MADISHF
BED,2017-11-03 09:05,-71.2890,42.4699,M,M,M,180.00,7.00,M,30.07,M,10.00,M,CLR,M,M,M,M,M,M,M,M,KBED 030905Z AUTO 18007KT 10SM CLR A3007 RMK MADISHF
OWD,2017-11-03 09:05,-71.1733,42.1912,M,M,M,170.00,3.00,M,30.09,M,10.00,M,CLR,M,M,M,M,M,M,M,M,KOWD 030905Z AUTO 17003KT 10SM CLR A3009 RMK MADISHF
TAN,2017-11-03 09:05,-71.0211,41.8756,M,M,M,0.00,0.00,M,30.10,M,0.75,M,VV ,M,M,M,300.00,M,M,M,BR,KTAN 030905Z AUTO 00000KT 1SM BR VV003 A3010 RMK MADISHF
PVC,2017-11-03 09:05,-70.2200,42.0700,M,M,M,180.00,7.00,M,30.13,M,10.00,M,M,M,M,M,M,M,M,M,M,KPVC 030905Z AUTO 18007KT 10SM A3013 RMK MADISHF
EWB,2017-11-03 09:05,-70.9583,41.6764,M,M,M,210.00,4.00,M,30.11,M,0.50,M,VV ,M,M,M,200.00,M,M,M,FG,KEWB 030905Z AUTO 21004KT 1/2SM FG VV002 A3011 RMK MADISHF
PYM,2017-11-03 09:05,-70.7288,41.9090,55.90,54.00,93.32,0.00,0.00,0.00,30.11,M,0.25,M,VV ,M,M,M,100.00,M,M,M,FG,KPYM 030905Z AUTO 00000KT 1/4SM FG VV001 13/12 A3011 RMK AO2 T01330122
TAN,2017-11-03 09:08,-71.0211,41.8756,48.90,48.00,96.69,0.00,0.00,0.00,30.10,M,1.25,M,FEW,M,M,M,300.00,M,M,M,BR,KTAN 030908Z AUTO 00000KT 1 1/4SM BR FEW003 09/09 A3010 RMK AO2 T00940089
FIT,2017-11-03 09:10,-71.7558,42.5519,M,M,M,180.00,4.00,M,30.08,M,10.00,M,SCT,M,M,M,1900.00,M,M,M,M,KFIT 030910Z AUTO 18004KT 10SM SCT019 A3008 RMK MADISHF
PYM,2017-11-03 09:10,-70.7288,41.9090,M,M,M,0.00,0.00,M,30.11,M,0.24,M,VV ,M,M,M,100.00,M,M,M,FG,KPYM 030910Z AUTO 00000KT 1/4SM FG VV001 A3011 RMK MADISHF
PVC,2017-11-03 09:10,-70.2200,42.0700,M,M,M,180.00,7.00,M,30.13,M,10.00,M,M,M,M,M,M,M,M,M,M,KPVC 030910Z AUTO 18007KT 10SM A3013 RMK MADISHF
CQX,2017-11-03 09:10,-69.9933,41.6875,M,M,M,160.00,3.00,M,30.13,M,0.75,M,VV ,M,M,M,200.00,M,M,M,BR,KCQX 030910Z AUTO 16003KT 1SM BR VV002 A3013 RMK MADISHF
BOS,2017-11-03 09:10,-71.0097,42.3606,M,M,M,200.00,6.00,M,30.09,M,10.00,M,M,M,M,M,M,M,M,M,M,KBOS 030910Z AUTO 20006KT 10SM A3009 RMK MADISHF
BED,2017-11-03 09:10,-71.2890,42.4699,M,M,M,190.00,7.00,M,30.07,M,10.00,M,CLR,M,M,M,M,M,M,M,M,KBED 030910Z AUTO 19007KT 10SM CLR A3007 RMK MADISHF
HYA,2017-11-03 09:10,-70.2800,41.6700,M,M,M,170.00,3.00,M,30.11,M,0.75,M,VV ,M,M,M,200.00,M,M,M,BR,KHYA 030910Z AUTO 17003KT 1SM BR VV002 A3011 RMK MADISHF
ORE,2017-11-03 09:10,-72.2886,42.5701,M,M,M,130.00,5.00,M,30.06,M,10.00,M,BKN,M,M,M,1500.00,M,M,M,M,KORE 030910Z AUTO 13005KT 10SM BKN015 A3006 RMK MADISHF
ORH,2017-11-03 09:10,-71.8757,42.2673,M,M,M,M,M,M,30.09,M,10.00,M,OVC,M,M,M,900.00,M,M,M,M,KORH 030910Z AUTO /////KT 10SM OVC009 A3009 RMK CIG 7V12  MADISHF
OWD,2017-11-03 09:10,-71.1733,42.1912,M,M,M,0.00,0.00,M,30.09,M,10.00,M,CLR,M,M,M,M,M,M,M,M,KOWD 030910Z AUTO 00000KT 10SM CLR A3009 RMK MADISHF
TAN,2017-11-03 09:10,-71.0211,41.8756,M,M,M,0.00,0.00,M,30.10,M,1.50,M,SCT,M,M,M,300.00,M,M,M,BR,KTAN 030910Z AUTO 00000KT 1 1/2SM BR SCT003 A3010 RMK MADISHF
EWB,2017-11-03 09:10,-70.9583,41.6764,M,M,M,200.00,4.00,M,30.11,M,0.50,M,VV ,M,M,M,300.00,M,M,M,FG,KEWB 030910Z AUTO 20004KT 1/2SM FG VV003 A3011 RMK MADISHF
TAN,2017-11-03 09:13,-71.0211,41.8756,48.90,46.90,92.77,0.00,0.00,0.00,30.10,M,2.00,M,SCT,M,M,M,300.00,M,M,M,BR,KTAN 030913Z AUTO 00000KT 2SM BR SCT003 09/08 A3010 RMK AO2 VIS 3/4V5 T00940083
PVC,2017-11-03 09:15,-70.2200,42.0700,M,M,M,180.00,7.00,M,30.12,M,10.00,M,M,M,M,M,M,M,M,M,M,KPVC 030915Z AUTO 18007KT 10SM A3012 RMK MADISHF
TAN,2017-11-03 09:15,-71.0211,41.8756,M,M,M,0.00,0.00,M,30.10,M,2.00,M,SCT,M,M,M,300.00,M,M,M,BR,KTAN 030915Z AUTO 00000KT 2SM BR SCT003 A3010 RMK MADISHF
PYM,2017-11-03 09:15,-70.7288,41.9090,M,M,M,0.00,0.00,M,30.11,M,0.25,M,VV ,M,M,M,100.00,M,M,M,FG,KPYM 030915Z AUTO 00000KT 1/4SM FG VV001 A3011 RMK MADISHF
FIT,2017-11-03 09:15,-71.7558,42.5519,M,M,M,200.00,4.00,M,30.08,M,10.00,M,SCT,M,M,M,1900.00,M,M,M,M,KFIT 030915Z AUTO 20004KT 10SM SCT019 A3008 RMK VRB04KT  MADISHF
ORE,2017-11-03 09:15,-72.2886,42.5701,M,M,M,150.00,5.00,M,30.06,M,10.00,M,BKN,BKN,M,M,1600.00,12000.00,M,M,M,KORE 030915Z AUTO 15005KT 10SM BKN016 BKN120 A3006 RMK MADISHF
BOS,2017-11-03 09:15,-71.0097,42.3606,M,M,M,210.00,7.00,M,30.09,M,10.00,M,M,M,M,M,M,M,M,M,M,KBOS 030915Z AUTO 21007KT 10SM A3009 RMK MADISHF
ORH,2017-11-03 09:15,-71.8757,42.2673,M,M,M,M,M,M,30.09,M,10.00,M,OVC,M,M,M,900.00,M,M,M,M,KORH 030915Z AUTO /////KT 10SM OVC009 A3009 RMK CIG 7V14  MADISHF
OWD,2017-11-03 09:15,-71.1733,42.1912,M,M,M,180.00,4.00,M,30.09,M,10.00,M,CLR,M,M,M,M,M,M,M,M,KOWD 030915Z AUTO 18004KT 10SM CLR A3009 RMK MADISHF
HYA,2017-11-03 09:15,-70.2800,41.6700,M,M,M,190.00,3.00,M,30.11,M,0.50,M,VV ,M,M,M,200.00,M,M,M,FG,KHYA 030915Z AUTO 19003KT 1/2SM FG VV002 A3011 RMK MADISHF
CQX,2017-11-03 09:15,-69.9933,41.6875,M,M,M,0.00,0.00,M,30.13,M,1.00,M,VV ,M,M,M,200.00,M,M,M,BR,KCQX 030915Z AUTO 00000KT 1SM BR VV002 A3013 RMK MADISHF
BED,2017-11-03 09:15,-71.2890,42.4699,M,M,M,200.00,7.00,M,30.07,M,10.00,M,CLR,M,M,M,M,M,M,M,M,KBED 030915Z AUTO 20007KT 10SM CLR A3007 RMK MADISHF
EWB,2017-11-03 09:15,-70.9583,41.6764,M,M,M,230.00,4.00,M,30.11,M,0.50,M,VV ,M,M,M,300.00,M,M,M,FG,KEWB 030915Z AUTO 23004KT 1/2SM FG VV003 A3011 RMK MADISHF
FMH,2017-11-03 09:15,-70.5215,41.6585,57.20,57.20,100.00,190.00,4.00,0.00,30.13,M,0.25,M,OVC,M,M,M,100.00,M,M,M,FG,KFMH 030915Z AUTO 19004KT M1/4SM FG OVC001 14/14 A3013 RMK AO2
GHG,2017-11-03 09:15,-70.6721,42.0982,55.40,55.40,100.00,210.00,4.00,0.00,30.10,M,10.00,M,CLR,M,M,M,M,M,M,M,M,KGHG 030915Z AUTO 21004KT 10SM CLR 13/13 A3010 RMK AO2
CQX,2017-11-03 09:19,-69.9933,41.6875,55.00,55.00,100.00,0.00,0.00,0.00,30.13,M,2.00,M,BKN,M,M,M,200.00,M,M,M,BR,KCQX 030919Z AUTO 00000KT 2SM BR BKN002 13/13 A3013 RMK AO2 T01280128
PVC,2017-11-03 09:20,-70.2200,42.0700,M,M,M,180.00,6.00,M,30.12,M,10.00,M,M,M,M,M,M,M,M,M,M,KPVC 030920Z AUTO 18006KT 10SM A3012 RMK MADISHF
BOS,2017-11-03 09:20,-71.0097,42.3606,M,M,M,210.00,7.00,M,30.09,M,10.00,M,M,M,M,M,M,M,M,M,M,KBOS 030920Z AUTO 21007KT 10SM A3009 RMK MADISHF
ORH,2017-11-03 09:20,-71.8757,42.2673,M,M,M,M,M,M,30.09,M,10.00,M,OVC,M,M,M,900.00,M,M,M,M,KORH 030920Z AUTO /////KT 10SM OVC009 A3009 RMK CIG 7V14  MADISHF
BED,2017-11-03 09:20,-71.2890,42.4699,M,M,M,200.00,9.00,M,30.07,M,10.00,M,CLR,M,M,M,M,M,M,M,M,KBED 030920Z AUTO 20009KT 10SM CLR A3007 RMK MADISHF
PYM,2017-11-03 09:20,-70.7288,41.9090,M,M,M,0.00,0.00,M,30.11,M,0.25,M,VV ,M,M,M,100.00,M,M,M,FG,KPYM 030920Z AUTO 00000KT 1/4SM FG VV001 A3011 RMK MADISHF
OWD,2017-11-03 09:20,-71.1733,42.1912,M,M,M,190.00,4.00,M,30.09,M,10.00,M,CLR,M,M,M,M,M,M,M,M,KOWD 030920Z AUTO 19004KT 10SM CLR A3009 RMK MADISHF
CQX,2017-11-03 09:20,-69.9933,41.6875,M,M,M,180.00,3.00,M,30.13,M,2.50,M,SCT,M,M,M,200.00,M,M,M,BR,KCQX 030920Z AUTO 18003KT 2 1/2SM BR SCT002 A3013 RMK MADISHF
EWB,2017-11-03 09:20,-70.9583,41.6764,M,M,M,220.00,4.00,M,30.11,M,0.75,M,VV ,M,M,M,300.00,M,M,M,BR,KEWB 030920Z AUTO 22004KT 1SM BR VV003 A3011 RMK MADISHF
HYA,2017-11-03 09:20,-70.2800,41.6700,M,M,M,200.00,5.00,M,30.11,M,0.25,M,VV ,M,M,M,200.00,M,M,M,FG,KHYA 030920Z AUTO 20005KT 1/4SM FG VV002 A3011 RMK MADISHF
ORE,2017-11-03 09:20,-72.2886,42.5701,M,M,M,150.00,5.00,M,30.06,M,10.00,M,SCT,BKN,M,M,1600.00,12000.00,M,M,M,KORE 030920Z AUTO 15005KT 10SM SCT016 BKN120 A3006 RMK MADISHF
FIT,2017-11-03 09:20,-71.7558,42.5519,M,M,M,190.00,5.00,M,30.08,M,10.00,M,BKN,M,M,M,1900.00,M,M,M,M,KFIT 030920Z AUTO 19005KT 10SM BKN019 A3008 RMK MADISHF
CQX,2017-11-03 09:21,-69.9933,41.6875,55.90,55.00,96.78,180.00,3.00,0.00,30.13,M,4.00,M,SCT,M,M,M,200.00,M,M,M,BR,KCQX 030921Z AUTO 18003KT 4SM BR SCT002 13/13 A3013 RMK AO2 T01330128
EWB,2017-11-03 09:23,-70.9583,41.6764,57.00,55.90,96.10,210.00,4.00,0.00,30.11,M,1.25,M,SCT,M,M,M,300.00,M,M,M,BR,KEWB 030923Z AUTO 21004KT 1 1/4SM R05/2600VP6000FT BR SCT003 14/13 A3011 RMK AO2 VIS 1/2V3 T01390133
FIT,2017-11-03 09:24,-71.7558,42.5519,66.00,61.00,83.91,200.00,5.00,0.00,30.07,M,10.00,M,BKN,M,M,M,1900.00,M,M,M,M,KFIT 030924Z AUTO 20005KT 10SM BKN019 19/16 A3007 RMK AO2 T01890161
HYA,2017-11-03 09:24,-70.2800,41.6700,60.10,60.10,100.00,180.00,3.00,0.00,30.11,M,0.25,M,VV ,M,M,M,200.00,M,M,M,FG,KHYA 030924Z AUTO 18003KT 1/4SM FG VV002 16/16 A3011 RMK AO2 T01560156
ORH,2017-11-03 09:25,-71.8757,42.2673,M,M,M,M,M,M,30.09,M,10.00,M,OVC,M,M,M,900.00,M,M,M,M,KORH 030925Z AUTO /////KT 10SM OVC009 A3009 RMK CIG 7V13  MADISHF
EWB,2017-11-03 09:25,-70.9583,41.6764,M,M,M,210.00,4.00,M,30.11,M,1.75,M,SCT,M,M,M,300.00,M,M,M,BR,KEWB 030925Z AUTO 21004KT 2SM BR SCT003 A3011 RMK MADISHF
OWD,2017-11-03 09:25,-71.1733,42.1912,M,M,M,0.00,0.00,M,30.09,M,10.00,M,CLR,M,M,M,M,M,M,M,M,KOWD 030925Z AUTO 00000KT 10SM CLR A3009 RMK MADISHF
HYA,2017-11-03 09:25,-70.2800,41.6700,M,M,M,190.00,4.00,M,30.11,M,0.24,M,VV ,M,M,M,200.00,M,M,M,FG,KHYA 030925Z AUTO 19004KT 1/4SM FG VV002 A3011 RMK MADISHF
ORE,2017-11-03 09:25,-72.2886,42.5701,M,M,M,150.00,6.00,M,30.06,M,10.00,M,SCT,BKN,M,M,1600.00,12000.00,M,M,M,KORE 030925Z AUTO 15006KT 10SM SCT016 BKN120 A3006 RMK MADISHF
BOS,2017-11-03 09:25,-71.0097,42.3606,M,M,M,220.00,8.00,M,30.08,M,10.00,M,M,M,M,M,M,M,M,M,M,KBOS 030925Z AUTO 22008KT 10SM A3008 RMK MADISHF
PVC,2017-11-03 09:25,-70.2200,42.0700,M,M,M,190.00,7.00,M,30.12,M,10.00,M,M,M,M,M,M,M,M,M,M,KPVC 030925Z AUTO 19007KT 10SM A3012 RMK MADISHF
CQX,2017-11-03 09:25,-69.9933,41.6875,M,M,M,0.00,0.00,M,30.13,M,6.00,M,SCT,M,M,M,200.00,M,M,M,BR,KCQX 030925Z AUTO 00000KT 6SM BR SCT002 A3013 RMK MADISHF
BED,2017-11-03 09:25,-71.2890,42.4699,M,M,M,200.00,8.00,M,30.06,M,10.00,M,CLR,M,M,M,M,M,M,M,M,KBED 030925Z AUTO 20008KT 10SM CLR A3006 RMK MADISHF
PYM,2017-11-03 09:25,-70.7288,41.9090,M,M,M,0.00,0.00,M,30.11,M,0.25,M,VV ,M,M,M,100.00,M,M,M,FG,KPYM 030925Z AUTO 00000KT 1/4SM FG VV001 A3011 RMK MADISHF
TAN,2017-11-03 09:25,-71.0211,41.8756,M,M,M,0.00,0.00,M,30.10,M,2.50,M,SCT,M,M,M,300.00,M,M,M,BR,KTAN 030925Z AUTO 00000KT 2 1/2SM BR SCT003 A3010 RMK MADISHF
ORE,2017-11-03 09:26,-72.2886,42.5701,60.10,59.00,96.15,150.00,5.00,0.00,30.06,M,10.00,M,SCT,BKN,M,M,1600.00,12000.00,M,M,M,KORE 030926Z AUTO 15005KT 10SM SCT016 BKN120 16/15 A3006 RMK AO2 T01560150 TSNO
TAN,2017-11-03 09:29,-71.0211,41.8756,48.90,46.90,92.77,0.00,0.00,0.00,30.10,M,1.25,M,SCT,M,M,M,300.00,M,M,M,BR,KTAN 030929Z AUTO 00000KT 1 1/4SM BR SCT003 09/08 A3010 RMK AO2 VIS 3/4V5 T00940083
EWB,2017-11-03 09:29,-70.9583,41.6764,55.90,55.90,100.00,220.00,4.00,0.00,30.11,M,0.75,M,VV ,M,M,M,400.00,M,M,M,BR,KEWB 030929Z AUTO 22004KT 3/4SM R05/2400VP6000FT BR VV004 13/13 A3011 RMK AO2 T01330133
FIT,2017-11-03 09:30,-71.7558,42.5519,M,M,M,200.00,7.00,M,30.07,M,10.00,M,BKN,M,M,M,1900.00,M,M,M,M,KFIT 030930Z AUTO 20007KT 10SM BKN019 A3007 RMK MADISHF
CQX,2017-11-03 09:30,-69.9933,41.6875,M,M,M,200.00,3.00,M,30.13,M,4.00,M,FEW,M,M,M,200.00,M,M,M,BR,KCQX 030930Z AUTO 20003KT 4SM BR FEW002 A3013 RMK MADISHF
PVC,2017-11-03 09:30,-70.2200,42.0700,M,M,M,190.00,7.00,M,30.12,M,10.00,M,M,M,M,M,M,M,M,M,M,KPVC 030930Z AUTO 19007KT 10SM A3012 RMK MADISHF
TAN,2017-11-03 09:30,-71.0211,41.8756,M,M,M,0.00,0.00,M,30.10,M,1.00,M,VV ,M,M,M,200.00,M,M,M,BR,KTAN 030930Z AUTO 00000KT 1SM BR VV002 A3010 RMK MADISHF
BED,2017-11-03 09:30,-71.2890,42.4699,M,M,M,210.00,8.00,M,30.07,M,10.00,M,CLR,M,M,M,M,M,M,M,M,KBED 030930Z AUTO 21008KT 10SM CLR A3007 RMK MADISHF
HYA,2017-11-03 09:30,-70.2800,41.6700,M,M,M,200.00,4.00,M,30.11,M,0.24,M,VV ,M,M,M,200.00,M,M,M,FG,KHYA 030930Z AUTO 20004KT 1/4SM FG VV002 A3011 RMK MADISHF
EWB,2017-11-03 09:30,-70.9583,41.6764,M,M,M,210.00,4.00,M,30.11,M,0.75,M,VV ,M,M,M,400.00,M,M,M,BR,KEWB 030930Z AUTO 21004KT 1SM BR VV004 A3011 RMK MADISHF
BOS,2017-11-03 09:30,-71.0097,42.3606,M,M,M,220.00,8.00,M,30.08,M,10.00,M,M,M,M,M,M,M,M,M,M,KBOS 030930Z AUTO 22008KT 10SM A3008 RMK MADISHF
OWD,2017-11-03 09:30,-71.1733,42.1912,M,M,M,0.00,0.00,M,30.09,M,10.00,M,CLR,M,M,M,M,M,M,M,M,KOWD 030930Z AUTO 00000KT 10SM CLR A3009 RMK MADISHF
ORE,2017-11-03 09:30,-72.2886,42.5701,M,M,M,160.00,5.00,M,30.05,M,10.00,M,FEW,BKN,M,M,1600.00,12000.00,M,M,M,KORE 030930Z AUTO 16005KT 10SM FEW016 BKN120 A3005 RMK MADISHF
ORH,2017-11-03 09:30,-71.8757,42.2673,M,M,M,210.00,12.00,M,30.09,M,10.00,M,OVC,M,M,M,900.00,M,M,M,M,KORH 030930Z AUTO 21012KT 10SM OVC009 A3009 RMK CIG 7V13  MADISHF
PYM,2017-11-03 09:34,-70.7288,41.9090,55.90,54.00,93.32,160.00,3.00,0.00,30.11,M,0.50,M,VV ,M,M,M,200.00,M,M,M,FG,KPYM 030934Z AUTO 16003KT 1/2SM FG VV002 13/12 A3011 RMK AO2 T01330122
TAN,2017-11-03 09:35,-71.0211,41.8756,M,M,M,0.00,0.00,M,30.10,M,1.00,M,VV ,M,M,M,300.00,M,M,M,BR,KTAN 030935Z AUTO 00000KT 1SM BR VV003 A3010 RMK MADISHF
ORE,2017-11-03 09:35,-72.2886,42.5701,M,M,M,150.00,5.00,M,30.05,M,10.00,M,FEW,BKN,M,M,1600.00,12000.00,M,M,M,KORE 030935Z AUTO 15005KT 10SM FEW016 BKN120 A3005 RMK MADISHF
EWB,2017-11-03 09:35,-70.9583,41.6764,M,M,M,200.00,4.00,M,30.10,M,0.50,M,VV ,M,M,M,300.00,M,M,M,FG,KEWB 030935Z AUTO 20004KT 1/2SM FG VV003 A3010 RMK MADISHF
OWD,2017-11-03 09:35,-71.1733,42.1912,M,M,M,0.00,0.00,M,30.09,M,10.00,M,CLR,M,M,M,M,M,M,M,M,KOWD 030935Z AUTO 00000KT 10SM CLR A3009 RMK MADISHF
HYA,2017-11-03 09:35,-70.2800,41.6700,M,M,M,190.00,4.00,M,30.11,M,0.24,M,VV ,M,M,M,200.00,M,M,M,FG,KHYA 030935Z AUTO 19004KT 1/4SM FG VV002 A3011 RMK MADISHF
PYM,2017-11-03 09:35,-70.7288,41.9090,M,M,M,160.00,3.00,M,30.11,M,0.50,M,VV ,M,M,M,200.00,M,M,M,FG,KPYM 030935Z AUTO 16003KT 1/2SM FG VV002 A3011 RMK MADISHF
PVC,2017-11-03 09:35,-70.2200,42.0700,M,M,M,180.00,7.00,M,30.12,M,10.00,M,M,M,M,M,M,M,M,M,M,KPVC 030935Z AUTO 18007KT 10SM A3012 RMK MADISHF
FIT,2017-11-03 09:35,-71.7558,42.5519,M,M,M,200.00,6.00,M,30.07,M,10.00,M,BKN,M,M,M,2100.00,M,M,M,M,KFIT 030935Z AUTO 20006KT 10SM BKN021 A3007 RMK MADISHF
ORH,2017-11-03 09:35,-71.8757,42.2673,M,M,M,210.00,11.00,M,30.09,M,10.00,M,OVC,M,M,M,900.00,M,M,M,M,KORH 030935Z AUTO 21011KT 10SM OVC009 A3009 RMK CIG 8V13  MADISHF
BOS,2017-11-03 09:35,-71.0097,42.3606,M,M,M,220.00,7.00,M,30.08,M,10.00,M,M,M,M,M,M,M,M,M,M,KBOS 030935Z AUTO 22007KT 10SM A3008 RMK MADISHF
BED,2017-11-03 09:35,-71.2890,42.4699,M,M,M,220.00,8.00,M,30.07,M,10.00,M,CLR,M,M,M,M,M,M,M,M,KBED 030935Z AUTO 22008KT 10SM CLR A3007 RMK MADISHF
GHG,2017-11-03 09:35,-70.6721,42.0982,57.20,57.20,100.00,200.00,4.00,0.00,30.09,M,10.00,M,CLR,M,M,M,M,M,M,M,M,KGHG 030935Z AUTO 20004KT 10SM CLR 14/14 A3009 RMK AO2
FMH,2017-11-03 09:35,-70.5215,41.6585,57.20,57.20,100.00,190.00,5.00,0.00,30.13,M,0.25,M,OVC,M,M,M,200.00,M,M,M,FG,KFMH 030935Z AUTO 19005KT 1/4SM FG OVC002 14/14 A3013 RMK AO2
TAN,2017-11-03 09:36,-71.0211,41.8756,48.90,46.90,92.77,0.00,0.00,0.00,30.10,M,0.75,M,VV ,M,M,M,300.00,M,M,M,BR,KTAN 030936Z AUTO 00000KT 3/4SM BR VV003 09/08 A3010 RMK AO2 T00940083
PYM,2017-11-03 09:40,-70.7288,41.9090,M,M,M,160.00,3.00,M,30.11,M,1.25,M,BKN,M,M,M,200.00,M,M,M,BR,KPYM 030940Z AUTO 16003KT 1 1/2SM BR BKN002 A3011 RMK MADISHF
BOS,2017-11-03 09:40,-71.0097,42.3606,M,M,M,230.00,9.00,M,30.08,M,10.00,M,M,M,M,M,M,M,M,M,M,KBOS 030940Z AUTO 23009KT 10SM A3008 RMK MADISHF
ORH,2017-11-03 09:40,-71.8757,42.2673,M,M,M,M,M,M,30.08,M,10.00,M,OVC,M,M,M,900.00,M,M,M,M,KORH 030940Z AUTO /////KT 10SM OVC009 A3008 RMK CIG 8V12  MADISHF
OWD,2017-11-03 09:40,-71.1733,42.1912,M,M,M,0.00,0.00,M,30.08,M,10.00,M,CLR,M,M,M,M,M,M,M,M,KOWD 030940Z AUTO 00000KT 10SM CLR A3008 RMK MADISHF
HYA,2017-11-03 09:40,-70.2800,41.6700,M,M,M,190.00,5.00,M,30.11,M,0.24,M,VV ,M,M,M,200.00,M,M,M,FG,KHYA 030940Z AUTO 19005KT 1/4SM FG VV002 A3011 RMK MADISHF
CQX,2017-11-03 09:40,-69.9933,41.6875,M,M,M,0.00,0.00,M,30.13,M,4.00,M,FEW,M,M,M,100.00,M,M,M,BR,KCQX 030940Z AUTO 00000KT 4SM BR FEW001 A3013 RMK MADISHF
ORE,2017-11-03 09:40,-72.2886,42.5701,M,M,M,170.00,8.00,M,30.04,M,10.00,M,FEW,SCT,M,M,1600.00,12000.00,M,M,M,KORE 030940Z AUTO 17008KT 10SM FEW016 SCT120 A3004 RMK MADISHF
FIT,2017-11-03 09:40,-71.7558,42.5519,M,M,M,190.00,7.00,M,30.07,M,10.00,M,BKN,M,M,M,2100.00,M,M,M,M,KFIT 030940Z AUTO 19007KT 10SM BKN021 A3007 RMK MADISHF
PVC,2017-11-03 09:40,-70.2200,42.0700,M,M,M,170.00,8.00,M,30.12,M,10.00,M,M,M,M,M,M,M,M,M,M,KPVC 030940Z AUTO 17008KT 10SM A3012 RMK MADISHF
EWB,2017-11-03 09:40,-70.9583,41.6764,M,M,M,200.00,4.00,M,30.10,M,0.50,M,VV ,M,M,M,300.00,M,M,M,FG,KEWB 030940Z AUTO 20004KT 1/2SM FG VV003 A3010 RMK MADISHF
BED,2017-11-03 09:40,-71.2890,42.4699,M,M,M,220.00,8.00,M,30.07,M,10.00,M,CLR,M,M,M,M,M,M,M,M,KBED 030940Z AUTO 22008KT 10SM CLR A3007 RMK MADISHF
PYM,2017-11-03 09:42,-70.7288,41.9090,57.00,55.00,93.01,160.00,3.00,0.00,30.11,M,2.00,M,BKN,M,M,M,200.00,M,M,M,BR,KPYM 030942Z AUTO 16003KT 2SM BR BKN002 14/13 A3011 RMK AO2 T01390128
CQX,2017-11-03 09:44,-69.9933,41.6875,55.00,55.00,100.00,250.00,3.00,0.00,30.13,M,1.75,M,SCT,M,M,M,100.00,M,M,M,BR,KCQX 030944Z AUTO 25003KT 1 3/4SM BR SCT001 13/13 A3013 RMK AO2 T01280128
PVC,2017-11-03 09:45,-70.2200,42.0700,M,M,M,170.00,7.00,M,30.11,M,7.00,M,M,M,M,M,M,M,M,M,M,KPVC 030945Z AUTO 17007KT 7SM A3011 RMK MADISHF
CQX,2017-11-03 09:45,-69.9933,41.6875,M,M,M,240.00,3.00,M,30.12,M,1.75,M,SCT,M,M,M,100.00,M,M,M,BR,KCQX 030945Z AUTO 24003KT 2SM BR SCT001 A3012 RMK MADISHF
EWB,2017-11-03 09:45,-70.9583,41.6764,M,M,M,200.00,4.00,M,30.10,M,0.25,M,VV ,M,M,M,200.00,M,M,M,FG,KEWB 030945Z AUTO 20004KT 1/4SM FG VV002 A3010 RMK MADISHF
OWD,2017-11-03 09:45,-71.1733,42.1912,M,M,M,160.00,3.00,M,30.08,M,10.00,M,CLR,M,M,M,M,M,M,M,M,KOWD 030945Z AUTO 16003KT 10SM CLR A3008 RMK MADISHF
PYM,2017-11-03 09:45,-70.7288,41.9090,M,M,M,170.00,4.00,M,30.10,M,4.00,M,BKN,M,M,M,200.00,M,M,M,BR,KPYM 030945Z AUTO 17004KT 4SM BR BKN002 A3010 RMK MADISHF
TAN,2017-11-03 09:45,-71.0211,41.8756,M,M,M,0.00,0.00,M,30.10,M,0.75,M,VV ,M,M,M,300.00,M,M,M,BR,KTAN 030945Z AUTO 00000KT 1SM BR VV003 A3010 RMK MADISHF
BED,2017-11-03 09:45,-71.2890,42.4699,M,M,M,210.00,8.00,M,30.06,M,10.00,M,CLR,M,M,M,M,M,M,M,M,KBED 030945Z AUTO 21008KT 10SM CLR A3006 RMK MADISHF
HYA,2017-11-03 09:45,-70.2800,41.6700,M,M,M,200.00,5.00,M,30.11,M,0.24,M,VV ,M,M,M,100.00,M,M,M,FG,KHYA 030945Z AUTO 20005KT 1/4SM FG VV001 A3011 RMK MADISHF
BOS,2017-11-03 09:45,-71.0097,42.3606,M,M,M,220.00,9.00,M,30.08,M,10.00,M,M,M,M,M,M,M,M,M,M,KBOS 030945Z AUTO 22009KT 10SM A3008 RMK MADISHF
ORH,2017-11-03 09:45,-71.8757,42.2673,M,M,M,220.00,11.00,M,30.08,M,10.00,M,OVC,M,M,M,900.00,M,M,M,M,KORH 030945Z AUTO 22011KT 10SM OVC009 A3008 RMK CIG 8V12  MADISHF
ORE,2017-11-03 09:45,-72.2886,42.5701,M,M,M,170.00,8.00,M,30.04,M,10.00,M,FEW,M,M,M,12000.00,M,M,M,M,KORE 030945Z AUTO 17008KT 10SM FEW120 A3004 RMK MADISHF
FIT,2017-11-03 09:48,-71.7558,42.5519,66.20,60.80,82.74,200.00,8.00,0.00,30.07,M,10.00,M,SCT,M,M,M,2100.00,M,M,M,M,KFIT 030948Z AUTO 20008KT 10SM SCT021 19/16 A3007 RMK AO2
CQX,2017-11-03 09:50,-69.9933,41.6875,M,M,M,0.00,0.00,M,30.12,M,1.00,M,VV ,M,M,M,400.00,M,M,M,BR,KCQX 030950Z AUTO 00000KT 1SM BR VV004 A3012 RMK MADISHF
PVC,2017-11-03 09:50,-70.2200,42.0700,M,M,M,180.00,7.00,M,30.11,M,3.50,M,M,M,M,M,M,M,M,M,BR,KPVC 030950Z AUTO 18007KT 3SM BR A3011 RMK MADISHF
TAN,2017-11-03 09:50,-71.0211,41.8756,M,M,M,0.00,0.00,M,30.10,M,0.50,M,VV ,M,M,M,300.00,M,M,M,FG,KTAN 030950Z AUTO 00000KT 1/2SM FG VV003 A3010 RMK MADISHF
BOS,2017-11-03 09:50,-71.0097,42.3606,M,M,M,220.00,9.00,M,30.08,M,10.00,M,M,M,M,M,M,M,M,M,M,KBOS 030950Z AUTO 22009KT 10SM A3008 RMK MADISHF
BED,2017-11-03 09:50,-71.2890,42.4699,M,M,M,210.00,10.00,M,30.06,M,10.00,M,CLR,M,M,M,M,M,M,M,M,KBED 030950Z AUTO 21010KT 10SM CLR A3006 RMK MADISHF
HYA,2017-11-03 09:50,-70.2800,41.6700,M,M,M,200.00,5.00,M,30.11,M,0.24,M,VV ,M,M,M,100.00,M,M,M,FG,KHYA 030950Z AUTO 20005KT 1/4SM FG VV001 A3011 RMK MADISHF
ORH,2017-11-03 09:50,-71.8757,42.2673,M,M,M,220.00,11.00,M,30.09,M,10.00,M,OVC,M,M,M,900.00,M,M,M,M,KORH 030950Z AUTO 22011KT 10SM OVC009 A3009 RMK CIG 8V14  MADISHF
ORE,2017-11-03 09:50,-72.2886,42.5701,M,M,M,180.00,9.00,M,30.04,M,10.00,14.00,FEW,M,M,M,12000.00,M,M,M,M,KORE 030950Z AUTO 18009G14KT 10SM FEW120 A3004 RMK MADISHF
FIT,2017-11-03 09:50,-71.7558,42.5519,M,M,M,200.00,7.00,M,30.07,M,10.00,M,SCT,M,M,M,2100.00,M,M,M,M,KFIT 030950Z AUTO 20007KT 10SM SCT021 A3007 RMK MADISHF
OWD,2017-11-03 09:50,-71.1733,42.1912,M,M,M,160.00,4.00,M,30.08,M,10.00,M,CLR,M,M,M,M,M,M,M,M,KOWD 030950Z AUTO 16004KT 10SM CLR A3008 RMK MADISHF
EWB,2017-11-03 09:50,-70.9583,41.6764,55.40,55.40,100.00,200.00,4.00,0.00,30.10,M,0.25,M,VV ,M,M,M,200.00,M,M,M,FG,KEWB 030950Z AUTO 20004KT 1/4SM R05/2000V3000FT FG VV002 13/13 A3010 RMK AO2
PYM,2017-11-03 09:50,-70.7288,41.9090,57.20,55.40,93.69,160.00,4.00,0.00,30.10,M,4.00,M,BKN,M,M,M,200.00,M,M,M,BR,KPYM 030950Z AUTO 16004KT 4SM BR BKN002 14/13 A3010 RMK AO2
TAN,2017-11-03 09:52,-71.0211,41.8756,48.00,46.90,95.95,0.00,0.00,0.00,30.10,1019.10,0.50,M,VV ,M,M,M,300.00,M,M,M,FG,KTAN 030952Z AUTO 00000KT 1/2SM FG VV003 09/08 A3010 RMK AO2 SLP191 T00890083
FIT,2017-11-03 09:52,-71.7558,42.5519,66.00,61.00,83.91,190.00,5.00,0.00,30.07,1018.00,10.00,M,SCT,M,M,M,2300.00,M,M,M,M,KFIT 030952Z AUTO 19005KT 10SM SCT023 19/16 A3007 RMK AO2 SLP180 T01890161
ORE,2017-11-03 09:52,-72.2886,42.5701,60.10,59.00,96.15,180.00,10.00,0.00,30.04,1017.20,10.00,M,CLR,M,M,M,M,M,M,M,M,KORE 030952Z AUTO 18010KT 10SM CLR 16/15 A3004 RMK AO2 SLP172 T01560150 TSNO
PYM,2017-11-03 09:52,-70.7288,41.9090,57.00,55.90,96.10,160.00,5.00,0.00,30.10,1019.20,3.00,M,BKN,M,M,M,200.00,M,M,M,BR,KPYM 030952Z AUTO 16005KT 3SM BR BKN002 14/13 A3010 RMK AO2 SLP192 T01390133
CQX,2017-11-03 09:52,-69.9933,41.6875,54.00,54.00,100.00,0.00,0.00,0.00,30.12,1020.20,0.75,M,VV ,M,M,M,400.00,M,M,M,BR,KCQX 030952Z AUTO 00000KT 3/4SM BR VV004 12/12 A3012 RMK AO2 SLP202 T01220122
OWD,2017-11-03 09:53,-71.1733,42.1912,57.90,55.90,93.04,150.00,3.00,0.00,30.08,1018.60,10.00,M,CLR,M,M,M,M,M,M,M,M,KOWD 030953Z AUTO 15003KT 10SM CLR 14/13 A3008 RMK AO2 SLP186 T01440133
EWB,2017-11-03 09:53,-70.9583,41.6764,55.00,55.00,100.00,200.00,4.00,0.00,30.10,1019.10,0.25,M,VV ,M,M,M,200.00,M,M,M,FG,KEWB 030953Z AUTO 20004KT 1/4SM R05/2000V4000FT FG VV002 13/13 A3010 RMK AO2 SLP191 T01280128
ORH,2017-11-03 09:54,-71.8757,42.2673,60.10,57.00,89.48,220.00,12.00,0.00,30.09,1018.70,10.00,M,OVC,M,M,M,900.00,M,M,M,M,KORH 030954Z AUTO 22012KT 10SM OVC009 16/14 A3009 RMK AO2 CIG 008V014 SLP187 T01560139
BOS,2017-11-03 09:54,-71.0097,42.3606,60.10,55.90,85.99,230.00,8.00,0.00,30.08,1018.40,10.00,M,FEW,FEW,BKN,M,15000.00,20000.00,25000.00,M,M,KBOS 030954Z 23008KT 10SM FEW150 FEW200 BKN250 16/13 A3008 RMK AO2 SLP184 T01560133
PYM,2017-11-03 09:55,-70.7288,41.9090,M,M,M,170.00,4.00,M,30.10,M,2.50,M,BKN,M,M,M,200.00,M,M,M,BR,KPYM 030955Z AUTO 17004KT 2 1/2SM BR BKN002 A3010 RMK MADISHF
TAN,2017-11-03 09:55,-71.0211,41.8756,M,M,M,0.00,0.00,M,30.10,M,0.50,M,VV ,M,M,M,300.00,M,M,M,FG,KTAN 030955Z AUTO 00000KT 1/2SM FG VV003 A3010 RMK MADISHF
PVC,2017-11-03 09:55,-70.2200,42.0700,M,M,M,180.00,6.00,M,30.11,M,2.00,M,M,M,M,M,M,M,M,M,BR,KPVC 030955Z AUTO 18006KT 2SM BR A3011 RMK MADISHF
ORE,2017-11-03 09:55,-72.2886,42.5701,M,M,M,170.00,11.00,M,30.04,M,10.00,M,CLR,M,M,M,M,M,M,M,M,KORE 030955Z AUTO 17011KT 10SM CLR A3004 RMK MADISHF
FIT,2017-11-03 09:55,-71.7558,42.5519,M,M,M,180.00,6.00,M,30.06,M,10.00,M,SCT,M,M,M,2300.00,M,M,M,M,KFIT 030955Z AUTO 18006KT 10SM SCT023 A3006 RMK MADISHF
BOS,2017-11-03 09:55,-71.0097,42.3606,M,M,M,220.00,8.00,M,30.08,M,10.00,M,CLR,M,M,M,M,M,M,M,M,KBOS 030955Z AUTO 22008KT 10SM CLR A3008 RMK MADISHF
OWD,2017-11-03 09:55,-71.1733,42.1912,M,M,M,150.00,3.00,M,30.08,M,10.00,M,CLR,M,M,M,M,M,M,M,M,KOWD 030955Z AUTO 15003KT 10SM CLR A3008 RMK MADISHF
BED,2017-11-03 09:55,-71.2890,42.4699,M,M,M,210.00,9.00,M,30.06,M,10.00,M,CLR,M,M,M,M,M,M,M,M,KBED 030955Z AUTO 21009KT 10SM CLR A3006 RMK MADISHF
EWB,2017-11-03 09:55,-70.9583,41.6764,M,M,M,200.00,4.00,M,30.10,M,0.25,M,VV ,M,M,M,200.00,M,M,M,FG,KEWB 030955Z AUTO 20004KT 1/4SM FG VV002 A3010 RMK MADISHF
ORH,2017-11-03 09:55,-71.8757,42.2673,M,M,M,M,M,M,30.09,M,10.00,M,OVC,M,M,M,999.00,M,M,M,M,KORH 030955Z AUTO /////KT 10SM OVC009 A3009 RMK CIG 8V14  MADISHF
HYA,2017-11-03 09:55,-70.2800,41.6700,M,M,M,220.00,8.00,M,30.11,M,0.24,M,VV ,M,M,M,100.00,M,M,M,FG,KHYA 030955Z AUTO 22008KT 1/4SM FG VV001 A3011 RMK MADISHF
GHG,2017-11-03 09:55,-70.6721,42.0982,55.40,55.40,100.00,190.00,4.00,0.00,30.09,M,10.00,M,CLR,M,M,M,M,M,M,M,M,KGHG 030955Z AUTO 19004KT 10SM CLR 13/13 A3009 RMK AO2
FMH,2017-11-03 09:55,-70.5215,41.6585,57.20,57.20,100.00,230.00,4.00,0.00,30.12,M,0.25,M,OVC,M,M,M,200.00,M,M,M,FG,KFMH 030955Z AUTO 23004KT 1/4SM FG OVC002 14/14 A3012 RMK AO2
PVC,2017-11-03 09:56,-70.2200,42.0700,57.90,57.00,96.81,180.00,6.00,0.00,30.11,1019.50,1.75,M,M,M,M,M,M,M,M,M,BR,KPVC 030956Z AUTO 18006KT 1 3/4SM BR 14/14 A3011 RMK AO2 SLP195 T01440139 $
HYA,2017-11-03 09:56,-70.2800,41.6700,60.10,59.00,96.15,220.00,8.00,0.00,30.11,1019.70,0.25,M,VV ,M,M,M,100.00,M,M,M,FG,KHYA 030956Z 22008KT 1/4SM FG VV001 16/15 A3011 RMK AO2 SLP197 T01560150
BED,2017-11-03 09:56,-71.2890,42.4699,60.10,55.90,85.99,220.00,9.00,0.00,30.06,1019.00,10.00,M,CLR,M,M,M,M,M,M,M,M,KBED 030956Z AUTO 22009KT 10SM CLR 16/13 A3006 RMK AO2 SLP190 T01560133
MQE,2017-11-03 09:56,-71.1142,42.2121,57.00,54.00,89.68,200.00,14.00,0.00,30.08,1019.50,M,M,M,M,M,M,M,M,M,M,M,KMQE 030956Z AUTO 20014KT 14/12 A3008 RMK AO1 SLP195 T01390122
PYM,2017-11-03 09:59,-70.7288,41.9090,57.90,55.90,93.04,190.00,3.00,0.00,30.10,M,1.75,M,BKN,BKN,M,M,200.00,500.00,M,M,BR,KPYM 030959Z AUTO 19003KT 1 3/4SM BR BKN002 BKN005 14/13 A3010 RMK AO2 T01440133
PVC,2017-11-03 10:00,-70.2200,42.0700,M,M,M,170.00,7.00,M,30.11,M,1.50,M,M,M,M,M,M,M,M,M,BR,KPVC 031000Z AUTO 17007KT 1 1/2SM BR A3011 RMK MADISHF
PYM,2017-11-03 10:00,-70.7288,41.9090,M,M,M,190.00,4.00,M,30.10,M,1.75,M,BKN,M,M,M,200.00,M,M,M,BR,KPYM 031000Z AUTO 19004KT 2SM BR BKN002 A3010 RMK MADISHF
HYA,2017-11-03 10:00,-70.2800,41.6700,M,M,M,220.00,6.00,M,30.11,M,0.24,M,VV ,M,M,M,100.00,M,M,M,FG,KHYA 031000Z AUTO 22006KT 1/4SM FG VV001 A3011 RMK MADISHF
CQX,2017-11-03 10:00,-69.9933,41.6875,M,M,M,220.00,3.00,M,30.12,M,0.75,M,FEW,BKN,M,M,100.00,499.00,M,M,BR,KCQX 031000Z AUTO 22003KT 1SM BR FEW001 BKN004 A3012 RMK MADISHF
BOS,2017-11-03 10:00,-71.0097,42.3606,M,M,M,220.00,9.00,M,30.08,M,10.00,M,CLR,M,M,M,M,M,M,M,M,KBOS 031000Z AUTO 22009KT 10SM CLR A3008 RMK MADISHF
BED,2017-11-03 10:00,-71.2890,42.4699,M,M,M,210.00,11.00,M,30.06,M,10.00,M,CLR,M,M,M,M,M,M,M,M,KBED 031000Z AUTO 21011KT 10SM CLR A3006 RMK MADISHF
EWB,2017-11-03 10:00,-70.9583,41.6764,M,M,M,200.00,4.00,M,30.10,M,0.25,M,VV ,M,M,M,200.00,M,M,M,FG,KEWB 031000Z AUTO 20004KT 1/4SM FG VV002 A3010 RMK MADISHF
OWD,2017-11-03 10:00,-71.1733,42.1912,M,M,M,0.00,0.00,M,30.08,M,10.00,M,CLR,M,M,M,M,M,M,M,M,KOWD 031000Z AUTO 00000KT 10SM CLR A3008 RMK MADISHF
ORH,2017-11-03 10:00,-71.8757,42.2673,M,M,M,M,M,M,30.08,M,10.00,M,BKN,OVC,M,M,999.00,1400.00,M,M,M,KORH 031000Z AUTO /////KT 10SM BKN009 OVC014 A3008 RMK CIG 8V12  MADISHF
ORE,2017-11-03 10:00,-72.2886,42.5701,M,M,M,180.00,11.00,M,30.04,M,10.00,M,CLR,M,M,M,M,M,M,M,M,KORE 031000Z AUTO 18011KT 10SM CLR A3004 RMK MADISHF
FIT,2017-11-03 10:00,-71.7558,42.5519,M,M,M,190.00,6.00,M,30.06,M,10.00,M,FEW,M,M,M,2300.00,M,M,M,M,KFIT 031000Z AUTO 19006KT 10SM FEW023 A3006 RMK MADISHF
ORH,2017-11-03 10:01,-71.8757,42.2673,60.10,57.00,89.48,220.00,13.00,0.00,30.08,M,10.00,M,BKN,OVC,M,M,1000.00,1400.00,M,M,M,KORH 031001Z AUTO 22013KT 10SM BKN010 OVC014 16/14 A3008 RMK AO2 CIG 008V012 T01560139
PYM,2017-11-03 10:05,-70.7288,41.9090,M,M,M,200.00,3.00,M,30.10,M,1.25,M,OVC,M,M,M,200.00,M,M,M,BR,KPYM 031005Z AUTO 20003KT 1 1/2SM BR OVC002 A3010 RMK MADISHF
PVC,2017-11-03 10:05,-70.2200,42.0700,M,M,M,170.00,7.00,M,30.11,M,1.50,M,M,M,M,M,M,M,M,M,BR,KPVC 031005Z AUTO 17007KT 1 1/2SM BR A3011 RMK MADISHF
BOS,2017-11-03 10:05,-71.0097,42.3606,M,M,M,210.00,6.00,M,30.08,M,10.00,M,CLR,M,M,M,M,M,M,M,M,KBOS 031005Z AUTO 21006KT 10SM CLR A3008 RMK MADISHF
OWD,2017-11-03 10:05,-71.1733,42.1912,M,M,M,0.00,0.00,M,30.08,M,10.00,M,CLR,M,M,M,M,M,M,M,M,KOWD 031005Z AUTO 00000KT 10SM CLR A3008 RMK MADISHF
ORH,2017-11-03 10:05,-71.8757,42.2673,M,M,M,M,M,M,30.08,M,10.00,M,BKN,OVC,M,M,999.00,1400.00,M,M,M,KORH 031005Z AUTO /////KT 10SM BKN009 OVC014 A3008 RMK CIG 8V12  MADISHF
CQX,2017-11-03 10:05,-69.9933,41.6875,M,M,M,0.00,0.00,M,30.12,M,0.75,M,FEW,OVC,M,M,100.00,499.00,M,M,BR,KCQX 031005Z AUTO 00000KT 1SM BR FEW001 OVC004 A3012 RMK MADISHF
EWB,2017-11-03 10:05,-70.9583,41.6764,M,M,M,200.00,5.00,M,30.09,M,0.50,M,VV ,M,M,M,200.00,M,M,M,FG,KEWB 031005Z AUTO 20005KT 1/2SM FG VV002 A3009 RMK MADISHF
TAN,2017-11-03 10:05,-71.0211,41.8756,M,M,M,0.00,0.00,M,30.09,M,0.50,M,VV ,M,M,M,300.00,M,M,M,FG,KTAN 031005Z AUTO 00000KT 1/2SM FG VV003 A3009 RMK MADISHF
BED,2017-11-03 10:05,-71.2890,42.4699,M,M,M,210.00,10.00,M,30.06,M,10.00,M,CLR,M,M,M,M,M,M,M,M,KBED 031005Z AUTO 21010KT 10SM CLR A3006 RMK MADISHF
HYA,2017-11-03 10:05,-70.2800,41.6700,M,M,M,210.00,6.00,M,30.11,M,0.24,M,VV ,M,M,M,100.00,M,M,M,FG,KHYA 031005Z AUTO 21006KT 1/4SM FG VV001 A3011 RMK MADISHF
ORE,2017-11-03 10:05,-72.2886,42.5701,M,M,M,180.00,9.00,M,30.03,M,10.00,M,CLR,M,M,M,M,M,M,M,M,KORE 031005Z AUTO 18009KT 10SM CLR A3003 RMK MADISHF
CQX,2017-11-03 10:10,-69.9933,41.6875,M,M,M,200.00,3.00,M,30.12,M,0.50,M,VV ,M,M,M,400.00,M,M,M,FG,KCQX 031010Z AUTO 20003KT 1/2SM FG VV004 A3012 RMK MADISHF
TAN,2017-11-03 10:10,-71.0211,41.8756,M,M,M,0.00,0.00,M,30.10,M,0.75,M,VV ,M,M,M,300.00,M,M,M,BR,KTAN 031010Z AUTO 00000KT 1SM BR VV003 A3010 RMK MADISHF
EWB,2017-11-03 10:10,-70.9583,41.6764,M,M,M,190.00,5.00,M,30.09,M,0.50,M,VV ,M,M,M,200.00,M,M,M,FG,KEWB 031010Z AUTO 19005KT 1/2SM FG VV002 A3009 RMK MADISHF
ORH,2017-11-03 10:10,-71.8757,42.2673,M,M,M,M,M,M,30.08,M,10.00,M,BKN,M,M,M,999.00,M,M,M,M,KORH 031010Z AUTO /////KT 10SM BKN009 A3008 RMK MADISHF
ORE,2017-11-03 10:10,-72.2886,42.5701,M,M,M,180.00,10.00,M,30.04,M,10.00,M,CLR,M,M,M,M,M,M,M,M,KORE 031010Z AUTO 18010KT 10SM CLR A3004 RMK MADISHF
FIT,2017-11-03 10:10,-71.7558,42.5519,M,M,M,190.00,7.00,M,30.06,M,10.00,M,FEW,M,M,M,2300.00,M,M,M,M,KFIT 031010Z AUTO 19007KT 10SM FEW023 A3006 RMK MADISHF
BOS,2017-11-03 10:10,-71.0097,42.3606,M,M,M,210.00,8.00,M,30.08,M,10.00,M,CLR,M,M,M,M,M,M,M,M,KBOS 031010Z AUTO 21008KT 10SM CLR A3008 RMK MADISHF
PYM,2017-11-03 10:10,-70.7288,41.9090,M,M,M,210.00,5.00,M,30.10,M,1.00,M,OVC,M,M,M,200.00,M,M,M,BR,KPYM 031010Z AUTO 21005KT 1SM BR OVC002 A3010 RMK MADISHF
BED,2017-11-03 10:10,-71.2890,42.4699,M,M,M,210.00,10.00,M,30.06,M,10.00,M,CLR,M,M,M,M,M,M,M,M,KBED 031010Z AUTO 21010KT 10SM CLR A3006 RMK MADISHF
OWD,2017-11-03 10:10,-71.1733,42.1912,M,M,M,0.00,0.00,M,30.08,M,10.00,M,CLR,M,M,M,M,M,M,M,M,KOWD 031010Z AUTO 00000KT 10SM CLR A3008 RMK MADISHF
PVC,2017-11-03 10:10,-70.2200,42.0700,M,M,M,170.00,6.00,M,30.11,M,1.25,M,M,M,M,M,M,M,M,M,BR,KPVC 031010Z AUTO 17006KT 1 1/2SM BR A3011 RMK MADISHF
HYA,2017-11-03 10:10,-70.2800,41.6700,M,M,M,210.00,5.00,M,30.10,M,0.24,M,VV ,M,M,M,100.00,M,M,M,FG,KHYA 031010Z AUTO 21005KT 1/4SM FG VV001 A3010 RMK MADISHF
EWB,2017-11-03 10:11,-70.9583,41.6764,55.90,55.90,100.00,190.00,5.00,0.00,30.09,M,0.50,M,VV ,M,M,M,200.00,M,M,M,FG,KEWB 031011Z 19005KT 1/2SM R05/2600VP6000FT FG VV002 13/13 A3009 RMK AO2 T01330133
TAN,2017-11-03 10:13,-71.0211,41.8756,48.90,46.00,89.67,0.00,0.00,0.00,30.10,M,1.50,M,BKN,M,M,M,300.00,M,M,M,BR,KTAN 031013Z AUTO 00000KT 1 1/2SM BR BKN003 09/08 A3010 RMK AO2 T00940078
ORE,2017-11-03 10:15,-72.2886,42.5701,M,M,M,180.00,10.00,M,30.04,M,10.00,M,CLR,M,M,M,M,M,M,M,M,KORE 031015Z AUTO 18010KT 10SM CLR A3004 RMK MADISHF
PYM,2017-11-03 10:15,-70.7288,41.9090,M,M,M,200.00,4.00,M,30.10,M,0.50,M,OVC,M,M,M,200.00,M,M,M,FG,KPYM 031015Z AUTO 20004KT 1/2SM FG OVC002 A3010 RMK MADISHF
PVC,2017-11-03 10:15,-70.2200,42.0700,M,M,M,170.00,8.00,M,30.10,M,1.00,M,M,M,M,M,M,M,M,M,BR,KPVC 031015Z AUTO 17008KT 1SM BR A3010 RMK MADISHF
HYA,2017-11-03 10:15,-70.2800,41.6700,M,M,M,200.00,4.00,M,30.10,M,0.24,M,VV ,M,M,M,200.00,M,M,M,FG,KHYA 031015Z AUTO 20004KT 1/4SM FG VV002 A3010 RMK MADISHF
BED,2017-11-03 10:15,-71.2890,42.4699,M,M,M,210.00,9.00,M,30.05,M,10.00,M,CLR,M,M,M,M,M,M,M,M,KBED 031015Z AUTO 21009KT 10SM CLR A3005 RMK MADISHF
ORH,2017-11-03 10:15,-71.8757,42.2673,M,M,M,M,M,M,30.08,M,10.00,M,BKN,M,M,M,999.00,M,M,M,M,KORH 031015Z AUTO /////KT 10SM BKN009 A3008 RMK MADISHF
EWB,2017-11-03 10:15,-70.9583,41.6764,M,M,M,200.00,4.00,M,30.09,M,0.25,M,VV ,M,M,M,200.00,M,M,M,FG,KEWB 031015Z AUTO 20004KT 1/4SM FG VV002 A3009 RMK MADISHF
BOS,2017-11-03 10:15,-71.0097,42.3606,M,M,M,220.00,10.00,M,30.07,M,10.00,M,CLR,M,M,M,M,M,M,M,M,KBOS 031015Z AUTO 22010KT 10SM CLR A3007 RMK MADISHF
OWD,2017-11-03 10:15,-71.1733,42.1912,M,M,M,0.00,0.00,M,30.08,M,9.00,M,CLR,M,M,M,M,M,M,M,M,KOWD 031015Z AUTO 00000KT 9SM CLR A3008 RMK MADISHF
FIT,2017-11-03 10:15,-71.7558,42.5519,M,M,M,180.00,6.00,M,30.05,M,10.00,M,FEW,M,M,M,2400.00,M,M,M,M,KFIT 031015Z AUTO 18006KT 10SM FEW024 A3005 RMK MADISHF
TAN,2017-11-03 10:15,-71.0211,41.8756,48.00,46.00,92.74,0.00,0.00,0.00,30.10,M,3.00,M,BKN,M,M,M,300.00,M,M,M,BR,KTAN 031015Z AUTO 00000KT 3SM BR BKN003 09/08 A3010 RMK AO2 T00890078
GHG,2017-11-03 10:15,-70.6721,42.0982,55.40,55.40,100.00,0.00,0.00,0.00,30.09,M,9.00,M,CLR,M,M,M,M,M,M,M,M,KGHG 031015Z AUTO 00000KT 9SM CLR 13/13 A3009 RMK AO2
FMH,2017-11-03 10:15,-70.5215,41.6585,57.20,57.20,100.00,200.00,5.00,0.00,30.12,M,0.25,M,OVC,M,M,M,200.00,M,M,M,FG,KFMH 031015Z AUTO 20005KT 1/4SM FG OVC002 14/14 A3012 RMK AO2
PYM,2017-11-03 10:17,-70.7288,41.9090,57.90,57.00,96.81,200.00,3.00,0.00,30.10,M,0.50,M,OVC,M,M,M,200.00,M,M,M,FG,KPYM 031017Z AUTO 20003KT 1/2SM FG OVC002 14/14 A3010 RMK AO2 T01440139
PYM,2017-11-03 10:20,-70.7288,41.9090,M,M,M,220.00,4.00,M,30.10,M,0.50,M,OVC,M,M,M,200.00,M,M,M,FG,KPYM 031020Z AUTO 22004KT 1/2SM FG OVC002 A3010 RMK MADISHF
BOS,2017-11-03 10:20,-71.0097,42.3606,M,M,M,220.00,9.00,M,30.07,M,10.00,M,CLR,M,M,M,M,M,M,M,M,KBOS 031020Z AUTO 22009KT 10SM CLR A3007 RMK MADISHF
CQX,2017-11-03 10:20,-69.9933,41.6875,M,M,M,0.00,0.00,M,30.12,M,0.50,M,VV ,M,M,M,499.00,M,M,M,FG,KCQX 031020Z AUTO 00000KT 1/2SM FG VV004 A3012 RMK MADISHF
ORE,2017-11-03 10:20,-72.2886,42.5701,M,M,M,190.00,8.00,M,30.04,M,10.00,M,CLR,M,M,M,M,M,M,M,M,KORE 031020Z AUTO 19008KT 10SM CLR A3004 RMK MADISHF
PVC,2017-11-03 10:20,-70.2200,42.0700,M,M,M,180.00,8.00,M,30.10,M,1.00,M,M,M,M,M,M,M,M,M,BR,KPVC 031020Z AUTO 18008KT 1SM BR A3010 RMK MADISHF
HYA,2017-11-03 10:20,-70.2800,41.6700,M,M,M,180.00,4.00,M,30.10,M,0.25,M,VV ,M,M,M,200.00,M,M,M,FG,KHYA 031020Z AUTO 18004KT 1/4SM FG VV002 A3010 RMK MADISHF
EWB,2017-11-03 10:20,-70.9583,41.6764,M,M,M,210.00,4.00,M,30.09,M,0.50,M,VV ,M,M,M,200.00,M,M,M,FG,KEWB 031020Z AUTO 21004KT 1/2SM FG VV002 A3009 RMK MADISHF
BED,2017-11-03 10:20,-71.2890,42.4699,M,M,M,210.00,10.00,M,30.05,M,10.00,M,CLR,M,M,M,M,M,M,M,M,KBED 031020Z AUTO 21010KT 10SM CLR A3005 RMK MADISHF
OWD,2017-11-03 10:20,-71.1733,42.1912,M,M,M,0.00,0.00,M,30.08,M,8.00,M,CLR,M,M,M,M,M,M,M,M,KOWD 031020Z AUTO 00000KT 8SM CLR A3008 RMK MADISHF
FIT,2017-11-03 10:20,-71.7558,42.5519,M,M,M,170.00,7.00,M,30.06,M,10.00,M,CLR,M,M,M,M,M,M,M,M,KFIT 031020Z AUTO 17007KT 10SM CLR A3006 RMK MADISHF
ORH,2017-11-03 10:20,-71.8757,42.2673,M,M,M,200.00,11.00,M,30.07,M,10.00,M,BKN,BKN,M,M,1100.00,1400.00,M,M,M,KORH 031020Z AUTO 20011KT 10SM BKN011 BKN014 A3007 RMK CIG 9V12  MADISHF
CQX,2017-11-03 10:22,-69.9933,41.6875,54.00,54.00,100.00,0.00,0.00,0.00,30.12,M,0.75,M,VV ,M,M,M,500.00,M,M,M,BR,KCQX 031022Z AUTO 00000KT 3/4SM BR VV005 12/12 A3012 RMK AO2 T01220122
TAN,2017-11-03 10:24,-71.0211,41.8756,48.00,46.00,92.74,0.00,0.00,0.00,30.09,M,2.00,M,SCT,M,M,M,300.00,M,M,M,BR,KTAN 031024Z AUTO 00000KT 2SM BR SCT003 09/08 A3009 RMK AO2 T00890078
PVC,2017-11-03 10:25,-70.2200,42.0700,M,M,M,180.00,8.00,M,30.10,M,1.75,M,M,M,M,M,M,M,M,M,BR,KPVC 031025Z AUTO 18008KT 2SM BR A3010 RMK MADISHF
CQX,2017-11-03 10:25,-69.9933,41.6875,M,M,M,0.00,0.00,M,30.12,M,1.00,M,VV ,M,M,M,499.00,M,M,M,BR,KCQX 031025Z AUTO 00000KT 1SM BR VV004 A3012 RMK MADISHF
ORE,2017-11-03 10:25,-72.2886,42.5701,M,M,M,190.00,9.00,M,30.04,M,10.00,14.00,CLR,M,M,M,M,M,M,M,M,KORE 031025Z AUTO 19009G14KT 10SM CLR A3004 RMK MADISHF
EWB,2017-11-03 10:25,-70.9583,41.6764,M,M,M,220.00,4.00,M,30.09,M,0.50,M,VV ,M,M,M,300.00,M,M,M,FG,KEWB 031025Z AUTO 22004KT 1/2SM FG VV003 A3009 RMK MADISHF
BOS,2017-11-03 10:25,-71.0097,42.3606,M,M,M,230.00,8.00,M,30.07,M,10.00,M,CLR,M,M,M,M,M,M,M,M,KBOS 031025Z AUTO 23008KT 10SM CLR A3007 RMK MADISHF
BED,2017-11-03 10:25,-71.2890,42.4699,M,M,M,200.00,11.00,M,30.05,M,10.00,M,CLR,M,M,M,M,M,M,M,M,KBED 031025Z AUTO 20011KT 10SM CLR A3005 RMK MADISHF
ORH,2017-11-03 10:25,-71.8757,42.2673,M,M,M,M,M,M,30.07,M,10.00,M,BKN,M,M,M,1100.00,M,M,M,M,KORH 031025Z AUTO /////KT 10SM BKN011 A3007 RMK MADISHF
PYM,2017-11-03 10:25,-70.7288,41.9090,M,M,M,210.00,4.00,M,30.10,M,0.50,M,VV ,M,M,M,200.00,M,M,M,FG,KPYM 031025Z AUTO 21004KT 1/2SM FG VV002 A3010 RMK MADISHF
HYA,2017-11-03 10:25,-70.2800,41.6700,M,M,M,190.00,3.00,M,30.10,M,0.25,M,VV ,M,M,M,200.00,M,M,M,FG,KHYA 031025Z AUTO 19003KT 1/4SM FG VV002 A3010 RMK MADISHF
TAN,2017-11-03 10:25,-71.0211,41.8756,M,M,M,0.00,0.00,M,30.09,M,2.00,M,SCT,M,M,M,300.00,M,M,M,BR,KTAN 031025Z AUTO 00000KT 2SM BR SCT003 A3009 RMK MADISHF
OWD,2017-11-03 10:25,-71.1733,42.1912,M,M,M,0.00,0.00,M,30.08,M,7.00,M,CLR,M,M,M,M,M,M,M,M,KOWD 031025Z AUTO 00000KT 7SM CLR A3008 RMK MADISHF
PVC,2017-11-03 10:27,-70.2200,42.0700,57.20,57.20,100.00,180.00,8.00,0.00,30.10,M,3.00,M,M,M,M,M,M,M,M,M,BR,KPVC 031027Z AUTO 18008KT 3SM BR 14/14 A3010 RMK AO2 $
CQX,2017-11-03 10:28,-69.9933,41.6875,54.00,54.00,100.00,0.00,0.00,0.00,30.12,M,2.00,M,BKN,M,M,M,500.00,M,M,M,BR,KCQX 031028Z AUTO 00000KT 2SM BR BKN005 12/12 A3012 RMK AO2 VIS 3/4V5 T01220122
ORE,2017-11-03 10:30,-72.2886,42.5701,M,M,M,190.00,9.00,M,30.04,M,10.00,M,CLR,M,M,M,M,M,M,M,M,KORE 031030Z AUTO 19009KT 10SM CLR A3004 RMK MADISHF
FIT,2017-11-03 10:30,-71.7558,42.5519,M,M,M,170.00,8.00,M,30.04,M,10.00,M,CLR,M,M,M,M,M,M,M,M,KFIT 031030Z AUTO 17008KT 10SM CLR A3004 RMK MADISHF
TAN,2017-11-03 10:30,-71.0211,41.8756,M,M,M,0.00,0.00,M,30.09,M,4.00,M,FEW,M,M,M,300.00,M,M,M,BR,KTAN 031030Z AUTO 00000KT 4SM BR FEW003 A3009 RMK MADISHF
BOS,2017-11-03 10:30,-71.0097,42.3606,M,M,M,230.00,9.00,M,30.07,M,10.00,M,CLR,M,M,M,M,M,M,M,M,KBOS 031030Z AUTO 23009KT 10SM CLR A3007 RMK MADISHF
HYA,2017-11-03 10:30,-70.2800,41.6700,M,M,M,210.00,4.00,M,30.10,M,0.25,M,VV ,M,M,M,200.00,M,M,M,FG,KHYA 031030Z AUTO 21004KT 1/4SM FG VV002 A3010 RMK MADISHF
PVC,2017-11-03 10:30,-70.2200,42.0700,M,M,M,180.00,8.00,M,30.10,M,7.00,M,M,M,M,M,M,M,M,M,M,KPVC 031030Z AUTO 18008KT 7SM A3010 RMK MADISHF
PYM,2017-11-03 10:30,-70.7288,41.9090,M,M,M,200.00,4.00,M,30.10,M,0.50,M,VV ,M,M,M,200.00,M,M,M,FG,KPYM 031030Z AUTO 20004KT 1/2SM FG VV002 A3010 RMK MADISHF
BED,2017-11-03 10:30,-71.2890,42.4699,M,M,M,200.00,13.00,M,30.05,M,10.00,M,CLR,M,M,M,M,M,M,M,M,KBED 031030Z AUTO 20013KT 10SM CLR A3005 RMK MADISHF
EWB,2017-11-03 10:30,-70.9583,41.6764,M,M,M,220.00,4.00,M,30.09,M,0.50,M,VV ,M,M,M,300.00,M,M,M,FG,KEWB 031030Z AUTO 22004KT 1/2SM FG VV003 A3009 RMK MADISHF
CQX,2017-11-03 10:30,-69.9933,41.6875,M,M,M,0.00,0.00,M,30.12,M,3.50,M,BKN,M,M,M,499.00,M,M,M,BR,KCQX 031030Z AUTO 00000KT 3SM BR BKN004 A3012 RMK MADISHF
OWD,2017-11-03 10:30,-71.1733,42.1912,M,M,M,0.00,0.00,M,30.08,M,7.00,M,CLR,M,M,M,M,M,M,M,M,KOWD 031030Z AUTO 00000KT 7SM CLR A3008 RMK MADISHF
ORH,2017-11-03 10:30,-71.8757,42.2673,M,M,M,200.00,12.00,M,30.08,M,10.00,M,BKN,M,M,M,1100.00,M,M,M,M,KORH 031030Z AUTO 20012KT 10SM BKN011 A3008 RMK CIG 8V15  MADISHF
CQX,2017-11-03 10:31,-69.9933,41.6875,54.00,54.00,100.00,0.00,0.00,0.00,30.12,M,3.00,M,SCT,M,M,M,500.00,M,M,M,BR,KCQX 031031Z AUTO 00000KT 3SM BR SCT005 12/12 A3012 RMK AO2 T01220122
CQX,2017-11-03 10:34,-69.9933,41.6875,53.10,53.10,100.00,0.00,0.00,0.00,30.12,M,1.50,M,SCT,M,M,M,500.00,M,M,M,BR,KCQX 031034Z AUTO 00000KT 1 1/2SM BR SCT005 12/12 A3012 RMK AO2 T01170117
FIT,2017-11-03 10:35,-71.7558,42.5519,M,M,M,170.00,9.00,M,30.04,M,10.00,M,CLR,M,M,M,M,M,M,M,M,KFIT 031035Z AUTO 17009KT 10SM CLR A3004 RMK MADISHF
EWB,2017-11-03 10:35,-70.9583,41.6764,M,M,M,210.00,3.00,M,30.09,M,0.50,M,VV ,M,M,M,300.00,M,M,M,FG,KEWB 031035Z AUTO 21003KT 1/2SM FG VV003 A3009 RMK MADISHF
OWD,2017-11-03 10:35,-71.1733,42.1912,M,M,M,0.00,0.00,M,30.08,M,6.00,M,CLR,M,M,M,M,M,M,M,BR,KOWD 031035Z AUTO 00000KT 6SM BR CLR A3008 RMK MADISHF
PYM,2017-11-03 10:35,-70.7288,41.9090,M,M,M,210.00,4.00,M,30.10,M,0.50,M,VV ,M,M,M,200.00,M,M,M,FG,KPYM 031035Z AUTO 21004KT 1/2SM FG VV002 A3010 RMK MADISHF
ORE,2017-11-03 10:35,-72.2886,42.5701,M,M,M,190.00,8.00,M,30.04,M,10.00,M,CLR,M,M,M,M,M,M,M,M,KORE 031035Z AUTO 19008KT 10SM CLR A3004 RMK MADISHF
HYA,2017-11-03 10:35,-70.2800,41.6700,M,M,M,200.00,5.00,M,30.10,M,0.25,M,VV ,M,M,M,200.00,M,M,M,FG,KHYA 031035Z AUTO 20005KT 1/4SM FG VV002 A3010 RMK MADISHF
BOS,2017-11-03 10:35,-71.0097,42.3606,M,M,M,220.00,8.00,M,30.07,M,10.00,M,CLR,M,M,M,M,M,M,M,M,KBOS 031035Z AUTO 22008KT 10SM CLR A3007 RMK MADISHF
BED,2017-11-03 10:35,-71.2890,42.4699,M,M,M,210.00,11.00,M,30.05,M,10.00,M,CLR,M,M,M,M,M,M,M,M,KBED 031035Z AUTO 21011KT 10SM CLR A3005 RMK MADISHF
ORH,2017-11-03 10:35,-71.8757,42.2673,M,M,M,200.00,10.00,M,30.07,M,10.00,M,BKN,M,M,M,1100.00,M,M,M,M,KORH 031035Z AUTO 20010KT 10SM BKN011 A3007 RMK CIG 8V14  MADISHF
PVC,2017-11-03 10:35,-70.2200,42.0700,M,M,M,180.00,8.00,M,30.10,M,10.00,M,M,M,M,M,M,M,M,M,M,KPVC 031035Z AUTO 18008KT 10SM A3010 RMK MADISHF
GHG,2017-11-03 10:35,-70.6721,42.0982,53.60,53.60,100.00,150.00,3.00,0.00,30.08,M,0.25,M,VV ,M,M,M,0.00,M,M,M,FG,KGHG 031035Z AUTO 15003KT M1/4SM FG VV000 12/12 A3008 RMK AO2
FMH,2017-11-03 10:35,-70.5215,41.6585,57.20,57.20,100.00,220.00,4.00,0.00,30.11,M,0.25,M,OVC,M,M,M,200.00,M,M,M,FG,KFMH 031035Z AUTO 22004KT 1/4SM FG OVC002 14/14 A3011 RMK AO2
TAN,2017-11-03 10:35,-71.0211,41.8756,48.00,46.90,95.95,0.00,0.00,0.00,30.09,M,10.00,M,FEW,M,M,M,300.00,M,M,M,M,KTAN 031035Z AUTO 00000KT 10SM FEW003 09/08 A3009 RMK AO2 T00890083
PVC,2017-11-03 10:40,-70.2200,42.0700,M,M,M,180.00,8.00,M,30.10,M,8.00,M,M,M,M,M,M,M,M,M,M,KPVC 031040Z AUTO 18008KT 8SM A3010 RMK MADISHF
OWD,2017-11-03 10:40,-71.1733,42.1912,M,M,M,150.00,3.00,M,30.07,M,4.00,M,CLR,M,M,M,M,M,M,M,BR,KOWD 031040Z AUTO 15003KT 4SM BR CLR A3007 RMK MADISHF
ORH,2017-11-03 10:40,-71.8757,42.2673,M,M,M,200.00,10.00,M,30.07,M,10.00,M,BKN,M,M,M,1100.00,M,M,M,M,KORH 031040Z AUTO 20010KT 10SM BKN011 A3007 RMK CIG 8V12  MADISHF
EWB,2017-11-03 10:40,-70.9583,41.6764,M,M,M,190.00,3.00,M,30.09,M,0.50,M,VV ,M,M,M,300.00,M,M,M,FG,KEWB 031040Z AUTO 19003KT 1/2SM FG VV003 A3009 RMK MADISHF
ORE,2017-11-03 10:40,-72.2886,42.5701,M,M,M,210.00,10.00,M,30.04,M,10.00,M,FEW,M,M,M,1699.00,M,M,M,M,KORE 031040Z AUTO 21010KT 10SM FEW016 A3004 RMK MADISHF
CQX,2017-11-03 10:40,-69.9933,41.6875,M,M,M,0.00,0.00,M,30.12,M,1.00,M,VV ,M,M,M,600.00,M,M,M,BR,KCQX 031040Z AUTO 00000KT 1SM BR VV006 A3012 RMK MADISHF
BED,2017-11-03 10:40,-71.2890,42.4699,M,M,M,210.00,9.00,M,30.05,M,10.00,M,CLR,M,M,M,M,M,M,M,M,KBED 031040Z AUTO 21009KT 10SM CLR A3005 RMK MADISHF
HYA,2017-11-03 10:40,-70.2800,41.6700,M,M,M,230.00,5.00,M,30.10,M,0.25,M,VV ,M,M,M,200.00,M,M,M,FG,KHYA 031040Z AUTO 23005KT 1/4SM FG VV002 A3010 RMK MADISHF
BOS,2017-11-03 10:40,-71.0097,42.3606,M,M,M,200.00,7.00,M,30.07,M,10.00,M,CLR,M,M,M,M,M,M,M,M,KBOS 031040Z AUTO 20007KT 10SM CLR A3007 RMK MADISHF
FIT,2017-11-03 10:40,-71.7558,42.5519,M,M,M,190.00,6.00,M,30.05,M,10.00,M,CLR,M,M,M,M,M,M,M,M,KFIT 031040Z AUTO 19006KT 10SM CLR A3005 RMK MADISHF
EWB,2017-11-03 10:42,-70.9583,41.6764,55.90,55.90,100.00,190.00,3.00,0.00,30.09,M,0.25,M,VV ,M,M,M,300.00,M,M,M,FG,KEWB 031042Z 19003KT 1/4SM R05/1600V1800FT FG VV003 13/13 A3009 RMK AO2 T01330133
TAN,2017-11-03 10:45,-71.0211,41.8756,M,M,M,0.00,0.00,M,30.09,M,10.00,M,CLR,M,M,M,M,M,M,M,M,KTAN 031045Z AUTO 00000KT 10SM CLR A3009 RMK MADISHF
PVC,2017-11-03 10:45,-70.2200,42.0700,M,M,M,180.00,9.00,M,30.10,M,7.00,M,M,M,M,M,M,M,M,M,M,KPVC 031045Z AUTO 18009KT 7SM A3010 RMK MADISHF
PYM,2017-11-03 10:45,-70.7288,41.9090,M,M,M,180.00,3.00,M,30.10,M,0.50,M,VV ,M,M,M,200.00,M,M,M,FG,KPYM 031045Z AUTO 18003KT 1/2SM FG VV002 A3010 RMK MADISHF
ORE,2017-11-03 10:45,-72.2886,42.5701,M,M,M,200.00,10.00,M,30.04,M,10.00,M,FEW,M,M,M,1600.00,M,M,M,M,KORE 031045Z AUTO 20010KT 10SM FEW016 A3004 RMK MADISHF
EWB,2017-11-03 10:45,-70.9583,41.6764,M,M,M,180.00,3.00,M,30.09,M,0.25,M,VV ,M,M,M,200.00,M,M,M,FG,KEWB 031045Z AUTO 18003KT 1/4SM FG VV002 A3009 RMK MADISHF
CQX,2017-11-03 10:45,-69.9933,41.6875,53.10,53.10,100.00,0.00,0.00,0.00,30.11,M,1.00,M,VV ,M,M,M,700.00,M,M,M,BR,KCQX 031045Z AUTO 00000KT 1SM BR VV007 12/12 A3011 RMK AO2 T01170117
HYA,2017-11-03 10:45,-70.2800,41.6700,M,M,M,230.00,6.00,M,30.10,M,0.24,M,VV ,M,M,M,200.00,M,M,M,FG,KHYA 031045Z AUTO 23006KT 1/4SM FG VV002 A3010 RMK MADISHF
BED,2017-11-03 10:45,-71.2890,42.4699,M,M,M,200.00,10.00,M,30.04,M,10.00,M,CLR,M,M,M,M,M,M,M,M,KBED 031045Z AUTO 20010KT 10SM CLR A3004 RMK MADISHF
OWD,2017-11-03 10:45,-71.1733,42.1912,M,M,M,150.00,3.00,M,30.07,M,4.00,M,CLR,M,M,M,M,M,M,M,BR,KOWD 031045Z AUTO 15003KT 4SM BR CLR A3007 RMK MADISHF
ORH,2017-11-03 10:45,-71.8757,42.2673,M,M,M,190.00,12.00,M,30.06,M,10.00,M,BKN,M,M,M,999.00,M,M,M,M,KORH 031045Z AUTO 19012KT 10SM BKN009 A3006 RMK CIG 7V12  MADISHF
BOS,2017-11-03 10:45,-71.0097,42.3606,M,M,M,200.00,9.00,M,30.07,M,10.00,M,CLR,M,M,M,M,M,M,M,M,KBOS 031045Z AUTO 20009KT 10SM CLR A3007 RMK MADISHF
OWD,2017-11-03 10:49,-71.1733,42.1912,53.60,53.60,100.00,0.00,0.00,0.00,30.07,M,1.25,M,SCT,M,M,M,3000.00,M,M,M,BR,KOWD 031049Z 00000KT 1 1/4SM BR SCT030 12/12 A3007 RMK AO2
EWB,2017-11-03 10:49,-70.9583,41.6764,53.60,53.60,100.00,160.00,3.00,0.00,30.09,M,0.25,M,VV ,M,M,M,200.00,M,M,M,FG,KEWB 031049Z 16003KT 1/4SM R05/1600VP6000FT FG VV002 12/12 A3009 RMK AO2
FIT,2017-11-03 10:50,-71.7558,42.5519,M,M,M,210.00,7.00,M,30.05,M,10.00,M,CLR,M,M,M,M,M,M,M,M,KFIT 031050Z AUTO 21007KT 10SM CLR A3005 RMK MADISHF
PYM,2017-11-03 10:50,-70.7288,41.9090,M,M,M,180.00,3.00,M,30.10,M,0.50,M,VV ,M,M,M,200.00,M,M,M,FG,KPYM 031050Z AUTO 18003KT 1/2SM FG VV002 A3010 RMK MADISHF
BOS,2017-11-03 10:50,-71.0097,42.3606,M,M,M,210.00,11.00,M,30.06,M,10.00,M,M,M,M,M,M,M,M,M,M,KBOS 031050Z AUTO 21011KT 10SM A3006 RMK MADISHF
EWB,2017-11-03 10:50,-70.9583,41.6764,M,M,M,160.00,3.00,M,30.09,M,0.25,M,VV ,M,M,M,200.00,M,M,M,FG,KEWB 031050Z AUTO 16003KT 1/4SM FG VV002 A3009 RMK MADISHF
OWD,2017-11-03 10:50,-71.1733,42.1912,M,M,M,0.00,0.00,M,30.07,M,1.00,M,SCT,M,M,M,3000.00,M,M,M,BR,KOWD 031050Z AUTO 00000KT 1SM BR SCT030 A3007 RMK MADISHF
ORH,2017-11-03 10:50,-71.8757,42.2673,M,M,M,200.00,12.00,M,30.06,M,10.00,M,BKN,M,M,M,999.00,M,M,M,M,KORH 031050Z AUTO 20012KT 10SM BKN009 A3006 RMK CIG 7V12  MADISHF
CQX,2017-11-03 10:50,-69.9933,41.6875,M,M,M,0.00,0.00,M,30.11,M,0.50,M,VV ,M,M,M,800.00,M,M,M,FG,KCQX 031050Z AUTO 00000KT 1/2SM FG VV008 A3011 RMK MADISHF
PVC,2017-11-03 10:50,-70.2200,42.0700,M,M,M,180.00,10.00,M,30.09,M,7.00,M,M,M,M,M,M,M,M,M,M,KPVC 031050Z AUTO 18010KT 7SM A3009 RMK MADISHF
ORE,2017-11-03 10:50,-72.2886,42.5701,M,M,M,190.00,9.00,M,30.04,M,10.00,M,FEW,M,M,M,1400.00,M,M,M,M,KORE 031050Z AUTO 19009KT 10SM FEW014 A3004 RMK MADISHF
TAN,2017-11-03 10:50,-71.0211,41.8756,M,M,M,0.00,0.00,M,30.09,M,10.00,M,CLR,M,M,M,M,M,M,M,M,KTAN 031050Z AUTO 00000KT 10SM CLR A3009 RMK MADISHF
HYA,2017-11-03 10:50,-70.2800,41.6700,M,M,M,220.00,6.00,M,30.09,M,0.24,M,VV ,M,M,M,200.00,M,M,M,FG,KHYA 031050Z AUTO 22006KT 1/4SM FG VV002 A3009 RMK MADISHF
BED,2017-11-03 10:50,-71.2890,42.4699,M,M,M,210.00,10.00,M,30.04,M,10.00,M,CLR,M,M,M,M,M,M,M,M,KBED 031050Z AUTO 21010KT 10SM CLR A3004 RMK MADISHF
TAN,2017-11-03 10:52,-71.0211,41.8756,46.90,46.00,96.66,0.00,0.00,0.00,30.09,1018.90,10.00,M,CLR,M,M,M,M,M,M,M,M,KTAN 031052Z AUTO 00000KT 10SM CLR 08/08 A3009 RMK AO2 SLP189 T00830078
PYM,2017-11-03 10:52,-70.7288,41.9090,57.90,57.00,96.81,180.00,3.00,0.00,30.10,1019.10,0.50,M,VV ,M,M,M,200.00,M,M,M,FG,KPYM 031052Z AUTO 18003KT 1/2SM FG VV002 14/14 A3010 RMK AO2 SLP191 T01440139
ORE,2017-11-03 10:52,-72.2886,42.5701,61.00,59.00,93.12,190.00,8.00,0.00,30.04,1017.20,10.00,M,FEW,M,M,M,1400.00,M,M,M,M,KORE 031052Z AUTO 19008KT 10SM FEW014 16/15 A3004 RMK AO2 SLP172 T01610150 TSNO
FIT,2017-11-03 10:52,-71.7558,42.5519,66.00,60.10,81.27,190.00,5.00,0.00,30.05,1017.50,10.00,M,CLR,M,M,M,M,M,M,M,M,KFIT 031052Z AUTO 19005KT 10SM CLR 19/16 A3005 RMK AO2 SLP175 T01890156
CQX,2017-11-03 10:52,-69.9933,41.6875,53.10,53.10,100.00,0.00,0.00,0.00,30.11,1019.80,0.50,M,VV ,M,M,M,800.00,M,M,M,FG,KCQX 031052Z AUTO 00000KT 1/2SM FG VV008 12/12 A3011 RMK AO2 SLP198 T01170117
OWD,2017-11-03 10:53,-71.1733,42.1912,54.00,53.10,96.76,0.00,0.00,0.00,30.07,1018.20,7.00,M,SCT,M,M,M,3000.00,M,M,M,M,KOWD 031053Z 00000KT 7SM SCT030 12/12 A3007 RMK AO2 SLP182 T01220117
EWB,2017-11-03 10:53,-70.9583,41.6764,55.00,54.00,96.42,160.00,3.00,0.00,30.09,1018.80,0.25,M,VV ,M,M,M,200.00,M,M,M,FG,KEWB 031053Z 16003KT 1/4SM R05/3000VP6000FT FG VV002 13/12 A3009 RMK AO2 SLP188 T01280122
ORH,2017-11-03 10:54,-71.8757,42.2673,59.00,57.00,93.07,200.00,11.00,0.00,30.06,1018.00,10.00,M,BKN,M,M,M,1000.00,M,M,M,M,KORH 031054Z 20011KT 10SM BKN010 15/14 A3006 RMK AO2 CIG 006V012 SLP180 T01500139
BOS,2017-11-03 10:54,-71.0097,42.3606,59.00,55.90,89.44,210.00,9.00,0.00,30.06,1018.00,10.00,M,FEW,SCT,BKN,M,15000.00,20000.00,25000.00,M,M,KBOS 031054Z 21009KT 10SM FEW150 SCT200 BKN250 15/13 A3006 RMK AO2 SLP180 T01500133
PVC,2017-11-03 10:55,-70.2200,42.0700,M,M,M,180.00,9.00,M,30.09,M,8.00,M,M,M,M,M,M,M,M,M,M,KPVC 031055Z AUTO 18009KT 8SM A3009 RMK MADISHF
FIT,2017-11-03 10:55,-71.7558,42.5519,M,M,M,190.00,7.00,M,30.04,M,10.00,M,CLR,M,M,M,M,M,M,M,M,KFIT 031055Z AUTO 19007KT 10SM CLR A3004 RMK MADISHF
ORH,2017-11-03 10:55,-71.8757,42.2673,M,M,M,M,M,M,30.06,M,10.00,M,BKN,M,M,M,999.00,M,M,M,M,KORH 031055Z AUTO /////KT 10SM BKN009 A3006 RMK CIG 6V12  MADISHF
BOS,2017-11-03 10:55,-71.0097,42.3606,M,M,M,210.00,9.00,M,30.06,M,10.00,M,CLR,M,M,M,M,M,M,M,M,KBOS 031055Z AUTO 21009KT 10SM CLR A3006 RMK MADISHF
HYA,2017-11-03 10:55,-70.2800,41.6700,M,M,M,200.00,4.00,M,30.09,M,0.24,M,VV ,M,M,M,200.00,M,M,M,FG,KHYA 031055Z AUTO 20004KT 1/4SM FG VV002 A3009 RMK MADISHF
EWB,2017-11-03 10:55,-70.9583,41.6764,M,M,M,160.00,3.00,M,30.09,M,0.25,M,VV ,M,M,M,200.00,M,M,M,FG,KEWB 031055Z AUTO 16003KT 1/4SM FG VV002 A3009 RMK MADISHF
BED,2017-11-03 10:55,-71.2890,42.4699,M,M,M,210.00,9.00,M,30.04,M,10.00,M,M,M,M,M,M,M,M,M,M,KBED 031055Z AUTO 21009KT 10SM A3004 RMK MADISHF
OWD,2017-11-03 10:55,-71.1733,42.1912,M,M,M,0.00,0.00,M,30.07,M,0.50,M,CLR,M,M,M,M,M,M,M,FG,KOWD 031055Z AUTO 00000KT 1/2SM FG CLR A3007 RMK MADISHF
PYM,2017-11-03 10:55,-70.7288,41.9090,M,M,M,0.00,0.00,M,30.09,M,0.50,M,VV ,M,M,M,200.00,M,M,M,FG,KPYM 031055Z AUTO 00000KT 1/2SM FG VV002 A3009 RMK MADISHF
ORE,2017-11-03 10:55,-72.2886,42.5701,M,M,M,190.00,11.00,M,30.04,M,10.00,M,FEW,M,M,M,1600.00,M,M,M,M,KORE 031055Z AUTO 19011KT 10SM FEW016 A3004 RMK MADISHF
TAN,2017-11-03 10:55,-71.0211,41.8756,M,M,M,0.00,0.00,M,30.09,M,10.00,M,FEW,M,M,M,3100.00,M,M,M,M,KTAN 031055Z AUTO 00000KT 10SM FEW031 A3009 RMK MADISHF
GHG,2017-11-03 10:55,-70.6721,42.0982,55.40,55.40,100.00,0.00,0.00,0.00,30.08,M,1.00,M,CLR,M,M,M,M,M,M,M,BR,KGHG 031055Z AUTO 00000KT 1SM BR CLR 13/13 A3008 RMK AO2
FMH,2017-11-03 10:55,-70.5215,41.6585,57.20,57.20,100.00,220.00,5.00,0.00,30.11,M,0.25,M,OVC,M,M,M,200.00,M,M,M,FG,KFMH 031055Z AUTO 22005KT M1/4SM FG OVC002 14/14 A3011 RMK AO2
HYA,2017-11-03 10:56,-70.2800,41.6700,59.00,59.00,100.00,200.00,4.00,0.00,30.09,1019.10,0.25,M,VV ,M,M,M,200.00,M,M,M,FG,KHYA 031056Z 20004KT 1/4SM FG VV002 15/15 A3009 RMK AO2 SLP191 T01500150
BED,2017-11-03 10:56,-71.2890,42.4699,60.10,55.90,85.99,220.00,9.00,0.00,30.04,1018.50,10.00,M,SCT,M,M,M,20000.00,M,M,M,M,KBED 031056Z 22009KT 10SM SCT200 16/13 A3004 RMK AO2 SLP185 T01560133
PVC,2017-11-03 10:56,-70.2200,42.0700,57.00,57.00,100.00,180.00,9.00,0.00,30.09,1019.00,9.00,M,M,M,M,M,M,M,M,M,M,KPVC 031056Z AUTO 18009KT 9SM 14/14 A3009 RMK AO2 SLP190 T01390139 $
MQE,2017-11-03 10:56,-71.1142,42.2121,57.00,53.10,86.77,200.00,15.00,0.00,30.07,1019.10,M,M,M,M,M,M,M,M,M,M,M,KMQE 031056Z AUTO 20015KT 14/12 A3007 RMK AO1 SLP191 T01390117
CQX,2017-11-03 10:59,-69.9933,41.6875,54.00,54.00,100.00,0.00,0.00,0.00,30.11,M,2.50,M,FEW,SCT,M,M,300.00,800.00,M,M,BR,KCQX 031059Z AUTO 00000KT 2 1/2SM BR FEW003 SCT008 12/12 A3011 RMK AO2 T01220122
PVC,2017-11-03 11:00,-70.2200,42.0700,M,M,M,190.00,9.00,M,30.10,M,10.00,M,M,M,M,M,M,M,M,M,M,KPVC 031100Z AUTO 19009KT 10SM A3010 RMK MADISHF
BED,2017-11-03 11:00,-71.2890,42.4699,M,M,M,220.00,9.00,M,30.04,M,10.00,M,CLR,M,M,M,M,M,M,M,M,KBED 031100Z AUTO 22009KT 10SM CLR A3004 RMK MADISHF
ORH,2017-11-03 11:00,-71.8757,42.2673,M,M,M,M,M,M,30.06,M,10.00,17.00,BKN,M,M,M,800.00,M,M,M,M,KORH 031100Z AUTO /////G17KT 10SM BKN008 A3006 RMK CIG 5V10  MADISHF
CQX,2017-11-03 11:00,-69.9933,41.6875,M,M,M,260.00,3.00,M,30.11,M,3.00,M,SCT,SCT,M,M,300.00,800.00,M,M,BR,KCQX 031100Z AUTO 26003KT 3SM BR SCT003 SCT008 A3011 RMK MADISHF
PYM,2017-11-03 11:00,-70.7288,41.9090,M,M,M,210.00,4.00,M,30.09,M,0.50,M,VV ,M,M,M,200.00,M,M,M,FG,KPYM 031100Z AUTO 21004KT 1/2SM FG VV002 A3009 RMK MADISHF
EWB,2017-11-03 11:00,-70.9583,41.6764,M,M,M,0.00,0.00,M,30.09,M,0.50,M,VV ,M,M,M,300.00,M,M,M,FG,KEWB 031100Z AUTO 00000KT 1/2SM FG VV003 A3009 RMK MADISHF
BOS,2017-11-03 11:00,-71.0097,42.3606,M,M,M,220.00,10.00,M,30.06,M,10.00,M,CLR,M,M,M,M,M,M,M,M,KBOS 031100Z AUTO 22010KT 10SM CLR A3006 RMK MADISHF
HYA,2017-11-03 11:00,-70.2800,41.6700,M,M,M,220.00,5.00,M,30.09,M,0.24,M,VV ,M,M,M,200.00,M,M,M,FG,KHYA 031100Z AUTO 22005KT 1/4SM FG VV002 A3009 RMK MADISHF
FIT,2017-11-03 11:00,-71.7558,42.5519,M,M,M,190.00,7.00,M,30.04,M,10.00,M,CLR,M,M,M,M,M,M,M,M,KFIT 031100Z AUTO 19007KT 10SM CLR A3004 RMK MADISHF
OWD,2017-11-03 11:00,-71.1733,42.1912,55.00,53.10,93.29,0.00,0.00,0.00,30.07,M,1.00,M,CLR,M,M,M,M,M,M,M,BR,KOWD 031100Z 00000KT 1SM BR CLR 13/12 A3007 RMK AO2 T01280117
CQX,2017-11-03 11:02,-69.9933,41.6875,54.00,54.00,100.00,0.00,0.00,0.00,30.11,M,4.00,M,SCT,BKN,M,M,300.00,800.00,M,M,BR,KCQX 031102Z AUTO 00000KT 4SM BR SCT003 BKN008 12/12 A3011 RMK AO2 T01220122
ORH,2017-11-03 11:03,-71.8757,42.2673,59.00,57.00,93.07,210.00,10.00,0.00,30.06,M,10.00,M,BKN,BKN,M,M,600.00,1000.00,M,M,M,KORH 031103Z 21010KT 10SM BKN006 BKN010 15/14 A3006 RMK AO2 CIG 005V009 T01500139
EWB,2017-11-03 11:03,-70.9583,41.6764,55.90,55.00,96.78,0.00,0.00,0.00,30.09,M,0.50,M,VV ,M,M,M,300.00,M,M,M,FG,KEWB 031103Z 00000KT 1/2SM R05/2000VP6000FT FG VV003 13/13 A3009 RMK AO2 T01330128
OWD,2017-11-03 11:04,-71.1733,42.1912,55.00,54.00,96.42,0.00,0.00,0.00,30.07,M,4.00,M,CLR,M,M,M,M,M,M,M,BR,KOWD 031104Z 00000KT 4SM BR CLR 13/12 A3007 RMK AO2 T01280122
TAN,2017-11-03 11:05,-71.0211,41.8756,M,M,M,140.00,3.00,M,30.09,M,10.00,M,CLR,M,M,M,M,M,M,M,M,KTAN 031105Z AUTO 14003KT 10SM CLR A3009 RMK MADISHF
BOS,2017-11-03 11:05,-71.0097,42.3606,M,M,M,210.00,11.00,M,30.06,M,10.00,M,CLR,M,M,M,M,M,M,M,M,KBOS 031105Z AUTO 21011KT 10SM CLR A3006 RMK MADISHF
PVC,2017-11-03 11:05,-70.2200,42.0700,M,M,M,190.00,9.00,M,30.09,M,10.00,M,M,M,M,M,M,M,M,M,M,KPVC 031105Z AUTO 19009KT 10SM A3009 RMK MADISHF
CQX,2017-11-03 11:05,-69.9933,41.6875,M,M,M,0.00,0.00,M,30.11,M,4.00,M,BKN,BKN,M,M,300.00,800.00,M,M,BR,KCQX 031105Z AUTO 00000KT 4SM BR BKN003 BKN008 A3011 RMK MADISHF
HYA,2017-11-03 11:05,-70.2800,41.6700,M,M,M,210.00,6.00,M,30.09,M,0.24,M,VV ,M,M,M,200.00,M,M,M,FG,KHYA 031105Z AUTO 21006KT 1/4SM FG VV002 A3009 RMK MADISHF
ORH,2017-11-03 11:05,-71.8757,42.2673,M,M,M,M,M,M,30.06,M,10.00,M,BKN,BKN,M,M,600.00,999.00,M,M,M,KORH 031105Z AUTO /////KT 10SM BKN006 BKN009 A3006 RMK CIG 5V9  MADISHF
OWD,2017-11-03 11:05,-71.1733,42.1912,M,M,M,0.00,0.00,M,30.07,M,5.00,M,CLR,M,M,M,M,M,M,M,BR,KOWD 031105Z AUTO 00000KT 5SM BR CLR A3007 RMK MADISHF
BED,2017-11-03 11:05,-71.2890,42.4699,M,M,M,210.00,9.00,M,30.04,M,10.00,M,CLR,M,M,M,M,M,M,M,M,KBED 031105Z AUTO 21009KT 10SM CLR A3004 RMK MADISHF
ORE,2017-11-03 11:05,-72.2886,42.5701,M,M,M,190.00,10.00,M,30.03,M,10.00,M,FEW,M,M,M,1600.00,M,M,M,M,KORE 031105Z AUTO 19010KT 10SM FEW016 A3003 RMK MADISHF
PYM,2017-11-03 11:05,-70.7288,41.9090,M,M,M,220.00,5.00,M,30.10,M,0.50,M,VV ,M,M,M,200.00,M,M,M,FG,KPYM 031105Z AUTO 22005KT 1/2SM FG VV002 A3010 RMK MADISHF
EWB,2017-11-03 11:05,-70.9583,41.6764,M,M,M,0.00,0.00,M,30.09,M,0.50,M,VV ,M,M,M,300.00,M,M,M,FG,KEWB 031105Z AUTO 00000KT 1/2SM FG VV003 A3009 RMK MADISHF
PYM,2017-11-03 11:10,-70.7288,41.9090,M,M,M,240.00,5.00,M,30.10,M,0.25,M,VV ,M,M,M,200.00,M,M,M,FG,KPYM 031110Z AUTO 24005KT 1/4SM FG VV002 A3010 RMK MADISHF
CQX,2017-11-03 11:10,-69.9933,41.6875,M,M,M,0.00,0.00,M,30.11,M,4.00,M,BKN,BKN,M,M,300.00,800.00,M,M,BR,KCQX 031110Z AUTO 00000KT 4SM BR BKN003 BKN008 A3011 RMK MADISHF
ORE,2017-11-03 11:10,-72.2886,42.5701,M,M,M,190.00,9.00,M,30.03,M,10.00,M,FEW,M,M,M,1500.00,M,M,M,M,KORE 031110Z AUTO 19009KT 10SM FEW015 A3003 RMK MADISHF
TAN,2017-11-03 11:10,-71.0211,41.8756,M,M,M,0.00,0.00,M,30.08,M,10.00,M,FEW,M,M,M,3000.00,M,M,M,M,KTAN 031110Z AUTO 00000KT 10SM FEW030 A3008 RMK MADISHF
EWB,2017-11-03 11:10,-70.9583,41.6764,M,M,M,0.00,0.00,M,30.09,M,0.24,M,VV ,M,M,M,300.00,M,M,M,FG,KEWB 031110Z AUTO 00000KT 1/4SM FG VV003 A3009 RMK MADISHF
ORH,2017-11-03 11:10,-71.8757,42.2673,M,M,M,200.00,11.00,M,30.06,M,10.00,M,BKN,M,M,M,600.00,M,M,M,M,KORH 031110Z AUTO 20011KT 10SM BKN006 A3006 RMK CIG 5V10  MADISHF
HYA,2017-11-03 11:10,-70.2800,41.6700,M,M,M,220.00,6.00,M,30.09,M,0.25,M,VV ,M,M,M,200.00,M,M,M,FG,KHYA 031110Z AUTO 22006KT 1/4SM FG VV002 A3009 RMK MADISHF
BOS,2017-11-03 11:10,-71.0097,42.3606,M,M,M,200.00,11.00,M,30.05,M,10.00,M,CLR,M,M,M,M,M,M,M,M,KBOS 031110Z AUTO 20011KT 10SM CLR A3005 RMK MADISHF
FIT,2017-11-03 11:10,-71.7558,42.5519,M,M,M,210.00,6.00,M,30.04,M,10.00,M,CLR,M,M,M,M,M,M,M,M,KFIT 031110Z AUTO 21006KT 10SM CLR A3004 RMK MADISHF
OWD,2017-11-03 11:10,-71.1733,42.1912,M,M,M,140.00,3.00,M,30.06,M,7.00,M,CLR,M,M,M,M,M,M,M,M,KOWD 031110Z AUTO 14003KT 7SM CLR A3006 RMK MADISHF
PVC,2017-11-03 11:10,-70.2200,42.0700,M,M,M,180.00,9.00,M,30.09,M,10.00,M,M,M,M,M,M,M,M,M,M,KPVC 031110Z AUTO 18009KT 10SM A3009 RMK MADISHF
BED,2017-11-03 11:10,-71.2890,42.4699,M,M,M,210.00,10.00,M,30.04,M,10.00,M,M,M,M,M,M,M,M,M,M,KBED 031110Z AUTO 21010KT 10SM A3004 RMK MADISHF
CQX,2017-11-03 11:11,-69.9933,41.6875,54.00,54.00,100.00,0.00,0.00,0.00,30.11,M,3.00,M,BKN,BKN,M,M,300.00,800.00,M,M,BR,KCQX 031111Z AUTO 00000KT 3SM BR BKN003 BKN008 12/12 A3011 RMK AO2 T01220122
EWB,2017-11-03 11:12,-70.9583,41.6764,55.90,55.00,96.78,0.00,0.00,0.00,30.09,M,0.25,M,VV ,M,M,M,400.00,M,M,M,FG,KEWB 031112Z 00000KT 1/4SM R05/1600V3000FT FG VV004 13/13 A3009 RMK AO2 T01330128
CQX,2017-11-03 11:14,-69.9933,41.6875,53.10,53.10,100.00,0.00,0.00,0.00,30.11,M,1.50,M,BKN,M,M,M,200.00,M,M,M,BR,KCQX 031114Z AUTO 00000KT 1 1/2SM BR BKN002 12/12 A3011 RMK AO2 T01170117
ORE,2017-11-03 11:15,-72.2886,42.5701,M,M,M,200.00,7.00,M,30.03,M,10.00,M,FEW,M,M,M,1500.00,M,M,M,M,KORE 031115Z AUTO 20007KT 10SM FEW015 A3003 RMK MADISHF
BED,2017-11-03 11:15,-71.2890,42.4699,M,M,M,220.00,6.00,M,30.04,M,10.00,M,M,M,M,M,M,M,M,M,M,KBED 031115Z AUTO 22006KT 10SM A3004 RMK MADISHF
BOS,2017-11-03 11:15,-71.0097,42.3606,M,M,M,220.00,12.00,M,30.05,M,10.00,M,CLR,M,M,M,M,M,M,M,M,KBOS 031115Z AUTO 22012KT 10SM CLR A3005 RMK MADISHF
EWB,2017-11-03 11:15,-70.9583,41.6764,M,M,M,0.00,0.00,M,30.09,M,0.24,M,VV ,M,M,M,400.00,M,M,M,FG,KEWB 031115Z AUTO 00000KT 1/4SM FG VV004 A3009 RMK MADISHF
HYA,2017-11-03 11:15,-70.2800,41.6700,M,M,M,220.00,6.00,M,30.09,M,0.25,M,VV ,M,M,M,200.00,M,M,M,FG,KHYA 031115Z AUTO 22006KT 1/4SM FG VV002 A3009 RMK MADISHF
ORH,2017-11-03 11:15,-71.8757,42.2673,M,M,M,M,M,M,30.05,M,10.00,M,OVC,M,M,M,600.00,M,M,M,M,KORH 031115Z AUTO /////KT 10SM OVC006 A3005 RMK CIG 5V10  MADISHF
TAN,2017-11-03 11:15,-71.0211,41.8756,M,M,M,120.00,3.00,M,30.08,M,9.00,M,FEW,M,M,M,3000.00,M,M,M,M,KTAN 031115Z AUTO 12003KT 9SM FEW030 A3008 RMK MADISHF
OWD,2017-11-03 11:15,-71.1733,42.1912,M,M,M,140.00,3.00,M,30.06,M,9.00,M,CLR,M,M,M,M,M,M,M,M,KOWD 031115Z AUTO 14003KT 9SM CLR A3006 RMK MADISHF
PVC,2017-11-03 11:15,-70.2200,42.0700,M,M,M,190.00,8.00,M,30.09,M,10.00,M,M,M,M,M,M,M,M,M,M,KPVC 031115Z AUTO 19008KT 10SM A3009 RMK MADISHF
FIT,2017-11-03 11:15,-71.7558,42.5519,M,M,M,200.00,5.00,M,30.04,M,10.00,M,CLR,M,M,M,M,M,M,M,M,KFIT 031115Z AUTO 20005KT 10SM CLR A3004 RMK MADISHF
PYM,2017-11-03 11:15,-70.7288,41.9090,57.90,57.00,96.81,210.00,4.00,0.00,30.09,M,0.25,M,VV ,M,M,M,200.00,M,M,M,FG,KPYM 031115Z AUTO 21004KT 1/4SM FG VV002 14/14 A3009 RMK AO2 T01440139
FMH,2017-11-03 11:15,-70.5215,41.6585,57.20,57.20,100.00,210.00,4.00,0.00,30.11,M,0.25,M,OVC,M,M,M,200.00,M,M,M,FG,KFMH 031115Z AUTO 21004KT M1/4SM FG OVC002 14/14 A3011 RMK AO2
GHG,2017-11-03 11:15,-70.6721,42.0982,55.40,55.40,100.00,0.00,0.00,0.00,30.08,M,5.00,M,CLR,M,M,M,M,M,M,M,BR,KGHG 031115Z AUTO 00000KT 5SM BR CLR 13/13 A3008 RMK AO2
PVC,2017-11-03 11:20,-70.2200,42.0700,M,M,M,180.00,8.00,M,30.09,M,9.00,M,M,M,M,M,M,M,M,M,M,KPVC 031120Z AUTO 18008KT 9SM A3009 RMK MADISHF
HYA,2017-11-03 11:20,-70.2800,41.6700,M,M,M,220.00,6.00,M,30.09,M,0.25,M,VV ,M,M,M,200.00,M,M,M,FG,KHYA 031120Z AUTO 22006KT 1/4SM FG VV002 A3009 RMK MADISHF
OWD,2017-11-03 11:20,-71.1733,42.1912,M,M,M,0.00,0.00,M,30.06,M,10.00,M,CLR,M,M,M,M,M,M,M,M,KOWD 031120Z AUTO 00000KT 10SM CLR A3006 RMK MADISHF
CQX,2017-11-03 11:20,-69.9933,41.6875,M,M,M,0.00,0.00,M,30.12,M,0.50,M,VV ,M,M,M,200.00,M,M,M,FG,KCQX 031120Z AUTO 00000KT 1/2SM FG VV002 A3012 RMK MADISHF
EWB,2017-11-03 11:20,-70.9583,41.6764,M,M,M,260.00,3.00,M,30.09,M,0.24,M,VV ,M,M,M,400.00,M,M,M,FG,KEWB 031120Z AUTO 26003KT 1/4SM FG VV004 A3009 RMK MADISHF
ORH,2017-11-03 11:20,-71.8757,42.2673,M,M,M,M,M,M,30.05,M,10.00,M,OVC,M,M,M,600.00,M,M,M,M,KORH 031120Z AUTO /////KT 10SM OVC006 A3005 RMK MADISHF
BED,2017-11-03 11:20,-71.2890,42.4699,M,M,M,220.00,7.00,M,30.04,M,10.00,M,M,M,M,M,M,M,M,M,M,KBED 031120Z AUTO 22007KT 10SM A3004 RMK MADISHF
ORE,2017-11-03 11:20,-72.2886,42.5701,M,M,M,210.00,4.00,M,30.03,M,10.00,M,CLR,M,M,M,M,M,M,M,M,KORE 031120Z AUTO 21004KT 10SM CLR A3003 RMK MADISHF
FIT,2017-11-03 11:20,-71.7558,42.5519,M,M,M,200.00,6.00,M,30.04,M,10.00,M,CLR,M,M,M,M,M,M,M,M,KFIT 031120Z AUTO 20006KT 10SM CLR A3004 RMK MADISHF
BOS,2017-11-03 11:20,-71.0097,42.3606,M,M,M,220.00,13.00,M,30.05,M,10.00,M,CLR,M,M,M,M,M,M,M,M,KBOS 031120Z AUTO 22013KT 10SM CLR A3005 RMK MADISHF
PYM,2017-11-03 11:20,-70.7288,41.9090,M,M,M,190.00,3.00,M,30.09,M,0.24,M,VV ,M,M,M,200.00,M,M,M,FG,KPYM 031120Z AUTO 19003KT 1/4SM FG VV002 A3009 RMK MADISHF
CQX,2017-11-03 11:21,-69.9933,41.6875,53.10,53.10,100.00,160.00,3.00,0.00,30.12,M,0.25,M,VV ,M,M,M,200.00,M,M,M,FG,KCQX 031121Z AUTO 16003KT 1/4SM FG VV002 12/12 A3012 RMK AO2 T01170117
EWB,2017-11-03 11:24,-70.9583,41.6764,52.00,52.00,100.00,250.00,3.00,0.00,30.08,M,0.25,M,VV ,M,M,M,400.00,M,M,M,FG,KEWB 031124Z 25003KT 1/4SM R05/1000V2000FT FG VV004 11/11 A3008 RMK AO2 T01110111
TAN,2017-11-03 11:25,-71.0211,41.8756,M,M,M,120.00,3.00,M,30.08,M,8.00,M,FEW,M,M,M,2900.00,M,M,M,M,KTAN 031125Z AUTO 12003KT 8SM FEW029 A3008 RMK MADISHF
OWD,2017-11-03 11:25,-71.1733,42.1912,M,M,M,0.00,0.00,M,30.06,M,10.00,M,CLR,M,M,M,M,M,M,M,M,KOWD 031125Z AUTO 00000KT 10SM CLR A3006 RMK MADISHF
EWB,2017-11-03 11:25,-70.9583,41.6764,M,M,M,0.00,0.00,M,30.08,M,0.24,M,VV ,M,M,M,400.00,M,M,M,FG,KEWB 031125Z AUTO 00000KT 1/4SM FG VV004 A3008 RMK MADISHF
PYM,2017-11-03 11:25,-70.7288,41.9090,M,M,M,190.00,3.00,M,30.09,M,0.25,M,VV ,M,M,M,200.00,M,M,M,FG,KPYM 031125Z AUTO 19003KT 1/4SM FG VV002 A3009 RMK MADISHF
CQX,2017-11-03 11:25,-69.9933,41.6875,M,M,M,0.00,0.00,M,30.12,M,0.24,M,VV ,M,M,M,200.00,M,M,M,FG,KCQX 031125Z AUTO 00000KT 1/4SM FG VV002 A3012 RMK MADISHF
ORE,2017-11-03 11:25,-72.2886,42.5701,M,M,M,210.00,7.00,M,30.04,M,10.00,M,CLR,M,M,M,M,M,M,M,M,KORE 031125Z AUTO 21007KT 10SM CLR A3004 RMK MADISHF
BOS,2017-11-03 11:25,-71.0097,42.3606,M,M,M,220.00,12.00,M,30.05,M,10.00,M,CLR,M,M,M,M,M,M,M,M,KBOS 031125Z AUTO 22012KT 10SM CLR A3005 RMK MADISHF
ORH,2017-11-03 11:25,-71.8757,42.2673,M,M,M,200.00,12.00,M,30.05,M,10.00,17.00,OVC,M,M,M,600.00,M,M,M,M,KORH 031125Z AUTO 20012G17KT 10SM OVC006 A3005 RMK MADISHF
BED,2017-11-03 11:25,-71.2890,42.4699,M,M,M,210.00,9.00,M,30.04,M,10.00,M,M,M,M,M,M,M,M,M,M,KBED 031125Z AUTO 21009KT 10SM A3004 RMK MADISHF
HYA,2017-11-03 11:25,-70.2800,41.6700,M,M,M,200.00,3.00,M,30.09,M,0.25,M,VV ,M,M,M,200.00,M,M,M,FG,KHYA 031125Z AUTO 20003KT 1/4SM FG VV002 A3009 RMK MADISHF
PVC,2017-11-03 11:28,-70.2200,42.0700,57.20,55.40,93.69,190.00,8.00,0.00,30.10,M,1.75,M,M,M,M,M,M,M,M,M,BR,KPVC 031128Z AUTO 19008KT 1 3/4SM BR 14/13 A3010 RMK AO2 $
CQX,2017-11-03 11:30,-69.9933,41.6875,M,M,M,220.00,3.00,M,30.12,M,0.13,M,VV ,M,M,M,200.00,M,M,M,FG,KCQX 031130Z AUTO 22003KT 1/4SM FG VV002 A3012 RMK MADISHF
PVC,2017-11-03 11:30,-70.2200,42.0700,M,M,M,190.00,9.00,M,30.10,M,1.50,M,M,M,M,M,M,M,M,M,BR,KPVC 031130Z AUTO 19009KT 1 1/2SM BR A3010 RMK MADISHF
TAN,2017-11-03 11:30,-71.0211,41.8756,M,M,M,130.00,4.00,M,30.08,M,7.00,M,FEW,M,M,M,2900.00,M,M,M,M,KTAN 031130Z AUTO 13004KT 7SM FEW029 A3008 RMK MADISHF
HYA,2017-11-03 11:30,-70.2800,41.6700,M,M,M,170.00,3.00,M,30.09,M,0.25,M,VV ,M,M,M,200.00,M,M,M,FG,KHYA 031130Z AUTO 17003KT 1/4SM FG VV002 A3009 RMK MADISHF
ORH,2017-11-03 11:30,-71.8757,42.2673,M,M,M,M,M,M,30.05,M,10.00,M,OVC,M,M,M,499.00,M,M,M,M,KORH 031130Z AUTO /////KT 10SM OVC004 A3005 RMK MADISHF
BED,2017-11-03 11:30,-71.2890,42.4699,M,M,M,200.00,9.00,M,30.03,M,10.00,M,M,M,M,M,M,M,M,M,M,KBED 031130Z AUTO 20009KT 10SM A3003 RMK MADISHF
OWD,2017-11-03 11:30,-71.1733,42.1912,M,M,M,150.00,4.00,M,30.06,M,8.00,M,CLR,M,M,M,M,M,M,M,M,KOWD 031130Z AUTO 15004KT 8SM CLR A3006 RMK MADISHF
FIT,2017-11-03 11:30,-71.7558,42.5519,M,M,M,220.00,6.00,M,30.04,M,10.00,M,CLR,M,M,M,M,M,M,M,M,KFIT 031130Z AUTO 22006KT 10SM CLR A3004 RMK MADISHF
ORE,2017-11-03 11:30,-72.2886,42.5701,M,M,M,210.00,5.00,M,30.04,M,10.00,M,FEW,M,M,M,1600.00,M,M,M,M,KORE 031130Z AUTO 21005KT 10SM FEW016 A3004 RMK MADISHF
EWB,2017-11-03 11:30,-70.9583,41.6764,M,M,M,0.00,0.00,M,30.08,M,0.24,M,VV ,M,M,M,400.00,M,M,M,FG,KEWB 031130Z AUTO 00000KT 1/4SM FG VV004 A3008 RMK MADISHF
BOS,2017-11-03 11:30,-71.0097,42.3606,M,M,M,210.00,11.00,M,30.05,M,10.00,M,CLR,M,M,M,M,M,M,M,M,KBOS 031130Z AUTO 21011KT 10SM CLR A3005 RMK MADISHF
BED,2017-11-03 11:35,-71.2890,42.4699,M,M,M,180.00,10.00,M,30.03,M,10.00,M,M,M,M,M,M,M,M,M,M,KBED 031135Z AUTO 18010KT 10SM A3003 RMK MADISHF
PYM,2017-11-03 11:35,-70.7288,41.9090,M,M,M,190.00,4.00,M,30.09,M,0.50,M,VV ,M,M,M,200.00,M,M,M,FG,KPYM 031135Z AUTO 19004KT 1/2SM FG VV002 A3009 RMK MADISHF
OWD,2017-11-03 11:35,-71.1733,42.1912,M,M,M,150.00,3.00,M,30.05,M,6.00,M,CLR,M,M,M,M,M,M,M,BR,KOWD 031135Z AUTO 15003KT 6SM BR CLR A3005 RMK MADISHF
ORE,2017-11-03 11:35,-72.2886,42.5701,M,M,M,200.00,5.00,M,30.04,M,10.00,M,FEW,M,M,M,1600.00,M,M,M,M,KORE 031135Z AUTO 20005KT 10SM FEW016 A3004 RMK MADISHF
EWB,2017-11-03 11:35,-70.9583,41.6764,M,M,M,150.00,3.00,M,30.08,M,0.24,M,VV ,M,M,M,300.00,M,M,M,FG,KEWB 031135Z AUTO 15003KT 1/4SM FG VV003 A3008 RMK MADISHF
FMH,2017-11-03 11:35,-70.5215,41.6585,57.20,59.00,106.68,200.00,4.00,0.00,30.11,M,0.25,M,OVC,M,M,M,200.00,M,M,M,FG,KFMH 031135Z AUTO 20004KT M1/4SM FG OVC002 14/15 A3011 RMK AO2
FIT,2017-11-03 11:35,-71.7558,42.5519,M,M,M,210.00,7.00,M,30.04,M,10.00,M,CLR,M,M,M,M,M,M,M,M,KFIT 031135Z AUTO 21007KT 10SM CLR A3004 RMK MADISHF
PVC,2017-11-03 11:35,-70.2200,42.0700,M,M,M,180.00,8.00,M,30.09,M,1.00,M,M,M,M,M,M,M,M,M,BR,KPVC 031135Z AUTO 18008KT 1SM BR A3009 RMK MADISHF
ORH,2017-11-03 11:35,-71.8757,42.2673,M,M,M,210.00,12.00,M,30.05,M,10.00,M,OVC,M,M,M,499.00,M,M,M,M,KORH 031135Z AUTO 21012KT 10SM OVC004 A3005 RMK MADISHF
HYA,2017-11-03 11:35,-70.2800,41.6700,M,M,M,180.00,5.00,M,30.09,M,0.24,M,VV ,M,M,M,200.00,M,M,M,FG,KHYA 031135Z AUTO 18005KT 1/4SM FG VV002 A3009 RMK MADISHF
BOS,2017-11-03 11:35,-71.0097,42.3606,M,M,M,210.00,9.00,M,30.05,M,10.00,M,CLR,M,M,M,M,M,M,M,M,KBOS 031135Z AUTO 21009KT 10SM CLR A3005 RMK MADISHF
CQX,2017-11-03 11:35,-69.9933,41.6875,M,M,M,190.00,3.00,M,30.12,M,0.13,M,VV ,M,M,M,200.00,M,M,M,FG,KCQX 031135Z AUTO 19003KT 1/4SM FG VV002 A3012 RMK MADISHF
TAN,2017-11-03 11:35,-71.0211,41.8756,M,M,M,130.00,3.00,M,30.08,M,7.00,M,FEW,M,M,M,2800.00,M,M,M,M,KTAN 031135Z AUTO 13003KT 7SM FEW028 A3008 RMK MADISHF
GHG,2017-11-03 11:35,-70.6721,42.0982,55.40,55.40,100.00,220.00,4.00,0.00,30.07,M,0.25,M,VV ,M,M,M,200.00,M,M,M,FG,KGHG 031135Z AUTO 22004KT 1/4SM FG VV002 13/13 A3007 RMK AO2
PVC,2017-11-03 11:37,-70.2200,42.0700,57.20,55.40,93.69,180.00,9.00,0.00,30.09,M,0.75,M,M,M,M,M,M,M,M,M,BR,KPVC 031137Z AUTO 18009KT 3/4SM BR 14/13 A3009 RMK AO2 $
PYM,2017-11-03 11:37,-70.7288,41.9090,59.00,57.90,96.13,200.00,3.00,0.00,30.09,M,0.50,M,VV ,M,M,M,200.00,M,M,M,FG,KPYM 031137Z AUTO 20003KT 1/2SM FG VV002 15/14 A3009 RMK AO2 T01500144
FIT,2017-11-03 11:40,-71.7558,42.5519,M,M,M,200.00,7.00,M,30.04,M,10.00,M,CLR,M,M,M,M,M,M,M,M,KFIT 031140Z AUTO 20007KT 10SM CLR A3004 RMK MADISHF
PVC,2017-11-03 11:40,-70.2200,42.0700,M,M,M,180.00,8.00,M,30.09,M,0.50,M,M,M,M,M,M,M,M,M,FG,KPVC 031140Z AUTO 18008KT 1/2SM FG A3009 RMK MADISHF
PYM,2017-11-03 11:40,-70.7288,41.9090,M,M,M,190.00,3.00,M,30.09,M,0.50,M,VV ,M,M,M,200.00,M,M,M,FG,KPYM 031140Z AUTO 19003KT 1/2SM FG VV002 A3009 RMK VRB03KT  MADISHF
ORH,2017-11-03 11:40,-71.8757,42.2673,M,M,M,210.00,10.00,M,30.05,M,10.00,M,OVC,M,M,M,499.00,M,M,M,M,KORH 031140Z AUTO 21010KT 10SM OVC004 A3005 RMK CIG 5V9  MADISHF
HYA,2017-11-03 11:40,-70.2800,41.6700,M,M,M,190.00,5.00,M,30.09,M,0.24,M,VV ,M,M,M,200.00,M,M,M,FG,KHYA 031140Z AUTO 19005KT 1/4SM FG VV002 A3009 RMK MADISHF
BED,2017-11-03 11:40,-71.2890,42.4699,M,M,M,190.00,9.00,M,30.03,M,10.00,M,M,M,M,M,M,M,M,M,M,KBED 031140Z AUTO 19009KT 10SM A3003 RMK MADISHF
ORE,2017-11-03 11:40,-72.2886,42.5701,M,M,M,190.00,10.00,M,30.03,M,10.00,M,FEW,M,M,M,1600.00,M,M,M,M,KORE 031140Z AUTO 19010KT 10SM FEW016 A3003 RMK MADISHF
BOS,2017-11-03 11:40,-71.0097,42.3606,M,M,M,220.00,9.00,M,30.05,M,10.00,M,CLR,M,M,M,M,M,M,M,M,KBOS 031140Z AUTO 22009KT 10SM CLR A3005 RMK MADISHF
EWB,2017-11-03 11:40,-70.9583,41.6764,M,M,M,150.00,3.00,M,30.08,M,0.24,M,VV ,M,M,M,300.00,M,M,M,FG,KEWB 031140Z AUTO 15003KT 1/4SM FG VV003 A3008 RMK MADISHF
OWD,2017-11-03 11:40,-71.1733,42.1912,M,M,M,150.00,3.00,M,30.05,M,6.00,M,CLR,M,M,M,M,M,M,M,BR,KOWD 031140Z AUTO 15003KT 6SM BR CLR A3005 RMK MADISHF
TAN,2017-11-03 11:40,-71.0211,41.8756,M,M,M,140.00,3.00,M,30.07,M,6.00,M,CLR,M,M,M,M,M,M,M,BR,KTAN 031140Z AUTO 14003KT 6SM BR CLR A3007 RMK MADISHF
CQX,2017-11-03 11:40,-69.9933,41.6875,M,M,M,0.00,0.00,M,30.12,M,0.13,M,VV ,M,M,M,200.00,M,M,M,FG,KCQX 031140Z AUTO 00000KT 1/4SM FG VV002 A3012 RMK MADISHF
PYM,2017-11-03 11:45,-70.7288,41.9090,M,M,M,170.00,4.00,M,30.08,M,0.25,M,VV ,M,M,M,200.00,M,M,M,FG,KPYM 031145Z AUTO 17004KT 1/4SM FG VV002 A3008 RMK MADISHF
PVC,2017-11-03 11:45,-70.2200,42.0700,M,M,M,190.00,9.00,M,30.09,M,0.50,M,M,M,M,M,M,M,M,M,FG,KPVC 031145Z AUTO 19009KT 1/2SM FG A3009 RMK MADISHF
ORE,2017-11-03 11:45,-72.2886,42.5701,M,M,M,190.00,8.00,M,30.03,M,10.00,M,FEW,M,M,M,1699.00,M,M,M,M,KORE 031145Z AUTO 19008KT 10SM FEW016 A3003 RMK MADISHF
BOS,2017-11-03 11:45,-71.0097,42.3606,M,M,M,210.00,10.00,M,30.05,M,10.00,M,CLR,M,M,M,M,M,M,M,M,KBOS 031145Z AUTO 21010KT 10SM CLR A3005 RMK MADISHF
ORH,2017-11-03 11:45,-71.8757,42.2673,M,M,M,M,M,M,30.05,M,10.00,17.00,OVC,M,M,M,499.00,M,M,M,M,KORH 031145Z AUTO /////G17KT 10SM OVC004 A3005 RMK CIG 5V10  MADISHF
HYA,2017-11-03 11:45,-70.2800,41.6700,M,M,M,190.00,6.00,M,30.09,M,0.24,M,VV ,M,M,M,200.00,M,M,M,FG,KHYA 031145Z AUTO 19006KT 1/4SM FG VV002 A3009 RMK MADISHF
CQX,2017-11-03 11:45,-69.9933,41.6875,M,M,M,0.00,0.00,M,30.12,M,0.13,M,VV ,M,M,M,200.00,M,M,M,FG,KCQX 031145Z AUTO 00000KT 1/4SM FG VV002 A3012 RMK MADISHF
TAN,2017-11-03 11:45,-71.0211,41.8756,M,M,M,150.00,3.00,M,30.07,M,4.00,M,CLR,M,M,M,M,M,M,M,BR,KTAN 031145Z AUTO 15003KT 4SM BR CLR A3007 RMK MADISHF
FIT,2017-11-03 11:45,-71.7558,42.5519,M,M,M,200.00,7.00,M,30.04,M,10.00,M,CLR,M,M,M,M,M,M,M,M,KFIT 031145Z AUTO 20007KT 10SM CLR A3004 RMK MADISHF
BED,2017-11-03 11:45,-71.2890,42.4699,M,M,M,190.00,10.00,M,30.03,M,10.00,M,M,M,M,M,M,M,M,M,M,KBED 031145Z AUTO 19010KT 10SM A3003 RMK MADISHF
OWD,2017-11-03 11:45,-71.1733,42.1912,M,M,M,0.00,0.00,M,30.05,M,10.00,M,CLR,M,M,M,M,M,M,M,M,KOWD 031145Z AUTO 00000KT 10SM CLR A3005 RMK MADISHF
EWB,2017-11-03 11:45,-70.9583,41.6764,53.10,53.10,100.00,0.00,0.00,0.00,30.08,M,0.25,M,VV ,M,M,M,200.00,M,M,M,FG,KEWB 031145Z 00000KT 1/4SM R05/1800V3500FT FG VV002 12/12 A3008 RMK AO2 T01170117
PVC,2017-11-03 11:46,-70.2200,42.0700,57.20,55.40,93.69,190.00,8.00,0.00,30.09,M,0.25,M,M,M,M,M,M,M,M,M,FG,KPVC 031146Z AUTO 19008KT 1/4SM FG 14/13 A3009 RMK AO2 $
HYA,2017-11-03 11:50,-70.2800,41.6700,M,M,M,190.00,5.00,M,30.09,M,0.13,M,VV ,M,M,M,200.00,M,M,M,FG,KHYA 031150Z AUTO 19005KT 1/4SM FG VV002 A3009 RMK MADISHF
BED,2017-11-03 11:50,-71.2890,42.4699,M,M,M,190.00,9.00,M,30.02,M,10.00,M,SCT,M,M,M,999.00,M,M,M,M,KBED 031150Z AUTO 19009KT 10SM SCT009 A3002 RMK MADISHF
EWB,2017-11-03 11:50,-70.9583,41.6764,M,M,M,0.00,0.00,M,30.08,M,0.24,M,VV ,M,M,M,300.00,M,M,M,FG,KEWB 031150Z AUTO 00000KT 1/4SM FG VV003 A3008 RMK MADISHF
ORH,2017-11-03 11:50,-71.8757,42.2673,M,M,M,M,M,M,30.05,M,10.00,M,OVC,M,M,M,499.00,M,M,M,M,KORH 031150Z AUTO /////KT 10SM OVC004 A3005 RMK CIG 5V11  MADISHF
PVC,2017-11-03 11:50,-70.2200,42.0700,M,M,M,190.00,8.00,M,30.09,M,0.25,M,M,M,M,M,M,M,M,M,FG,KPVC 031150Z AUTO 19008KT 1/4SM FG A3009 RMK MADISHF
CQX,2017-11-03 11:50,-69.9933,41.6875,M,M,M,230.00,3.00,M,30.12,M,0.13,M,VV ,M,M,M,200.00,M,M,M,FG,KCQX 031150Z AUTO 23003KT 1/4SM FG VV002 A3012 RMK MADISHF
ORE,2017-11-03 11:50,-72.2886,42.5701,M,M,M,200.00,8.00,M,30.04,M,10.00,M,FEW,M,M,M,1699.00,M,M,M,M,KORE 031150Z AUTO 20008KT 10SM FEW016 A3004 RMK MADISHF
OWD,2017-11-03 11:50,-71.1733,42.1912,M,M,M,0.00,0.00,M,30.05,M,10.00,M,FEW,M,M,M,3000.00,M,M,M,M,KOWD 031150Z AUTO 00000KT 10SM FEW030 A3005 RMK MADISHF
BOS,2017-11-03 11:50,-71.0097,42.3606,M,M,M,220.00,10.00,M,30.05,M,10.00,M,M,M,M,M,M,M,M,M,M,KBOS 031150Z AUTO 22010KT 10SM A3005 RMK MADISHF
PYM,2017-11-03 11:50,-70.7288,41.9090,M,M,M,170.00,3.00,M,30.09,M,0.25,M,VV ,M,M,M,200.00,M,M,M,FG,KPYM 031150Z AUTO 17003KT 1/4SM FG VV002 A3009 RMK VRB03KT  MADISHF
TAN,2017-11-03 11:50,-71.0211,41.8756,M,M,M,0.00,0.00,M,30.08,M,4.00,M,CLR,M,M,M,M,M,M,M,BR,KTAN 031150Z AUTO 00000KT 4SM BR CLR A3008 RMK MADISHF
FIT,2017-11-03 11:52,-71.7558,42.5519,64.90,60.10,84.44,210.00,7.00,0.00,30.04,1017.30,10.00,M,CLR,M,M,M,M,M,M,M,M,KFIT 031152Z AUTO 21007KT 10SM CLR 18/16 A3004 RMK AO2 SLP173 T01830156 10189 20156 58010
CQX,2017-11-03 11:52,-69.9933,41.6875,57.00,57.00,100.00,220.00,3.00,0.00,30.12,1020.00,0.25,M,VV ,M,M,M,200.00,M,M,M,FG,KCQX 031152Z AUTO 22003KT M1/4SM FG VV002 14/14 A3012 RMK AO2 SLP200 T01390139 10144 20117 55007
PYM,2017-11-03 11:52,-70.7288,41.9090,59.00,57.90,96.13,200.00,3.00,0.00,30.09,1018.80,0.25,M,VV ,M,M,M,200.00,M,M,M,FG,KPYM 031152Z AUTO 20003KT 1/4SM FG VV002 15/14 A3009 RMK AO2 SLP188 T01500144 10156 20122 55004
ORE,2017-11-03 11:52,-72.2886,42.5701,61.00,57.90,89.52,200.00,10.00,0.00,30.03,1017.00,10.00,M,FEW,M,M,M,1700.00,M,M,M,M,KORE 031152Z AUTO 20010KT 10SM FEW017 16/14 A3003 RMK AO2 SLP170 T01610144 10167 20156 56010 TSNO
TAN,2017-11-03 11:52,-71.0211,41.8756,51.10,48.90,92.14,0.00,0.00,0.00,30.08,1018.40,4.00,M,CLR,M,M,M,M,M,M,M,BR,KTAN 031152Z AUTO 00000KT 4SM BR CLR 11/09 A3008 RMK AO2 SLP184 T01060094 10122 20083 58011
OWD,2017-11-03 11:53,-71.1733,42.1912,55.90,55.00,96.78,0.00,0.00,0.00,30.05,1017.60,10.00,M,FEW,M,M,M,3000.00,M,M,M,M,KOWD 031153Z 00000KT 10SM FEW030 13/13 A3005 RMK AO2 SLP176 T01330128 10161 20117 58014
EWB,2017-11-03 11:53,-70.9583,41.6764,54.00,54.00,100.00,0.00,0.00,0.00,30.08,1018.60,0.25,M,VV ,M,M,M,300.00,M,M,M,FG,KEWB 031153Z 00000KT 1/4SM R05/1400V3000FT FG VV003 12/12 A3008 RMK AO2 SLP186 T01220122 10144 20100 56005
ORH,2017-11-03 11:54,-71.8757,42.2673,59.00,55.90,89.44,220.00,11.00,0.00,30.05,1017.70,10.00,M,OVC,M,M,M,600.00,M,M,M,M,KORH 031154Z 22011KT 10SM OVC006 15/13 A3005 RMK AO2 CIG 005V011 SLP177 T01500133 10156 20150 58013
BOS,2017-11-03 11:54,-71.0097,42.3606,60.10,55.00,83.23,220.00,10.00,0.00,30.05,1017.60,10.00,M,SCT,OVC,M,M,20000.00,25000.00,M,M,M,KBOS 031154Z 22010KT 10SM SCT200 OVC250 16/13 A3005 RMK AO2 SLP176 T01560128 10156 20133 56014
PVC,2017-11-03 11:55,-70.2200,42.0700,M,M,M,190.00,8.00,M,30.09,M,0.25,M,M,M,M,M,M,M,M,M,-RA FG,KPVC 031155Z AUTO 19008KT 1/4SM -RA FG A3009 RMK MADISHF
CQX,2017-11-03 11:55,-69.9933,41.6875,M,M,M,0.00,0.00,M,30.12,M,0.13,M,VV ,M,M,M,200.00,M,M,M,FG,KCQX 031155Z AUTO 00000KT 1/4SM FG VV002 A3012 RMK MADISHF
FIT,2017-11-03 11:55,-71.7558,42.5519,M,M,M,200.00,7.00,M,30.04,M,10.00,M,CLR,M,M,M,M,M,M,M,M,KFIT 031155Z AUTO 20007KT 10SM CLR A3004 RMK MADISHF
PYM,2017-11-03 11:55,-70.7288,41.9090,M,M,M,200.00,3.00,M,30.09,M,0.25,M,VV ,M,M,M,200.00,M,M,M,FG,KPYM 031155Z AUTO 20003KT 1/4SM FG VV002 A3009 RMK VRB03KT  MADISHF
TAN,2017-11-03 11:55,-71.0211,41.8756,M,M,M,160.00,3.00,M,30.07,M,4.00,M,CLR,M,M,M,M,M,M,M,BR,KTAN 031155Z AUTO 16003KT 4SM BR CLR A3007 RMK MADISHF
ORH,2017-11-03 11:55,-71.8757,42.2673,M,M,M,M,M,M,30.05,M,10.00,M,OVC,M,M,M,600.00,M,M,M,M,KORH 031155Z AUTO /////KT 10SM OVC006 A3005 RMK CIG 5V11  MADISHF
HYA,2017-11-03 11:55,-70.2800,41.6700,M,M,M,190.00,5.00,M,30.09,M,0.13,M,VV ,M,M,M,200.00,M,M,M,FG,KHYA 031155Z AUTO 19005KT 1/4SM FG VV002 A3009 RMK MADISHF
BED,2017-11-03 11:55,-71.2890,42.4699,M,M,M,190.00,8.00,M,30.03,M,10.00,M,SCT,M,M,M,999.00,M,M,M,M,KBED 031155Z AUTO 19008KT 10SM SCT009 A3003 RMK MADISHF
OWD,2017-11-03 11:55,-71.1733,42.1912,M,M,M,120.00,3.00,M,30.05,M,10.00,M,CLR,M,M,M,M,M,M,M,M,KOWD 031155Z AUTO 12003KT 10SM CLR A3005 RMK MADISHF
BOS,2017-11-03 11:55,-71.0097,42.3606,M,M,M,220.00,10.00,M,30.05,M,10.00,M,CLR,M,M,M,M,M,M,M,M,KBOS 031155Z AUTO 22010KT 10SM CLR A3005 RMK MADISHF
EWB,2017-11-03 11:55,-70.9583,41.6764,M,M,M,0.00,0.00,M,30.08,M,0.24,M,VV ,M,M,M,300.00,M,M,M,FG,KEWB 031155Z AUTO 00000KT 1/4SM FG VV003 A3008 RMK MADISHF
GHG,2017-11-03 11:55,-70.6721,42.0982,57.20,57.20,100.00,210.00,6.00,0.00,30.07,M,10.00,M,CLR,M,M,M,M,M,M,M,M,KGHG 031155Z AUTO 21006KT 10SM CLR 14/14 A3007 RMK AO2
FMH,2017-11-03 11:55,-70.5215,41.6585,59.00,59.00,100.00,210.00,6.00,0.00,30.11,M,0.25,M,OVC,M,M,M,200.00,M,M,M,FG,KFMH 031155Z AUTO 21006KT M1/4SM FG OVC002 15/15 A3011 RMK AO2
BED,2017-11-03 11:56,-71.2890,42.4699,60.10,57.00,89.48,190.00,7.00,0.00,30.03,1018.10,10.00,M,SCT,SCT,M,M,1000.00,20000.00,M,M,M,KBED 031156Z 19007KT 10SM SCT010 SCT200 16/14 A3003 RMK AO2 SLP181 T01560139 10161 20150 57016
HYA,2017-11-03 11:56,-70.2800,41.6700,59.00,59.00,100.00,180.00,4.00,0.00,30.09,1018.90,0.25,M,VV ,M,M,M,200.00,M,M,M,FG,KHYA 031156Z 18004KT M1/4SM FG VV002 15/15 A3009 RMK AO2 SLP189 T01500150 10161 20128 58009
MQE,2017-11-03 11:56,-71.1142,42.2121,57.90,53.10,84.00,210.00,13.00,0.00,30.05,1018.70,M,M,M,M,M,M,M,M,M,M,M,KMQE 031156Z AUTO 21013KT 14/12 A3005 RMK AO1 SLP187 T01440117 10150 20139 58011
PVC,2017-11-03 11:56,-70.2200,42.0700,57.00,55.90,96.10,200.00,8.00,0.00,30.09,1019.00,0.25,M,M,M,M,M,M,M,M,M,-RA FG,KPVC 031156Z AUTO 20008KT 1/4SM -RA FG 14/13 A3009 RMK AO2 RAB51 SLP190 P0000 60000 T01390133 10156 20139 56012 $
CQX,2017-11-03 12:00,-69.9933,41.6875,M,M,M,170.00,4.00,M,30.12,M,0.13,M,VV ,M,M,M,200.00,M,M,M,FG,KCQX 031200Z AUTO 17004KT 1/4SM FG VV002 A3012 RMK MADISHF
PYM,2017-11-03 12:00,-70.7288,41.9090,M,M,M,190.00,6.00,M,30.09,M,0.50,M,OVC,M,M,M,200.00,M,M,M,FG,KPYM 031200Z AUTO 19006KT 1/2SM FG OVC002 A3009 RMK MADISHF
PVC,2017-11-03 12:00,-70.2200,42.0700,M,M,M,200.00,9.00,M,30.09,M,0.25,M,M,M,M,M,M,M,M,M,-RA FG,KPVC 031200Z AUTO 20009KT 1/4SM -RA FG A3009 RMK MADISHF
EWB,2017-11-03 12:00,-70.9583,41.6764,M,M,M,0.00,0.00,M,30.08,M,0.24,M,VV ,M,M,M,300.00,M,M,M,FG,KEWB 031200Z AUTO 00000KT 1/4SM FG VV003 A3008 RMK MADISHF
ORH,2017-11-03 12:00,-71.8757,42.2673,M,M,M,M,M,M,30.06,M,10.00,M,OVC,M,M,M,600.00,M,M,M,M,KORH 031200Z AUTO /////KT 10SM OVC006 A3006 RMK MADISHF
ORE,2017-11-03 12:00,-72.2886,42.5701,M,M,M,200.00,7.00,M,30.03,M,10.00,M,FEW,M,M,M,1699.00,M,M,M,M,KORE 031200Z AUTO 20007KT 10SM FEW016 A3003 RMK MADISHF
HYA,2017-11-03 12:00,-70.2800,41.6700,M,M,M,180.00,5.00,M,30.09,M,0.13,M,VV ,M,M,M,200.00,M,M,M,FG,KHYA 031200Z AUTO 18005KT 1/4SM FG VV002 A3009 RMK MADISHF
BED,2017-11-03 12:00,-71.2890,42.4699,M,M,M,200.00,7.00,M,30.03,M,10.00,M,CLR,M,M,M,M,M,M,M,M,KBED 031200Z AUTO 20007KT 10SM CLR A3003 RMK MADISHF
FIT,2017-11-03 12:00,-71.7558,42.5519,M,M,M,200.00,6.00,M,30.04,M,10.00,M,CLR,M,M,M,M,M,M,M,M,KFIT 031200Z AUTO 20006KT 10SM CLR A3004 RMK MADISHF
TAN,2017-11-03 12:00,-71.0211,41.8756,M,M,M,160.00,3.00,M,30.07,M,4.00,M,CLR,M,M,M,M,M,M,M,BR,KTAN 031200Z AUTO 16003KT 4SM BR CLR A3007 RMK MADISHF
OWD,2017-11-03 12:00,-71.1733,42.1912,M,M,M,0.00,0.00,M,30.06,M,10.00,M,CLR,M,M,M,M,M,M,M,M,KOWD 031200Z AUTO 00000KT 10SM CLR A3006 RMK MADISHF
BOS,2017-11-03 12:00,-71.0097,42.3606,M,M,M,220.00,9.00,M,30.06,M,10.00,M,CLR,M,M,M,M,M,M,M,M,KBOS 031200Z AUTO 22009KT 10SM CLR A3006 RMK MADISHF
TAN,2017-11-03 12:05,-71.0211,41.8756,M,M,M,150.00,3.00,M,30.07,M,7.00,M,CLR,M,M,M,M,M,M,M,M,KTAN 031205Z AUTO 15003KT 7SM CLR A3007 RMK MADISHF
PVC,2017-11-03 12:05,-70.2200,42.0700,M,M,M,200.00,8.00,M,30.09,M,0.25,M,M,M,M,M,M,M,M,M,-RA FG,KPVC 031205Z AUTO 20008KT 1/4SM -RA FG A3009 RMK MADISHF
ORE,2017-11-03 12:05,-72.2886,42.5701,M,M,M,210.00,9.00,M,30.03,M,10.00,M,FEW,M,M,M,1699.00,M,M,M,M,KORE 031205Z AUTO 21009KT 10SM FEW016 A3003 RMK MADISHF
OWD,2017-11-03 12:05,-71.1733,42.1912,M,M,M,0.00,0.00,M,30.06,M,10.00,M,CLR,M,M,M,M,M,M,M,M,KOWD 031205Z AUTO 00000KT 10SM CLR A3006 RMK MADISHF
EWB,2017-11-03 12:05,-70.9583,41.6764,M,M,M,0.00,0.00,M,30.08,M,0.24,M,VV ,M,M,M,300.00,M,M,M,FG,KEWB 031205Z AUTO 00000KT 1/4SM FG VV003 A3008 RMK MADISHF
CQX,2017-11-03 12:05,-69.9933,41.6875,M,M,M,190.00,3.00,M,30.11,M,0.13,M,VV ,M,M,M,200.00,M,M,M,FG,KCQX 031205Z AUTO 19003KT 1/4SM FG VV002 A3011 RMK VRB03KT  MADISHF
HYA,2017-11-03 12:05,-70.2800,41.6700,M,M,M,190.00,4.00,M,30.09,M,0.13,M,VV ,M,M,M,200.00,M,M,M,FG,KHYA 031205Z AUTO 19004KT 1/4SM FG VV002 A3009 RMK MADISHF
BED,2017-11-03 12:05,-71.2890,42.4699,M,M,M,190.00,8.00,M,30.03,M,10.00,M,CLR,M,M,M,M,M,M,M,M,KBED 031205Z AUTO 19008KT 10SM CLR A3003 RMK MADISHF
ORH,2017-11-03 12:05,-71.8757,42.2673,M,M,M,M,M,M,30.06,M,10.00,M,BKN,OVC,M,M,600.00,1100.00,M,M,M,KORH 031205Z AUTO /////KT 10SM BKN006 OVC011 A3006 RMK MADISHF
FIT,2017-11-03 12:05,-71.7558,42.5519,M,M,M,200.00,6.00,M,30.03,M,10.00,M,CLR,M,M,M,M,M,M,M,M,KFIT 031205Z AUTO 20006KT 10SM CLR A3003 RMK MADISHF
BOS,2017-11-03 12:05,-71.0097,42.3606,M,M,M,220.00,9.00,M,30.05,M,10.00,M,CLR,M,M,M,M,M,M,M,M,KBOS 031205Z AUTO 22009KT 10SM CLR A3005 RMK MADISHF
PYM,2017-11-03 12:05,-70.7288,41.9090,59.00,57.90,96.13,170.00,4.00,0.00,30.09,M,1.00,M,OVC,M,M,M,200.00,M,M,M,BR,KPYM 031205Z AUTO 17004KT 1SM BR OVC002 15/14 A3009 RMK AO2 T01500144
PYM,2017-11-03 12:09,-70.7288,41.9090,59.00,57.90,96.13,190.00,3.00,0.00,30.09,M,3.00,M,OVC,M,M,M,200.00,M,M,M,BR,KPYM 031209Z AUTO 19003KT 3SM BR OVC002 15/14 A3009 RMK AO2 T01500144
PYM,2017-11-03 12:10,-70.7288,41.9090,M,M,M,190.00,4.00,M,30.09,M,3.50,M,OVC,M,M,M,200.00,M,M,M,BR,KPYM 031210Z AUTO 19004KT 3SM BR OVC002 A3009 RMK MADISHF
OWD,2017-11-03 12:10,-71.1733,42.1912,M,M,M,0.00,0.00,M,30.06,M,10.00,M,CLR,M,M,M,M,M,M,M,M,KOWD 031210Z AUTO 00000KT 10SM CLR A3006 RMK MADISHF
ORH,2017-11-03 12:10,-71.8757,42.2673,M,M,M,M,M,M,30.06,M,10.00,M,OVC,M,M,M,600.00,M,M,M,M,KORH 031210Z AUTO /////KT 10SM OVC006 A3006 RMK CIG 5V10  MADISHF
HYA,2017-11-03 12:10,-70.2800,41.6700,M,M,M,190.00,5.00,M,30.09,M,0.13,M,VV ,M,M,M,200.00,M,M,M,FG,KHYA 031210Z AUTO 19005KT 1/4SM FG VV002 A3009 RMK MADISHF
EWB,2017-11-03 12:10,-70.9583,41.6764,M,M,M,0.00,0.00,M,30.08,M,0.24,M,VV ,M,M,M,300.00,M,M,M,FG,KEWB 031210Z AUTO 00000KT 1/4SM FG VV003 A3008 RMK MADISHF
ORE,2017-11-03 12:10,-72.2886,42.5701,M,M,M,210.00,8.00,M,30.03,M,10.00,M,CLR,M,M,M,M,M,M,M,M,KORE 031210Z AUTO 21008KT 10SM CLR A3003 RMK MADISHF
PVC,2017-11-03 12:10,-70.2200,42.0700,M,M,M,200.00,9.00,M,30.09,M,0.25,M,M,M,M,M,M,M,M,M,-RA FG,KPVC 031210Z AUTO 20009KT 1/4SM -RA FG A3009 RMK MADISHF
BED,2017-11-03 12:10,-71.2890,42.4699,M,M,M,200.00,7.00,M,30.03,M,10.00,M,SCT,M,M,M,999.00,M,M,M,M,KBED 031210Z AUTO 20007KT 10SM SCT009 A3003 RMK MADISHF
BOS,2017-11-03 12:10,-71.0097,42.3606,M,M,M,210.00,10.00,M,30.05,M,10.00,M,CLR,M,M,M,M,M,M,M,M,KBOS 031210Z AUTO 21010KT 10SM CLR A3005 RMK MADISHF
CQX,2017-11-03 12:10,-69.9933,41.6875,M,M,M,210.00,3.00,M,30.11,M,0.13,M,VV ,M,M,M,200.00,M,M,M,FG,KCQX 031210Z AUTO 21003KT 1/4SM FG VV002 A3011 RMK MADISHF
TAN,2017-11-03 12:10,-71.0211,41.8756,M,M,M,0.00,0.00,M,30.07,M,9.00,M,CLR,M,M,M,M,M,M,M,M,KTAN 031210Z AUTO 00000KT 9SM CLR A3007 RMK MADISHF
TAN,2017-11-03 12:15,-71.0211,41.8756,M,M,M,160.00,3.00,M,30.07,M,10.00,M,CLR,M,M,M,M,M,M,M,M,KTAN 031215Z AUTO 16003KT 10SM CLR A3007 RMK MADISHF
ORH,2017-11-03 12:15,-71.8757,42.2673,M,M,M,M,M,M,30.06,M,10.00,M,OVC,M,M,M,600.00,M,M,M,M,KORH 031215Z AUTO /////KT 10SM OVC006 A3006 RMK MADISHF
HYA,2017-11-03 12:15,-70.2800,41.6700,M,M,M,180.00,6.00,M,30.09,M,0.13,M,VV ,M,M,M,200.00,M,M,M,FG,KHYA 031215Z AUTO 18006KT 1/4SM FG VV002 A3009 RMK MADISHF
OWD,2017-11-03 12:15,-71.1733,42.1912,M,M,M,0.00,0.00,M,30.06,M,10.00,M,CLR,M,M,M,M,M,M,M,M,KOWD 031215Z AUTO 00000KT 10SM CLR A3006 RMK MADISHF
FIT,2017-11-03 12:15,-71.7558,42.5519,M,M,M,230.00,4.00,M,30.04,M,10.00,M,CLR,M,M,M,M,M,M,M,M,KFIT 031215Z AUTO 23004KT 10SM CLR A3004 RMK MADISHF
CQX,2017-11-03 12:15,-69.9933,41.6875,M,M,M,0.00,0.00,M,30.12,M,0.13,M,VV ,M,M,M,200.00,M,M,M,FG,KCQX 031215Z AUTO 00000KT 1/4SM FG VV002 A3012 RMK MADISHF
EWB,2017-11-03 12:15,-70.9583,41.6764,M,M,M,140.00,3.00,M,30.08,M,3.00,M,BKN,M,M,M,400.00,M,M,M,BR,KEWB 031215Z AUTO 14003KT 3SM BR BKN004 A3008 RMK MADISHF
BOS,2017-11-03 12:15,-71.0097,42.3606,M,M,M,210.00,10.00,M,30.05,M,10.00,M,CLR,M,M,M,M,M,M,M,M,KBOS 031215Z AUTO 21010KT 10SM CLR A3005 RMK MADISHF
ORE,2017-11-03 12:15,-72.2886,42.5701,M,M,M,190.00,7.00,M,30.03,M,10.00,M,FEW,M,M,M,1600.00,M,M,M,M,KORE 031215Z AUTO 19007KT 10SM FEW016 A3003 RMK MADISHF
PVC,2017-11-03 12:15,-70.2200,42.0700,M,M,M,200.00,8.00,M,30.09,M,0.25,M,M,M,M,M,M,M,M,M,-RA FG,KPVC 031215Z AUTO 20008KT 1/4SM -RA FG A3009 RMK MADISHF
PYM,2017-11-03 12:15,-70.7288,41.9090,M,M,M,150.00,4.00,M,30.08,M,4.00,M,OVC,M,M,M,200.00,M,M,M,BR,KPYM 031215Z AUTO 15004KT 4SM BR OVC002 A3008 RMK MADISHF
BED,2017-11-03 12:15,-71.2890,42.4699,M,M,M,220.00,7.00,M,30.04,M,10.00,M,BKN,M,M,M,700.00,M,M,M,M,KBED 031215Z AUTO 22007KT 10SM BKN007 A3004 RMK MADISHF
GHG,2017-11-03 12:15,-70.6721,42.0982,59.00,59.00,100.00,220.00,6.00,0.00,30.06,M,10.00,M,CLR,M,M,M,M,M,M,M,M,KGHG 031215Z AUTO 22006KT 10SM CLR 15/15 A3006 RMK AO2
FMH,2017-11-03 12:15,-70.5215,41.6585,59.00,59.00,100.00,220.00,6.00,0.00,30.11,M,0.25,M,OVC,M,M,M,300.00,M,M,M,FG,KFMH 031215Z AUTO 22006KT 1/4SM FG OVC003 15/15 A3011 RMK AO2
EWB,2017-11-03 12:18,-70.9583,41.6764,55.90,55.00,96.78,150.00,3.00,0.00,30.08,M,3.00,M,BKN,M,M,M,400.00,M,M,M,BR,KEWB 031218Z 15003KT 3SM R05/2600VP6000FT BR BKN004 13/13 A3008 RMK AO2 T01330128
TAN,2017-11-03 12:20,-71.0211,41.8756,M,M,M,0.00,0.00,M,30.07,M,10.00,M,CLR,M,M,M,M,M,M,M,M,KTAN 031220Z AUTO 00000KT 10SM CLR A3007 RMK MADISHF
PVC,2017-11-03 12:20,-70.2200,42.0700,M,M,M,190.00,8.00,M,30.09,M,0.25,M,M,M,M,M,M,M,M,M,-RA FG,KPVC 031220Z AUTO 19008KT 1/4SM -RA FG A3009 RMK MADISHF
ORE,2017-11-03 12:20,-72.2886,42.5701,M,M,M,200.00,6.00,M,30.03,M,10.00,M,FEW,M,M,M,1600.00,M,M,M,M,KORE 031220Z AUTO 20006KT 10SM FEW016 A3003 RMK MADISHF
BOS,2017-11-03 12:20,-71.0097,42.3606,M,M,M,210.00,9.00,M,30.05,M,10.00,M,CLR,M,M,M,M,M,M,M,M,KBOS 031220Z AUTO 21009KT 10SM CLR A3005 RMK MADISHF
BED,2017-11-03 12:20,-71.2890,42.4699,M,M,M,230.00,5.00,M,30.04,M,10.00,M,BKN,M,M,M,700.00,M,M,M,M,KBED 031220Z AUTO 23005KT 10SM BKN007 A3004 RMK MADISHF
OWD,2017-11-03 12:20,-71.1733,42.1912,M,M,M,120.00,3.00,M,30.06,M,10.00,M,CLR,M,M,M,M,M,M,M,M,KOWD 031220Z AUTO 12003KT 10SM CLR A3006 RMK MADISHF
PYM,2017-11-03 12:20,-70.7288,41.9090,M,M,M,170.00,4.00,M,30.08,M,4.00,M,BKN,M,M,M,200.00,M,M,M,BR,KPYM 031220Z AUTO 17004KT 4SM BR BKN002 A3008 RMK MADISHF
FIT,2017-11-03 12:20,-71.7558,42.5519,M,M,M,240.00,3.00,M,30.04,M,10.00,M,CLR,M,M,M,M,M,M,M,M,KFIT 031220Z AUTO 24003KT 10SM CLR A3004 RMK VRB03KT  MADISHF
ORH,2017-11-03 12:20,-71.8757,42.2673,M,M,M,210.00,10.00,M,30.05,M,10.00,M,OVC,M,M,M,600.00,M,M,M,M,KORH 031220Z AUTO 21010KT 10SM OVC006 A3005 RMK MADISHF
EWB,2017-11-03 12:20,-70.9583,41.6764,M,M,M,150.00,3.00,M,30.08,M,3.00,M,BKN,M,M,M,400.00,M,M,M,BR,KEWB 031220Z AUTO 15003KT 3SM BR BKN004 A3008 RMK MADISHF
HYA,2017-11-03 12:20,-70.2800,41.6700,M,M,M,190.00,5.00,M,30.09,M,0.13,M,VV ,M,M,M,200.00,M,M,M,FG,KHYA 031220Z AUTO 19005KT 1/4SM FG VV002 A3009 RMK MADISHF
CQX,2017-11-03 12:20,-69.9933,41.6875,M,M,M,200.00,3.00,M,30.11,M,0.13,M,VV ,M,M,M,200.00,M,M,M,FG,KCQX 031220Z AUTO 20003KT 1/4SM FG VV002 A3011 RMK VRB03KT  MADISHF
BED,2017-11-03 12:21,-71.2890,42.4699,61.00,57.90,89.52,230.00,5.00,0.00,30.04,M,10.00,M,BKN,BKN,M,M,700.00,20000.00,M,M,M,KBED 031221Z 23005KT 10SM BKN007 BKN200 16/14 A3004 RMK AO2 T01610144
PYM,2017-11-03 12:25,-70.7288,41.9090,M,M,M,170.00,4.00,M,30.09,M,5.00,M,BKN,M,M,M,200.00,M,M,M,BR,KPYM 031225Z AUTO 17004KT 5SM BR BKN002 A3009 RMK VRB04KT  MADISHF
TAN,2017-11-03 12:25,-71.0211,41.8756,M,M,M,0.00,0.00,M,30.08,M,10.00,M,CLR,M,M,M,M,M,M,M,M,KTAN 031225Z AUTO 00000KT 10SM CLR A3008 RMK MADISHF
FIT,2017-11-03 12:25,-71.7558,42.5519,M,M,M,230.00,5.00,M,30.04,M,10.00,M,CLR,M,M,M,M,M,M,M,M,KFIT 031225Z AUTO 23005KT 10SM CLR A3004 RMK MADISHF
ORE,2017-11-03 12:25,-72.2886,42.5701,M,M,M,190.00,9.00,M,30.03,M,10.00,M,FEW,M,M,M,1600.00,M,M,M,M,KORE 031225Z AUTO 19009KT 10SM FEW016 A3003 RMK MADISHF
BOS,2017-11-03 12:25,-71.0097,42.3606,M,M,M,210.00,10.00,M,30.05,M,10.00,M,CLR,M,M,M,M,M,M,M,M,KBOS 031225Z AUTO 21010KT 10SM CLR A3005 RMK MADISHF
BED,2017-11-03 12:25,-71.2890,42.4699,M,M,M,220.00,6.00,M,30.04,M,10.00,M,BKN,M,M,M,700.00,M,M,M,M,KBED 031225Z AUTO 22006KT 10SM BKN007 A3004 RMK MADISHF
OWD,2017-11-03 12:25,-71.1733,42.1912,M,M,M,140.00,3.00,M,30.05,M,10.00,M,CLR,M,M,M,M,M,M,M,M,KOWD 031225Z AUTO 14003KT 10SM CLR A3005 RMK MADISHF
CQX,2017-11-03 12:25,-69.9933,41.6875,M,M,M,190.00,3.00,M,30.11,M,0.13,M,VV ,M,M,M,200.00,M,M,M,FG,KCQX 031225Z AUTO 19003KT 1/4SM FG VV002 A3011 RMK VRB03KT  MADISHF
ORH,2017-11-03 12:25,-71.8757,42.2673,M,M,M,M,M,M,30.06,M,10.00,M,OVC,M,M,M,600.00,M,M,M,M,KORH 031225Z AUTO /////KT 10SM OVC006 A3006 RMK MADISHF
PVC,2017-11-03 12:25,-70.2200,42.0700,M,M,M,190.00,10.00,M,30.09,M,0.25,M,M,M,M,M,M,M,M,M,-RA FG,KPVC 031225Z AUTO 19010KT 1/4SM -RA FG A3009 RMK MADISHF
HYA,2017-11-03 12:25,-70.2800,41.6700,M,M,M,190.00,7.00,M,30.09,M,0.13,M,VV ,M,M,M,200.00,M,M,M,FG,KHYA 031225Z AUTO 19007KT 1/4SM FG VV002 A3009 RMK MADISHF
EWB,2017-11-03 12:25,-70.9583,41.6764,M,M,M,190.00,4.00,M,30.08,M,3.00,M,BKN,M,M,M,300.00,M,M,M,BR,KEWB 031225Z AUTO 19004KT 3SM BR BKN003 A3008 RMK VRB04KT  MADISHF
ORE,2017-11-03 12:30,-72.2886,42.5701,M,M,M,190.00,9.00,M,30.03,M,10.00,M,FEW,M,M,M,1600.00,M,M,M,M,KORE 031230Z AUTO 19009KT 10SM FEW016 A3003 RMK MADISHF
BED,2017-11-03 12:30,-71.2890,42.4699,M,M,M,220.00,5.00,M,30.04,M,10.00,M,BKN,M,M,M,700.00,M,M,M,M,KBED 031230Z AUTO 22005KT 10SM BKN007 A3004 RMK MADISHF
OWD,2017-11-03 12:30,-71.1733,42.1912,M,M,M,0.00,0.00,M,30.06,M,10.00,M,CLR,M,M,M,M,M,M,M,M,KOWD 031230Z AUTO 00000KT 10SM CLR A3006 RMK MADISHF
PVC,2017-11-03 12:30,-70.2200,42.0700,M,M,M,190.00,8.00,M,30.09,M,0.25,M,M,M,M,M,M,M,M,M,-RA FG,KPVC 031230Z AUTO 19008KT 1/4SM -RA FG A3009 RMK MADISHF
CQX,2017-11-03 12:30,-69.9933,41.6875,M,M,M,180.00,4.00,M,30.11,M,0.13,M,VV ,M,M,M,200.00,M,M,M,FG,KCQX 031230Z AUTO 18004KT 1/4SM FG VV002 A3011 RMK MADISHF
EWB,2017-11-03 12:30,-70.9583,41.6764,M,M,M,160.00,3.00,M,30.08,M,3.00,M,BKN,M,M,M,300.00,M,M,M,BR,KEWB 031230Z AUTO 16003KT 3SM BR BKN003 A3008 RMK MADISHF
BOS,2017-11-03 12:30,-71.0097,42.3606,M,M,M,220.00,11.00,M,30.05,M,10.00,16.00,CLR,M,M,M,M,M,M,M,M,KBOS 031230Z AUTO 22011G16KT 10SM CLR A3005 RMK MADISHF
PYM,2017-11-03 12:30,-70.7288,41.9090,M,M,M,160.00,4.00,M,30.08,M,4.00,M,BKN,M,M,M,200.00,M,M,M,BR,KPYM 031230Z AUTO 16004KT 4SM BR BKN002 A3008 RMK MADISHF
HYA,2017-11-03 12:30,-70.2800,41.6700,M,M,M,200.00,6.00,M,30.09,M,0.13,M,VV ,M,M,M,100.00,M,M,M,FG,KHYA 031230Z AUTO 20006KT 1/4SM FG VV001 A3009 RMK MADISHF
TAN,2017-11-03 12:30,-71.0211,41.8756,M,M,M,0.00,0.00,M,30.08,M,10.00,M,CLR,M,M,M,M,M,M,M,M,KTAN 031230Z AUTO 00000KT 10SM CLR A3008 RMK MADISHF
ORH,2017-11-03 12:30,-71.8757,42.2673,M,M,M,220.00,9.00,M,30.06,M,10.00,M,BKN,M,M,M,700.00,M,M,M,M,KORH 031230Z AUTO 22009KT 10SM BKN007 A3006 RMK CIG 5V11  MADISHF
ORE,2017-11-03 12:35,-72.2886,42.5701,M,M,M,180.00,10.00,M,30.03,M,10.00,M,FEW,M,M,M,1600.00,M,M,M,M,KORE 031235Z AUTO 18010KT 10SM FEW016 A3003 RMK MADISHF
CQX,2017-11-03 12:35,-69.9933,41.6875,M,M,M,190.00,4.00,M,30.11,M,0.24,M,VV ,M,M,M,200.00,M,M,M,FG,KCQX 031235Z AUTO 19004KT 1/4SM FG VV002 A3011 RMK VRB04KT  MADISHF
EWB,2017-11-03 12:35,-70.9583,41.6764,M,M,M,160.00,3.00,M,30.08,M,3.00,M,BKN,M,M,M,300.00,M,M,M,BR,KEWB 031235Z AUTO 16003KT 3SM BR BKN003 A3008 RMK MADISHF
BED,2017-11-03 12:35,-71.2890,42.4699,M,M,M,210.00,8.00,M,30.04,M,10.00,M,BKN,M,M,M,700.00,M,M,M,M,KBED 031235Z AUTO 21008KT 10SM BKN007 A3004 RMK MADISHF
FIT,2017-11-03 12:35,-71.7558,42.5519,M,M,M,220.00,5.00,M,30.04,M,10.00,M,CLR,M,M,M,M,M,M,M,M,KFIT 031235Z AUTO 22005KT 10SM CLR A3004 RMK MADISHF
PVC,2017-11-03 12:35,-70.2200,42.0700,M,M,M,180.00,7.00,M,30.09,M,0.25,M,M,M,M,M,M,M,M,M,-RA FG,KPVC 031235Z AUTO 18007KT 1/4SM -RA FG A3009 RMK MADISHF
PYM,2017-11-03 12:35,-70.7288,41.9090,M,M,M,170.00,5.00,M,30.08,M,3.00,M,BKN,M,M,M,200.00,M,M,M,BR,KPYM 031235Z AUTO 17005KT 3SM BR BKN002 A3008 RMK MADISHF
TAN,2017-11-03 12:35,-71.0211,41.8756,M,M,M,0.00,0.00,M,30.08,M,10.00,M,CLR,M,M,M,M,M,M,M,M,KTAN 031235Z AUTO 00000KT 10SM CLR A3008 RMK MADISHF
ORH,2017-11-03 12:35,-71.8757,42.2673,M,M,M,M,M,M,30.05,M,10.00,M,BKN,M,M,M,700.00,M,M,M,M,KORH 031235Z AUTO /////KT 10SM BKN007 A3005 RMK MADISHF
BOS,2017-11-03 12:35,-71.0097,42.3606,M,M,M,210.00,11.00,M,30.05,M,10.00,M,CLR,M,M,M,M,M,M,M,M,KBOS 031235Z AUTO 21011KT 10SM CLR A3005 RMK MADISHF
HYA,2017-11-03 12:35,-70.2800,41.6700,M,M,M,200.00,4.00,M,30.10,M,0.13,M,VV ,M,M,M,100.00,M,M,M,FG,KHYA 031235Z AUTO 20004KT 1/4SM FG VV001 A3010 RMK MADISHF
OWD,2017-11-03 12:35,-71.1733,42.1912,M,M,M,0.00,0.00,M,30.06,M,10.00,M,CLR,M,M,M,M,M,M,M,M,KOWD 031235Z AUTO 00000KT 10SM CLR A3006 RMK MADISHF
GHG,2017-11-03 12:35,-70.6721,42.0982,60.80,60.80,100.00,220.00,6.00,0.00,30.07,M,10.00,M,CLR,M,M,M,M,M,M,M,M,KGHG 031235Z AUTO 22006KT 10SM CLR 16/16 A3007 RMK AO2
FMH,2017-11-03 12:35,-70.5215,41.6585,59.00,59.00,100.00,200.00,6.00,0.00,30.11,M,1.00,M,OVC,M,M,M,300.00,M,M,M,BR,KFMH 031235Z AUTO 20006KT 1SM BR OVC003 15/15 A3011 RMK AO2
EWB,2017-11-03 12:40,-70.9583,41.6764,M,M,M,150.00,4.00,M,30.08,M,6.00,M,SCT,M,M,M,499.00,M,M,M,BR,KEWB 031240Z AUTO 15004KT 6SM BR SCT004 A3008 RMK MADISHF
CQX,2017-11-03 12:40,-69.9933,41.6875,M,M,M,0.00,0.00,M,30.11,M,0.24,M,VV ,M,M,M,200.00,M,M,M,FG,KCQX 031240Z AUTO 00000KT 1/4SM FG VV002 A3011 RMK MADISHF
PYM,2017-11-03 12:40,-70.7288,41.9090,M,M,M,180.00,5.00,M,30.08,M,3.50,M,BKN,M,M,M,200.00,M,M,M,BR,KPYM 031240Z AUTO 18005KT 3SM BR BKN002 A3008 RMK MADISHF
PVC,2017-11-03 12:40,-70.2200,42.0700,M,M,M,170.00,10.00,M,30.09,M,0.25,M,M,M,M,M,M,M,M,M,-RA FG,KPVC 031240Z AUTO 17010KT 1/4SM -RA FG A3009 RMK MADISHF
FIT,2017-11-03 12:40,-71.7558,42.5519,M,M,M,230.00,3.00,M,30.04,M,10.00,M,CLR,M,M,M,M,M,M,M,M,KFIT 031240Z AUTO 23003KT 10SM CLR A3004 RMK VRB03KT  MADISHF
TAN,2017-11-03 12:40,-71.0211,41.8756,M,M,M,0.00,0.00,M,30.08,M,10.00,M,CLR,M,M,M,M,M,M,M,M,KTAN 031240Z AUTO 00000KT 10SM CLR A3008 RMK MADISHF
HYA,2017-11-03 12:40,-70.2800,41.6700,M,M,M,180.00,3.00,M,30.10,M,0.13,M,VV ,M,M,M,100.00,M,M,M,FG,KHYA 031240Z AUTO 18003KT 1/4SM FG VV001 A3010 RMK VRB03KT  MADISHF
OWD,2017-11-03 12:40,-71.1733,42.1912,M,M,M,0.00,0.00,M,30.06,M,10.00,M,CLR,M,M,M,M,M,M,M,M,KOWD 031240Z AUTO 00000KT 10SM CLR A3006 RMK MADISHF
ORE,2017-11-03 12:40,-72.2886,42.5701,M,M,M,190.00,10.00,M,30.02,M,10.00,M,FEW,M,M,M,1600.00,M,M,M,M,KORE 031240Z AUTO 19010KT 10SM FEW016 A3002 RMK MADISHF
ORH,2017-11-03 12:40,-71.8757,42.2673,M,M,M,M,M,M,30.06,M,10.00,M,BKN,M,M,M,600.00,M,M,M,M,KORH 031240Z AUTO /////KT 10SM BKN006 A3006 RMK MADISHF
BOS,2017-11-03 12:40,-71.0097,42.3606,M,M,M,210.00,11.00,M,30.05,M,10.00,M,CLR,M,M,M,M,M,M,M,M,KBOS 031240Z AUTO 21011KT 10SM CLR A3005 RMK MADISHF
BED,2017-11-03 12:40,-71.2890,42.4699,M,M,M,190.00,6.00,M,30.04,M,10.00,M,BKN,M,M,M,700.00,M,M,M,M,KBED 031240Z AUTO 19006KT 10SM BKN007 A3004 RMK MADISHF
EWB,2017-11-03 12:43,-70.9583,41.6764,59.00,59.00,100.00,160.00,5.00,0.00,30.08,M,6.00,M,FEW,M,M,M,500.00,M,M,M,BR,KEWB 031243Z 16005KT 6SM BR FEW005 15/15 A3008 RMK AO2 T01500150
BED,2017-11-03 12:45,-71.2890,42.4699,M,M,M,200.00,6.00,M,30.04,M,10.00,M,BKN,M,M,M,700.00,M,M,M,M,KBED 031245Z AUTO 20006KT 10SM BKN007 A3004 RMK MADISHF
CQX,2017-11-03 12:45,-69.9933,41.6875,M,M,M,210.00,3.00,M,30.11,M,0.24,M,VV ,M,M,M,200.00,M,M,M,FG,KCQX 031245Z AUTO 21003KT 1/4SM FG VV002 A3011 RMK MADISHF
EWB,2017-11-03 12:45,-70.9583,41.6764,M,M,M,170.00,4.00,M,30.08,M,6.00,M,FEW,M,M,M,499.00,M,M,M,BR,KEWB 031245Z AUTO 17004KT 6SM BR FEW004 A3008 RMK MADISHF
PYM,2017-11-03 12:45,-70.7288,41.9090,M,M,M,190.00,4.00,M,30.09,M,6.00,M,SCT,M,M,M,200.00,M,M,M,BR,KPYM 031245Z AUTO 19004KT 6SM BR SCT002 A3009 RMK MADISHF
TAN,2017-11-03 12:45,-71.0211,41.8756,M,M,M,160.00,3.00,M,30.08,M,10.00,M,CLR,M,M,M,M,M,M,M,M,KTAN 031245Z AUTO 16003KT 10SM CLR A3008 RMK MADISHF
FIT,2017-11-03 12:45,-71.7558,42.5519,M,M,M,220.00,5.00,M,30.04,M,10.00,M,CLR,M,M,M,M,M,M,M,M,KFIT 031245Z AUTO 22005KT 10SM CLR A3004 RMK MADISHF
PVC,2017-11-03 12:45,-70.2200,42.0700,M,M,M,170.00,9.00,M,30.09,M,0.50,M,M,M,M,M,M,M,M,M,-RA FG,KPVC 031245Z AUTO 17009KT 1/2SM -RA FG A3009 RMK MADISHF
ORE,2017-11-03 12:45,-72.2886,42.5701,M,M,M,180.00,11.00,M,30.02,M,10.00,16.00,FEW,M,M,M,1600.00,M,M,M,M,KORE 031245Z AUTO 18011G16KT 10SM FEW016 A3002 RMK MADISHF
HYA,2017-11-03 12:45,-70.2800,41.6700,M,M,M,190.00,4.00,M,30.10,M,0.13,M,VV ,M,M,M,200.00,M,M,M,FG,KHYA 031245Z AUTO 19004KT 1/4SM FG VV002 A3010 RMK MADISHF
OWD,2017-11-03 12:45,-71.1733,42.1912,M,M,M,0.00,0.00,M,30.06,M,10.00,M,CLR,M,M,M,M,M,M,M,M,KOWD 031245Z AUTO 00000KT 10SM CLR A3006 RMK MADISHF
BOS,2017-11-03 12:45,-71.0097,42.3606,M,M,M,210.00,11.00,M,30.05,M,10.00,M,SCT,M,M,M,12000.00,M,M,M,M,KBOS 031245Z AUTO 21011KT 10SM SCT120 A3005 RMK MADISHF
ORH,2017-11-03 12:45,-71.8757,42.2673,M,M,M,220.00,10.00,M,30.06,M,10.00,M,BKN,M,M,M,600.00,M,M,M,M,KORH 031245Z AUTO 22010KT 10SM BKN006 A3006 RMK MADISHF
ORH,2017-11-03 12:50,-71.8757,42.2673,M,M,M,210.00,10.00,M,30.06,M,10.00,M,BKN,M,M,M,600.00,M,M,M,M,KORH 031250Z AUTO 21010KT 10SM BKN006 A3006 RMK MADISHF
BOS,2017-11-03 12:50,-71.0097,42.3606,M,M,M,220.00,12.00,M,30.05,M,10.00,M,M,M,M,M,M,M,M,M,M,KBOS 031250Z AUTO 22012KT 10SM A3005 RMK MADISHF
HYA,2017-11-03 12:50,-70.2800,41.6700,M,M,M,180.00,5.00,M,30.09,M,0.13,M,VV ,M,M,M,100.00,M,M,M,FG,KHYA 031250Z AUTO 18005KT 1/4SM FG VV001 A3009 RMK MADISHF
OWD,2017-11-03 12:50,-71.1733,42.1912,M,M,M,130.00,3.00,M,30.05,M,10.00,M,SCT,M,M,M,5000.00,M,M,M,M,KOWD 031250Z AUTO 13003KT 10SM SCT050 A3005 RMK MADISHF
EWB,2017-11-03 12:50,-70.9583,41.6764,M,M,M,180.00,5.00,M,30.08,M,8.00,M,FEW,M,M,M,400.00,M,M,M,M,KEWB 031250Z AUTO 18005KT 8SM FEW004 A3008 RMK MADISHF
TAN,2017-11-03 12:50,-71.0211,41.8756,M,M,M,180.00,4.00,M,30.08,M,10.00,M,CLR,M,M,M,M,M,M,M,M,KTAN 031250Z AUTO 18004KT 10SM CLR A3008 RMK MADISHF
PVC,2017-11-03 12:50,-70.2200,42.0700,M,M,M,180.00,9.00,M,30.09,M,0.50,M,M,M,M,M,M,M,M,M,-RA FG,KPVC 031250Z AUTO 18009KT 1/2SM -RA FG A3009 RMK MADISHF
ORE,2017-11-03 12:50,-72.2886,42.5701,M,M,M,180.00,12.00,M,30.02,M,10.00,M,FEW,M,M,M,1600.00,M,M,M,M,KORE 031250Z AUTO 18012KT 10SM FEW016 A3002 RMK MADISHF
CQX,2017-11-03 12:50,-69.9933,41.6875,M,M,M,200.00,3.00,M,30.11,M,0.24,M,VV ,M,M,M,200.00,M,M,M,FG,KCQX 031250Z AUTO 20003KT 1/4SM FG VV002 A3011 RMK MADISHF
PYM,2017-11-03 12:50,-70.7288,41.9090,M,M,M,190.00,4.00,M,30.09,M,10.00,M,SCT,M,M,M,200.00,M,M,M,M,KPYM 031250Z AUTO 19004KT 10SM SCT002 A3009 RMK MADISHF
BED,2017-11-03 12:50,-71.2890,42.4699,M,M,M,210.00,7.00,M,30.04,M,10.00,M,SCT,BKN,M,M,900.00,11000.00,M,M,M,KBED 031250Z AUTO 21007KT 10SM SCT009 BKN110 A3004 RMK MADISHF
BED,2017-11-03 12:52,-71.2890,42.4699,60.80,57.20,87.92,210.00,7.00,0.00,30.04,M,10.00,M,SCT,BKN,M,M,900.00,11000.00,M,M,M,KBED 031252Z 21007KT 10SM SCT009 BKN110 16/14 A3004 RMK AO2
TAN,2017-11-03 12:52,-71.0211,41.8756,60.10,57.90,92.43,190.00,4.00,0.00,30.08,1018.50,10.00,M,CLR,M,M,M,M,M,M,M,M,KTAN 031252Z AUTO 19004KT 10SM CLR 16/14 A3008 RMK AO2 SLP185 T01560144
ORE,2017-11-03 12:52,-72.2886,42.5701,62.10,59.00,89.57,180.00,12.00,0.00,30.02,1016.50,10.00,18.00,FEW,M,M,M,1600.00,M,M,M,M,KORE 031252Z AUTO 18012G18KT 10SM FEW016 17/15 A3002 RMK AO2 SLP165 T01670150 TSNO
PYM,2017-11-03 12:52,-70.7288,41.9090,60.10,59.00,96.15,190.00,6.00,0.00,30.08,1018.70,10.00,M,SCT,M,M,M,200.00,M,M,M,M,KPYM 031252Z AUTO 19006KT 10SM SCT002 16/15 A3008 RMK AO2 SLP187 T01560150
FIT,2017-11-03 12:52,-71.7558,42.5519,66.00,60.10,81.27,220.00,5.00,0.00,30.04,1017.10,10.00,M,CLR,M,M,M,M,M,M,M,M,KFIT 031252Z AUTO 22005KT 10SM CLR 19/16 A3004 RMK AO2 SLP171 T01890156
CQX,2017-11-03 12:52,-69.9933,41.6875,57.90,57.90,100.00,0.00,0.00,0.00,30.11,1019.80,0.25,M,VV ,M,M,M,200.00,M,M,M,FG,KCQX 031252Z AUTO 00000KT 1/4SM FG VV002 14/14 A3011 RMK AO2 SLP198 T01440144
OWD,2017-11-03 12:53,-71.1733,42.1912,62.10,57.90,86.11,140.00,3.00,0.00,30.05,1017.50,10.00,M,SCT,M,M,M,5000.00,M,M,M,M,KOWD 031253Z 14003KT 10SM SCT050 17/14 A3005 RMK AO2 SLP175 T01670144
EWB,2017-11-03 12:53,-70.9583,41.6764,60.10,60.10,100.00,180.00,5.00,0.00,30.08,1018.70,9.00,M,FEW,M,M,M,400.00,M,M,M,M,KEWB 031253Z 18005KT 9SM FEW004 16/16 A3008 RMK AO2 SLP187 T01560156
ORH,2017-11-03 12:54,-71.8757,42.2673,59.00,55.90,89.44,210.00,10.00,0.00,30.06,1017.80,10.00,M,SCT,M,M,M,600.00,M,M,M,M,KORH 031254Z 21010KT 10SM SCT006 15/13 A3006 RMK AO2 SLP178 T01500133
BOS,2017-11-03 12:54,-71.0097,42.3606,63.00,55.90,77.61,220.00,11.00,0.00,30.05,1017.40,10.00,M,FEW,BKN,M,M,20000.00,25000.00,M,M,M,KBOS 031254Z 22011KT 10SM FEW200 BKN250 17/13 A3005 RMK AO2 SLP174 T01720133
PVC,2017-11-03 12:55,-70.2200,42.0700,M,M,M,180.00,8.00,M,30.09,M,0.25,M,M,M,M,M,M,M,M,M,-RA FG,KPVC 031255Z AUTO 18008KT 1/4SM -RA FG A3009 RMK MADISHF
TAN,2017-11-03 12:55,-71.0211,41.8756,M,M,M,190.00,4.00,M,30.08,M,10.00,M,CLR,M,M,M,M,M,M,M,M,KTAN 031255Z AUTO 19004KT 10SM CLR A3008 RMK MADISHF
FIT,2017-11-03 12:55,-71.7558,42.5519,M,M,M,220.00,4.00,M,30.04,M,10.00,M,CLR,M,M,M,M,M,M,M,M,KFIT 031255Z AUTO 22004KT 10SM CLR A3004 RMK VRB04KT  MADISHF
EWB,2017-11-03 12:55,-70.9583,41.6764,M,M,M,180.00,5.00,M,30.08,M,10.00,M,FEW,M,M,M,400.00,M,M,M,M,KEWB 031255Z AUTO 18005KT 10SM FEW004 A3008 RMK MADISHF
OWD,2017-11-03 12:55,-71.1733,42.1912,M,M,M,140.00,4.00,M,30.05,M,10.00,M,CLR,M,M,M,M,M,M,M,M,KOWD 031255Z AUTO 14004KT 10SM CLR A3005 RMK MADISHF
ORH,2017-11-03 12:55,-71.8757,42.2673,M,M,M,210.00,10.00,M,30.06,M,10.00,M,SCT,M,M,M,600.00,M,M,M,M,KORH 031255Z AUTO 21010KT 10SM SCT006 A3006 RMK MADISHF
BOS,2017-11-03 12:55,-71.0097,42.3606,M,M,M,220.00,11.00,M,30.05,M,10.00,M,FEW,M,M,M,12000.00,M,M,M,M,KBOS 031255Z AUTO 22011KT 10SM FEW120 A3005 RMK MADISHF
BED,2017-11-03 12:55,-71.2890,42.4699,M,M,M,200.00,7.00,M,30.04,M,10.00,M,SCT,BKN,M,M,900.00,11000.00,M,M,M,KBED 031255Z AUTO 20007KT 10SM SCT009 BKN110 A3004 RMK MADISHF
HYA,2017-11-03 12:55,-70.2800,41.6700,M,M,M,190.00,4.00,M,30.09,M,0.13,M,VV ,M,M,M,200.00,M,M,M,FG,KHYA 031255Z AUTO 19004KT 1/4SM FG VV002 A3009 RMK MADISHF
ORE,2017-11-03 12:55,-72.2886,42.5701,M,M,M,180.00,13.00,M,30.02,M,10.00,M,FEW,M,M,M,1600.00,M,M,M,M,KORE 031255Z AUTO 18013KT 10SM FEW016 A3002 RMK MADISHF
CQX,2017-11-03 12:55,-69.9933,41.6875,M,M,M,220.00,4.00,M,30.11,M,0.24,M,VV ,M,M,M,200.00,M,M,M,FG,KCQX 031255Z AUTO 22004KT 1/4SM FG VV002 A3011 RMK MADISHF
PYM,2017-11-03 12:55,-70.7288,41.9090,M,M,M,190.00,6.00,M,30.08,M,10.00,M,SCT,M,M,M,200.00,M,M,M,M,KPYM 031255Z AUTO 19006KT 10SM SCT002 A3008 RMK MADISHF
GHG,2017-11-03 12:55,-70.6721,42.0982,62.60,59.00,88.00,220.00,7.00,0.00,30.07,M,5.00,13.00,CLR,M,M,M,M,M,M,M,BR,KGHG 031255Z AUTO 22007G13KT 190V260 5SM BR CLR 17/15 A3007 RMK AO2
FMH,2017-11-03 12:55,-70.5215,41.6585,59.00,59.00,100.00,180.00,8.00,0.00,30.11,M,5.00,M,OVC,M,M,M,300.00,M,M,M,BR,KFMH 031255Z AUTO 18008KT 5SM BR OVC003 15/15 A3011 RMK AO2
BED,2017-11-03 12:56,-71.2890,42.4699,61.00,57.90,89.52,200.00,7.00,0.00,30.04,1018.40,10.00,M,SCT,BKN,M,M,900.00,11000.00,M,M,M,KBED 031256Z 20007KT 10SM SCT009 BKN110 16/14 A3004 RMK AO2 SLP184 T01610144
HYA,2017-11-03 12:56,-70.2800,41.6700,59.00,59.00,100.00,190.00,5.00,0.00,30.09,1019.00,0.25,M,VV ,M,M,M,200.00,M,M,M,FG,KHYA 031256Z 19005KT M1/4SM FG VV002 15/15 A3009 RMK AO2 SLP190 T01500150
PVC,2017-11-03 12:56,-70.2200,42.0700,57.00,57.00,100.00,180.00,8.00,0.00,30.09,1018.80,0.25,M,M,M,M,M,M,M,M,M,-RA FG,KPVC 031256Z AUTO 18008KT 1/4SM -RA FG 14/14 A3009 RMK AO2 SLP188 P0000 T01390139 $
MQE,2017-11-03 12:56,-71.1142,42.2121,59.00,54.00,83.46,190.00,14.00,0.00,30.05,1018.50,M,M,M,M,M,M,M,M,M,M,M,KMQE 031256Z AUTO 19014KT 15/12 A3005 RMK AO1 SLP185 T01500122
TAN,2017-11-03 13:00,-71.0211,41.8756,M,M,M,190.00,5.00,M,30.08,M,10.00,M,CLR,M,M,M,M,M,M,M,M,KTAN 031300Z AUTO 19005KT 10SM CLR A3008 RMK MADISHF
FIT,2017-11-03 13:00,-71.7558,42.5519,M,M,M,210.00,5.00,M,30.04,M,10.00,M,CLR,M,M,M,M,M,M,M,M,KFIT 031300Z AUTO 21005KT 10SM CLR A3004 RMK VRB05KT  MADISHF
CQX,2017-11-03 13:00,-69.9933,41.6875,M,M,M,230.00,3.00,M,30.11,M,0.24,M,VV ,M,M,M,200.00,M,M,M,FG,KCQX 031300Z AUTO 23003KT 1/4SM FG VV002 A3011 RMK MADISHF
EWB,2017-11-03 13:00,-70.9583,41.6764,M,M,M,200.00,6.00,M,30.08,M,10.00,M,CLR,M,M,M,M,M,M,M,M,KEWB 031300Z AUTO 20006KT 10SM CLR A3008 RMK MADISHF
ORE,2017-11-03 13:00,-72.2886,42.5701,M,M,M,180.00,12.00,M,30.01,M,10.00,M,CLR,M,M,M,M,M,M,M,M,KORE 031300Z AUTO 18012KT 10SM CLR A3001 RMK MADISHF
OWD,2017-11-03 13:00,-71.1733,42.1912,M,M,M,140.00,4.00,M,30.05,M,10.00,M,CLR,M,M,M,M,M,M,M,M,KOWD 031300Z AUTO 14004KT 10SM CLR A3005 RMK MADISHF
BOS,2017-11-03 13:00,-71.0097,42.3606,M,M,M,220.00,10.00,M,30.05,M,10.00,M,FEW,M,M,M,12000.00,M,M,M,M,KBOS 031300Z AUTO 22010KT 10SM FEW120 A3005 RMK MADISHF
PYM,2017-11-03 13:00,-70.7288,41.9090,M,M,M,190.00,7.00,M,30.08,M,10.00,M,FEW,M,M,M,200.00,M,M,M,M,KPYM 031300Z AUTO 19007KT 10SM FEW002 A3008 RMK MADISHF
HYA,2017-11-03 13:00,-70.2800,41.6700,M,M,M,180.00,4.00,M,30.09,M,0.24,M,VV ,M,M,M,200.00,M,M,M,FG,KHYA 031300Z AUTO 18004KT 1/4SM FG VV002 A3009 RMK VRB04KT  MADISHF
BED,2017-11-03 13:00,-71.2890,42.4699,M,M,M,200.00,7.00,M,30.04,M,10.00,M,BKN,M,M,M,11000.00,M,M,M,M,KBED 031300Z AUTO 20007KT 10SM BKN110 A3004 RMK MADISHF
PVC,2017-11-03 13:00,-70.2200,42.0700,M,M,M,180.00,8.00,M,30.09,M,0.25,M,M,M,M,M,M,M,M,M,-RA FG,KPVC 031300Z AUTO 18008KT 1/4SM -RA FG A3009 RMK MADISHF
ORH,2017-11-03 13:00,-71.8757,42.2673,M,M,M,210.00,10.00,M,30.06,M,10.00,M,SCT,M,M,M,600.00,M,M,M,M,KORH 031300Z AUTO 21010KT 10SM SCT006 A3006 RMK MADISHF
EWB,2017-11-03 13:05,-70.9583,41.6764,M,M,M,200.00,7.00,M,30.08,M,10.00,M,CLR,M,M,M,M,M,M,M,M,KEWB 031305Z AUTO 20007KT 10SM CLR A3008 RMK MADISHF
HYA,2017-11-03 13:05,-70.2800,41.6700,M,M,M,190.00,4.00,M,30.09,M,0.24,M,VV ,M,M,M,200.00,M,M,M,FG,KHYA 031305Z AUTO 19004KT 1/4SM FG VV002 A3009 RMK MADISHF
TAN,2017-11-03 13:05,-71.0211,41.8756,M,M,M,180.00,5.00,M,30.07,M,10.00,M,FEW,M,M,M,12000.00,M,M,M,M,KTAN 031305Z AUTO 18005KT 10SM FEW120 A3007 RMK MADISHF
BOS,2017-11-03 13:05,-71.0097,42.3606,M,M,M,220.00,9.00,M,30.05,M,10.00,M,FEW,M,M,M,12000.00,M,M,M,M,KBOS 031305Z AUTO 22009KT 10SM FEW120 A3005 RMK MADISHF
PYM,2017-11-03 13:05,-70.7288,41.9090,M,M,M,200.00,6.00,M,30.08,M,10.00,M,FEW,M,M,M,200.00,M,M,M,M,KPYM 031305Z AUTO 20006KT 10SM FEW002 A3008 RMK MADISHF
BED,2017-11-03 13:05,-71.2890,42.4699,M,M,M,200.00,9.00,M,30.03,M,10.00,M,BKN,M,M,M,11000.00,M,M,M,M,KBED 031305Z AUTO 20009KT 10SM BKN110 A3003 RMK MADISHF
ORE,2017-11-03 13:05,-72.2886,42.5701,M,M,M,180.00,14.00,M,30.01,M,10.00,M,CLR,M,M,M,M,M,M,M,M,KORE 031305Z AUTO 18014KT 10SM CLR A3001 RMK MADISHF
CQX,2017-11-03 13:05,-69.9933,41.6875,M,M,M,0.00,0.00,M,30.11,M,0.24,M,VV ,M,M,M,200.00,M,M,M,FG,KCQX 031305Z AUTO 00000KT 1/4SM FG VV002 A3011 RMK MADISHF
OWD,2017-11-03 13:05,-71.1733,42.1912,M,M,M,170.00,3.00,M,30.05,M,10.00,M,CLR,M,M,M,M,M,M,M,M,KOWD 031305Z AUTO 17003KT 10SM CLR A3005 RMK MADISHF
ORH,2017-11-03 13:05,-71.8757,42.2673,M,M,M,220.00,9.00,M,30.06,M,10.00,M,SCT,M,M,M,600.00,M,M,M,M,KORH 031305Z AUTO 22009KT 10SM SCT006 A3006 RMK MADISHF
CQX,2017-11-03 13:10,-69.9933,41.6875,M,M,M,0.00,0.00,M,30.11,M,0.24,M,VV ,M,M,M,200.00,M,M,M,FG,KCQX 031310Z AUTO 00000KT 1/4SM FG VV002 A3011 RMK MADISHF
TAN,2017-11-03 13:10,-71.0211,41.8756,M,M,M,180.00,6.00,M,30.07,M,10.00,M,SCT,M,M,M,12000.00,M,M,M,M,KTAN 031310Z AUTO 18006KT 10SM SCT120 A3007 RMK MADISHF
BOS,2017-11-03 13:10,-71.0097,42.3606,M,M,M,220.00,11.00,M,30.05,M,10.00,M,SCT,M,M,M,12000.00,M,M,M,M,KBOS 031310Z AUTO 22011KT 10SM SCT120 A3005 RMK MADISHF
BED,2017-11-03 13:10,-71.2890,42.4699,M,M,M,190.00,8.00,M,30.03,M,10.00,M,SCT,M,M,M,11000.00,M,M,M,M,KBED 031310Z AUTO 19008KT 10SM SCT110 A3003 RMK MADISHF
EWB,2017-11-03 13:10,-70.9583,41.6764,M,M,M,200.00,7.00,M,30.08,M,10.00,M,CLR,M,M,M,M,M,M,M,M,KEWB 031310Z AUTO 20007KT 10SM CLR A3008 RMK MADISHF
ORH,2017-11-03 13:10,-71.8757,42.2673,M,M,M,220.00,9.00,M,30.06,M,10.00,M,FEW,M,M,M,600.00,M,M,M,M,KORH 031310Z AUTO 22009KT 10SM FEW006 A3006 RMK MADISHF
PYM,2017-11-03 13:10,-70.7288,41.9090,M,M,M,210.00,6.00,M,30.08,M,10.00,M,CLR,M,M,M,M,M,M,M,M,KPYM 031310Z AUTO 21006KT 10SM CLR A3008 RMK MADISHF
ORE,2017-11-03 13:10,-72.2886,42.5701,M,M,M,180.00,13.00,M,30.01,M,10.00,18.00,CLR,M,M,M,M,M,M,M,M,KORE 031310Z AUTO 18013G18KT 10SM CLR A3001 RMK MADISHF
OWD,2017-11-03 13:10,-71.1733,42.1912,M,M,M,0.00,0.00,M,30.05,M,10.00,M,FEW,M,M,M,12000.00,M,M,M,M,KOWD 031310Z AUTO 00000KT 10SM FEW120 A3005 RMK MADISHF
FIT,2017-11-03 13:10,-71.7558,42.5519,M,M,M,210.00,7.00,M,30.04,M,10.00,M,CLR,M,M,M,M,M,M,M,M,KFIT 031310Z AUTO 21007KT 10SM CLR A3004 RMK MADISHF
PVC,2017-11-03 13:10,-70.2200,42.0700,M,M,M,180.00,6.00,M,30.09,M,0.50,M,M,M,M,M,M,M,M,M,-RA FG,KPVC 031310Z AUTO 18006KT 1/2SM -RA FG A3009 RMK MADISHF
HYA,2017-11-03 13:10,-70.2800,41.6700,M,M,M,210.00,5.00,M,30.09,M,0.24,M,VV ,M,M,M,200.00,M,M,M,FG,KHYA 031310Z AUTO 21005KT 1/4SM FG VV002 A3009 RMK MADISHF
FIT,2017-11-03 13:15,-71.7558,42.5519,M,M,M,210.00,9.00,M,30.03,M,10.00,M,CLR,M,M,M,M,M,M,M,M,KFIT 031315Z AUTO 21009KT 10SM CLR A3003 RMK MADISHF
HYA,2017-11-03 13:15,-70.2800,41.6700,M,M,M,210.00,6.00,M,30.09,M,0.24,M,VV ,M,M,M,200.00,M,M,M,FG,KHYA 031315Z AUTO 21006KT 1/4SM FG VV002 A3009 RMK MADISHF
OWD,2017-11-03 13:15,-71.1733,42.1912,M,M,M,230.00,4.00,M,30.05,M,10.00,M,SCT,M,M,M,12000.00,M,M,M,M,KOWD 031315Z AUTO 23004KT 10SM SCT120 A3005 RMK MADISHF
BOS,2017-11-03 13:15,-71.0097,42.3606,M,M,M,220.00,9.00,M,30.04,M,10.00,M,BKN,M,M,M,12000.00,M,M,M,M,KBOS 031315Z AUTO 22009KT 10SM BKN120 A3004 RMK MADISHF
EWB,2017-11-03 13:15,-70.9583,41.6764,M,M,M,200.00,8.00,M,30.08,M,10.00,M,CLR,M,M,M,M,M,M,M,M,KEWB 031315Z AUTO 20008KT 10SM CLR A3008 RMK MADISHF
PYM,2017-11-03 13:15,-70.7288,41.9090,M,M,M,200.00,8.00,M,30.08,M,10.00,M,CLR,M,M,M,M,M,M,M,M,KPYM 031315Z AUTO 20008KT 10SM CLR A3008 RMK MADISHF
TAN,2017-11-03 13:15,-71.0211,41.8756,M,M,M,190.00,6.00,M,30.07,M,10.00,M,BKN,M,M,M,12000.00,M,M,M,M,KTAN 031315Z AUTO 19006KT 10SM BKN120 A3007 RMK MADISHF
BED,2017-11-03 13:15,-71.2890,42.4699,M,M,M,200.00,8.00,M,30.03,M,10.00,M,SCT,M,M,M,11000.00,M,M,M,M,KBED 031315Z AUTO 20008KT 10SM SCT110 A3003 RMK MADISHF
ORH,2017-11-03 13:15,-71.8757,42.2673,M,M,M,M,M,M,30.05,M,10.00,M,FEW,M,M,M,600.00,M,M,M,M,KORH 031315Z AUTO /////KT 10SM FEW006 A3005 RMK MADISHF
PVC,2017-11-03 13:15,-70.2200,42.0700,M,M,M,170.00,7.00,M,30.09,M,0.50,M,M,M,M,M,M,M,M,M,-RA FG,KPVC 031315Z AUTO 17007KT 1/2SM -RA FG A3009 RMK MADISHF
ORE,2017-11-03 13:15,-72.2886,42.5701,M,M,M,170.00,12.00,M,30.00,M,10.00,17.00,CLR,M,M,M,M,M,M,M,M,KORE 031315Z AUTO 17012G17KT 10SM CLR A3000 RMK MADISHF
CQX,2017-11-03 13:15,-69.9933,41.6875,M,M,M,0.00,0.00,M,30.11,M,0.24,M,VV ,M,M,M,200.00,M,M,M,FG,KCQX 031315Z AUTO 00000KT 1/4SM FG VV002 A3011 RMK MADISHF
GHG,2017-11-03 13:15,-70.6721,42.0982,64.40,57.20,77.45,220.00,7.00,0.00,30.06,M,8.00,14.00,CLR,M,M,M,M,M,M,M,M,KGHG 031315Z AUTO 22007G14KT 8SM CLR 18/14 A3006 RMK AO2
FMH,2017-11-03 13:15,-70.5215,41.6585,59.00,59.00,100.00,180.00,8.00,0.00,30.11,M,0.25,M,OVC,M,M,M,300.00,M,M,M,FG,KFMH 031315Z AUTO 18008KT M1/4SM FG OVC003 15/15 A3011 RMK AO2
PVC,2017-11-03 13:20,-70.2200,42.0700,M,M,M,170.00,9.00,M,30.09,M,0.25,M,M,M,M,M,M,M,M,M,-RA FG,KPVC 031320Z AUTO 17009KT 1/4SM -RA FG A3009 RMK MADISHF
PYM,2017-11-03 13:20,-70.7288,41.9090,M,M,M,210.00,6.00,M,30.08,M,10.00,M,CLR,M,M,M,M,M,M,M,M,KPYM 031320Z AUTO 21006KT 10SM CLR A3008 RMK MADISHF
HYA,2017-11-03 13:20,-70.2800,41.6700,M,M,M,200.00,5.00,M,30.08,M,0.24,M,VV ,M,M,M,200.00,M,M,M,FG,KHYA 031320Z AUTO 20005KT 1/4SM FG VV002 A3008 RMK MADISHF
ORH,2017-11-03 13:20,-71.8757,42.2673,M,M,M,200.00,10.00,M,30.05,M,10.00,M,FEW,M,M,M,600.00,M,M,M,M,KORH 031320Z AUTO 20010KT 10SM FEW006 A3005 RMK MADISHF
CQX,2017-11-03 13:20,-69.9933,41.6875,M,M,M,0.00,0.00,M,30.11,M,0.24,M,VV ,M,M,M,200.00,M,M,M,FG,KCQX 031320Z AUTO 00000KT 1/4SM FG VV002 A3011 RMK MADISHF
BED,2017-11-03 13:20,-71.2890,42.4699,M,M,M,200.00,10.00,M,30.03,M,10.00,M,FEW,M,M,M,11000.00,M,M,M,M,KBED 031320Z AUTO 20010KT 10SM FEW110 A3003 RMK MADISHF
ORE,2017-11-03 13:20,-72.2886,42.5701,M,M,M,180.00,14.00,M,30.00,M,10.00,M,CLR,M,M,M,M,M,M,M,M,KORE 031320Z AUTO 18014KT 10SM CLR A3000 RMK MADISHF
EWB,2017-11-03 13:20,-70.9583,41.6764,M,M,M,200.00,8.00,M,30.08,M,10.00,M,CLR,M,M,M,M,M,M,M,M,KEWB 031320Z AUTO 20008KT 10SM CLR A3008 RMK MADISHF
BOS,2017-11-03 13:20,-71.0097,42.3606,M,M,M,220.00,12.00,M,30.05,M,10.00,M,BKN,M,M,M,12000.00,M,M,M,M,KBOS 031320Z AUTO 22012KT 10SM BKN120 A3005 RMK MADISHF
OWD,2017-11-03 13:20,-71.1733,42.1912,M,M,M,200.00,7.00,M,30.04,M,10.00,M,SCT,M,M,M,12000.00,M,M,M,M,KOWD 031320Z AUTO 20007KT 10SM SCT120 A3004 RMK MADISHF
TAN,2017-11-03 13:20,-71.0211,41.8756,M,M,M,200.00,6.00,M,30.07,M,10.00,M,BKN,M,M,M,12000.00,M,M,M,M,KTAN 031320Z AUTO 20006KT 10SM BKN120 A3007 RMK MADISHF
FIT,2017-11-03 13:20,-71.7558,42.5519,M,M,M,M,M,M,30.03,M,10.00,M,CLR,M,M,M,M,M,M,M,M,KFIT 031320Z AUTO /////KT 10SM CLR A3003 RMK MADISHF
PYM,2017-11-03 13:25,-70.7288,41.9090,M,M,M,190.00,7.00,M,30.08,M,10.00,M,CLR,M,M,M,M,M,M,M,M,KPYM 031325Z AUTO 19007KT 10SM CLR A3008 RMK MADISHF
PVC,2017-11-03 13:25,-70.2200,42.0700,M,M,M,170.00,8.00,M,30.09,M,0.25,M,M,M,M,M,M,M,M,M,-RA FG,KPVC 031325Z AUTO 17008KT 1/4SM -RA FG A3009 RMK MADISHF
EWB,2017-11-03 13:25,-70.9583,41.6764,M,M,M,200.00,7.00,M,30.07,M,10.00,M,CLR,M,M,M,M,M,M,M,M,KEWB 031325Z AUTO 20007KT 10SM CLR A3007 RMK MADISHF
BED,2017-11-03 13:25,-71.2890,42.4699,M,M,M,200.00,9.00,M,30.03,M,10.00,M,CLR,M,M,M,M,M,M,M,M,KBED 031325Z AUTO 20009KT 10SM CLR A3003 RMK MADISHF
BOS,2017-11-03 13:25,-71.0097,42.3606,M,M,M,230.00,11.00,M,30.04,M,10.00,M,BKN,M,M,M,12000.00,M,M,M,M,KBOS 031325Z AUTO 23011KT 10SM BKN120 A3004 RMK MADISHF
HYA,2017-11-03 13:25,-70.2800,41.6700,M,M,M,200.00,6.00,M,30.08,M,0.24,M,VV ,M,M,M,200.00,M,M,M,FG,KHYA 031325Z AUTO 20006KT 1/4SM FG VV002 A3008 RMK MADISHF
OWD,2017-11-03 13:25,-71.1733,42.1912,M,M,M,200.00,6.00,M,30.04,M,10.00,M,BKN,M,M,M,12000.00,M,M,M,M,KOWD 031325Z AUTO 20006KT 10SM BKN120 A3004 RMK MADISHF
ORH,2017-11-03 13:25,-71.8757,42.2673,M,M,M,210.00,11.00,M,30.05,M,10.00,M,FEW,M,M,M,600.00,M,M,M,M,KORH 031325Z AUTO 21011KT 10SM FEW006 A3005 RMK MADISHF
ORE,2017-11-03 13:25,-72.2886,42.5701,M,M,M,190.00,9.00,M,30.00,M,10.00,M,CLR,M,M,M,M,M,M,M,M,KORE 031325Z AUTO 19009KT 10SM CLR A3000 RMK MADISHF
CQX,2017-11-03 13:25,-69.9933,41.6875,M,M,M,200.00,3.00,M,30.10,M,0.50,M,VV ,M,M,M,200.00,M,M,M,FG,KCQX 031325Z AUTO 20003KT 1/2SM FG VV002 A3010 RMK MADISHF
TAN,2017-11-03 13:25,-71.0211,41.8756,M,M,M,200.00,5.00,M,30.07,M,10.00,M,BKN,M,M,M,12000.00,M,M,M,M,KTAN 031325Z AUTO 20005KT 10SM BKN120 A3007 RMK VRB05KT  MADISHF
ORE,2017-11-03 13:30,-72.2886,42.5701,M,M,M,M,M,M,30.00,M,10.00,M,CLR,M,M,M,M,M,M,M,M,KORE 031330Z AUTO /////KT 10SM CLR A3000 RMK MADISHF
TAN,2017-11-03 13:30,-71.0211,41.8756,M,M,M,200.00,7.00,M,30.06,M,10.00,M,BKN,M,M,M,12000.00,M,M,M,M,KTAN 031330Z AUTO 20007KT 10SM BKN120 A3006 RMK MADISHF
ORH,2017-11-03 13:30,-71.8757,42.2673,M,M,M,210.00,11.00,M,30.05,M,10.00,M,SCT,M,M,M,800.00,M,M,M,M,KORH 031330Z AUTO 21011KT 10SM SCT008 A3005 RMK MADISHF
EWB,2017-11-03 13:30,-70.9583,41.6764,M,M,M,200.00,7.00,M,30.07,M,10.00,M,CLR,M,M,M,M,M,M,M,M,KEWB 031330Z AUTO 20007KT 10SM CLR A3007 RMK MADISHF
BED,2017-11-03 13:30,-71.2890,42.4699,M,M,M,200.00,11.00,M,30.03,M,10.00,M,CLR,M,M,M,M,M,M,M,M,KBED 031330Z AUTO 20011KT 10SM CLR A3003 RMK MADISHF
FIT,2017-11-03 13:30,-71.7558,42.5519,M,M,M,200.00,8.00,M,30.03,M,10.00,M,CLR,M,M,M,M,M,M,M,M,KFIT 031330Z AUTO 20008KT 10SM CLR A3003 RMK MADISHF
OWD,2017-11-03 13:30,-71.1733,42.1912,M,M,M,200.00,8.00,M,30.04,M,10.00,M,BKN,M,M,M,12000.00,M,M,M,M,KOWD 031330Z AUTO 20008KT 10SM BKN120 A3004 RMK MADISHF
BOS,2017-11-03 13:30,-71.0097,42.3606,M,M,M,230.00,12.00,M,30.04,M,10.00,M,OVC,M,M,M,12000.00,M,M,M,M,KBOS 031330Z AUTO 23012KT 10SM OVC120 A3004 RMK MADISHF
PYM,2017-11-03 13:30,-70.7288,41.9090,M,M,M,200.00,8.00,M,30.07,M,10.00,M,CLR,M,M,M,M,M,M,M,M,KPYM 031330Z AUTO 20008KT 10SM CLR A3007 RMK MADISHF
PVC,2017-11-03 13:30,-70.2200,42.0700,M,M,M,180.00,10.00,M,30.08,M,0.25,M,M,M,M,M,M,M,M,M,-RA FG,KPVC 031330Z AUTO 18010KT 1/4SM -RA FG A3008 RMK MADISHF
HYA,2017-11-03 13:30,-70.2800,41.6700,M,M,M,200.00,7.00,M,30.08,M,0.25,M,VV ,M,M,M,200.00,M,M,M,FG,KHYA 031330Z AUTO 20007KT 1/4SM FG VV002 A3008 RMK MADISHF
CQX,2017-11-03 13:30,-69.9933,41.6875,59.00,59.00,100.00,M,4.00,0.00,30.10,M,1.00,M,VV ,M,M,M,200.00,M,M,M,BR,KCQX 031330Z AUTO VRB04KT 1SM BR VV002 15/15 A3010 RMK AO2 T01500150
PVC,2017-11-03 13:35,-70.2200,42.0700,M,M,M,180.00,11.00,M,30.08,M,0.25,M,M,M,M,M,M,M,M,M,-RA FG,KPVC 031335Z AUTO 18011KT 1/4SM -RA FG A3008 RMK MADISHF
BED,2017-11-03 13:35,-71.2890,42.4699,M,M,M,190.00,10.00,M,30.02,M,10.00,M,CLR,M,M,M,M,M,M,M,M,KBED 031335Z AUTO 19010KT 10SM CLR A3002 RMK MADISHF
TAN,2017-11-03 13:35,-71.0211,41.8756,M,M,M,200.00,6.00,M,30.06,M,10.00,M,BKN,M,M,M,12000.00,M,M,M,M,KTAN 031335Z AUTO 20006KT 10SM BKN120 A3006 RMK VRB06KT  MADISHF
BOS,2017-11-03 13:35,-71.0097,42.3606,M,M,M,220.00,11.00,M,30.04,M,10.00,M,OVC,M,M,M,12000.00,M,M,M,M,KBOS 031335Z AUTO 22011KT 10SM OVC120 A3004 RMK MADISHF
HYA,2017-11-03 13:35,-70.2800,41.6700,M,M,M,210.00,8.00,M,30.08,M,0.25,M,VV ,M,M,M,200.00,M,M,M,FG,KHYA 031335Z AUTO 21008KT 1/4SM FG VV002 A3008 RMK MADISHF
OWD,2017-11-03 13:35,-71.1733,42.1912,M,M,M,220.00,5.00,M,30.04,M,10.00,M,OVC,M,M,M,12000.00,M,M,M,M,KOWD 031335Z AUTO 22005KT 10SM OVC120 A3004 RMK MADISHF
ORH,2017-11-03 13:35,-71.8757,42.2673,M,M,M,210.00,9.00,M,30.05,M,10.00,M,SCT,M,M,M,800.00,M,M,M,M,KORH 031335Z AUTO 21009KT 10SM SCT008 A3005 RMK MADISHF
PYM,2017-11-03 13:35,-70.7288,41.9090,M,M,M,200.00,7.00,M,30.07,M,10.00,M,FEW,M,M,M,12000.00,M,M,M,M,KPYM 031335Z AUTO 20007KT 10SM FEW120 A3007 RMK MADISHF
FIT,2017-11-03 13:35,-71.7558,42.5519,M,M,M,210.00,10.00,M,30.03,M,10.00,15.00,CLR,M,M,M,M,M,M,M,M,KFIT 031335Z AUTO 21010G15KT 10SM CLR A3003 RMK MADISHF
EWB,2017-11-03 13:35,-70.9583,41.6764,M,M,M,200.00,8.00,M,30.07,M,10.00,M,CLR,M,M,M,M,M,M,M,M,KEWB 031335Z AUTO 20008KT 10SM CLR A3007 RMK MADISHF
FMH,2017-11-03 13:35,-70.5215,41.6585,59.00,59.00,100.00,180.00,7.00,0.00,30.10,M,0.25,M,OVC,M,M,M,300.00,M,M,M,FG,KFMH 031335Z AUTO 18007KT 1/4SM FG OVC003 15/15 A3010 RMK AO2
GHG,2017-11-03 13:35,-70.6721,42.0982,66.20,57.20,72.74,220.00,8.00,0.00,30.05,M,10.00,15.00,FEW,M,M,M,12000.00,M,M,M,M,KGHG 031335Z AUTO 22008G15KT 10SM FEW120 19/14 A3005 RMK AO2
ORE,2017-11-03 13:40,-72.2886,42.5701,M,M,M,200.00,10.00,M,30.01,M,10.00,16.00,FEW,M,M,M,1600.00,M,M,M,M,KORE 031340Z AUTO 20010G16KT 10SM FEW016 A3001 RMK MADISHF
FIT,2017-11-03 13:40,-71.7558,42.5519,M,M,M,210.00,10.00,M,30.02,M,10.00,M,CLR,M,M,M,M,M,M,M,M,KFIT 031340Z AUTO 21010KT 10SM CLR A3002 RMK MADISHF
BED,2017-11-03 13:40,-71.2890,42.4699,M,M,M,190.00,10.00,M,30.02,M,10.00,M,CLR,M,M,M,M,M,M,M,M,KBED 031340Z AUTO 19010KT 10SM CLR A3002 RMK MADISHF
BOS,2017-11-03 13:40,-71.0097,42.3606,M,M,M,230.00,12.00,M,30.04,M,10.00,M,OVC,M,M,M,12000.00,M,M,M,M,KBOS 031340Z AUTO 23012KT 10SM OVC120 A3004 RMK MADISHF
HYA,2017-11-03 13:40,-70.2800,41.6700,M,M,M,210.00,9.00,M,30.08,M,0.25,M,VV ,M,M,M,200.00,M,M,M,FG,KHYA 031340Z AUTO 21009KT 1/4SM FG VV002 A3008 RMK MADISHF
EWB,2017-11-03 13:40,-70.9583,41.6764,M,M,M,210.00,7.00,M,30.07,M,10.00,M,CLR,M,M,M,M,M,M,M,M,KEWB 031340Z AUTO 21007KT 10SM CLR A3007 RMK MADISHF
OWD,2017-11-03 13:40,-71.1733,42.1912,M,M,M,210.00,6.00,M,30.04,M,10.00,M,OVC,M,M,M,12000.00,M,M,M,M,KOWD 031340Z AUTO 21006KT 10SM OVC120 A3004 RMK MADISHF
CQX,2017-11-03 13:40,-69.9933,41.6875,M,M,M,210.00,4.00,M,30.10,M,1.75,M,OVC,M,M,M,200.00,M,M,M,BR,KCQX 031340Z AUTO 21004KT 2SM BR OVC002 A3010 RMK MADISHF
PVC,2017-11-03 13:40,-70.2200,42.0700,M,M,M,180.00,8.00,M,30.08,M,0.25,M,M,M,M,M,M,M,M,M,-RA FG,KPVC 031340Z AUTO 18008KT 1/4SM -RA FG A3008 RMK MADISHF
PYM,2017-11-03 13:40,-70.7288,41.9090,M,M,M,200.00,6.00,M,30.07,M,10.00,M,FEW,M,M,M,12000.00,M,M,M,M,KPYM 031340Z AUTO 20006KT 10SM FEW120 A3007 RMK MADISHF
ORH,2017-11-03 13:40,-71.8757,42.2673,M,M,M,210.00,10.00,M,30.05,M,10.00,M,SCT,M,M,M,800.00,M,M,M,M,KORH 031340Z AUTO 21010KT 10SM SCT008 A3005 RMK MADISHF
TAN,2017-11-03 13:45,-71.0211,41.8756,M,M,M,190.00,4.00,M,30.06,M,10.00,M,SCT,M,M,M,12000.00,M,M,M,M,KTAN 031345Z AUTO 19004KT 10SM SCT120 A3006 RMK MADISHF
ORE,2017-11-03 13:45,-72.2886,42.5701,M,M,M,190.00,8.00,M,30.01,M,10.00,M,SCT,M,M,M,1800.00,M,M,M,M,KORE 031345Z AUTO 19008KT 10SM SCT018 A3001 RMK MADISHF
ORH,2017-11-03 13:45,-71.8757,42.2673,M,M,M,210.00,9.00,M,30.04,M,10.00,M,SCT,M,M,M,999.00,M,M,M,M,KORH 031345Z AUTO 21009KT 10SM SCT009 A3004 RMK MADISHF
BED,2017-11-03 13:45,-71.2890,42.4699,M,M,M,190.00,12.00,M,30.02,M,10.00,M,CLR,M,M,M,M,M,M,M,M,KBED 031345Z AUTO 19012KT 10SM CLR A3002 RMK MADISHF
HYA,2017-11-03 13:45,-70.2800,41.6700,M,M,M,210.00,9.00,M,30.08,M,0.25,M,VV ,M,M,M,200.00,M,M,M,FG,KHYA 031345Z AUTO 21009KT 1/4SM FG VV002 A3008 RMK MADISHF
CQX,2017-11-03 13:45,-69.9933,41.6875,M,M,M,210.00,4.00,M,30.10,M,2.00,M,OVC,M,M,M,200.00,M,M,M,BR,KCQX 031345Z AUTO 21004KT 2SM BR OVC002 A3010 RMK VRB04KT  MADISHF
OWD,2017-11-03 13:45,-71.1733,42.1912,M,M,M,210.00,6.00,M,30.04,M,10.00,M,BKN,M,M,M,12000.00,M,M,M,M,KOWD 031345Z AUTO 21006KT 10SM BKN120 A3004 RMK MADISHF
PVC,2017-11-03 13:45,-70.2200,42.0700,M,M,M,170.00,10.00,M,30.08,M,0.25,M,M,M,M,M,M,M,M,M,-RA FG,KPVC 031345Z AUTO 17010KT 1/4SM -RA FG A3008 RMK MADISHF
BOS,2017-11-03 13:45,-71.0097,42.3606,M,M,M,230.00,11.00,M,30.04,M,10.00,M,OVC,M,M,M,12000.00,M,M,M,M,KBOS 031345Z AUTO 23011KT 10SM OVC120 A3004 RMK MADISHF
EWB,2017-11-03 13:45,-70.9583,41.6764,M,M,M,200.00,7.00,M,30.07,M,10.00,M,FEW,M,M,M,12000.00,M,M,M,M,KEWB 031345Z AUTO 20007KT 10SM FEW120 A3007 RMK MADISHF
PYM,2017-11-03 13:45,-70.7288,41.9090,M,M,M,190.00,7.00,M,30.06,M,10.00,M,FEW,M,M,M,12000.00,M,M,M,M,KPYM 031345Z AUTO 19007KT 10SM FEW120 A3006 RMK MADISHF
CQX,2017-11-03 13:49,-69.9933,41.6875,60.80,60.80,100.00,220.00,6.00,0.00,30.10,M,2.00,M,OVC,M,M,M,200.00,M,M,M,BR,KCQX 031349Z AUTO 22006KT 2SM BR OVC002 16/16 A3010 RMK AO2
ORE,2017-11-03 13:50,-72.2886,42.5701,M,M,M,190.00,9.00,M,30.01,M,10.00,M,BKN,M,M,M,1800.00,M,M,M,M,KORE 031350Z AUTO 19009KT 10SM BKN018 A3001 RMK MADISHF
CQX,2017-11-03 13:50,-69.9933,41.6875,M,M,M,210.00,6.00,M,30.10,M,2.00,M,OVC,M,M,M,200.00,M,M,M,BR,KCQX 031350Z AUTO 21006KT 2SM BR OVC002 A3010 RMK MADISHF
PVC,2017-11-03 13:50,-70.2200,42.0700,M,M,M,170.00,10.00,M,30.07,M,0.25,M,M,M,M,M,M,M,M,M,-RA FG,KPVC 031350Z AUTO 17010KT 1/4SM -RA FG A3007 RMK MADISHF
TAN,2017-11-03 13:50,-71.0211,41.8756,M,M,M,190.00,6.00,M,30.06,M,10.00,M,FEW,M,M,M,12000.00,M,M,M,M,KTAN 031350Z AUTO 19006KT 10SM FEW120 A3006 RMK MADISHF
EWB,2017-11-03 13:50,-70.9583,41.6764,M,M,M,190.00,8.00,M,30.06,M,10.00,M,FEW,M,M,M,12000.00,M,M,M,M,KEWB 031350Z AUTO 19008KT 10SM FEW120 A3006 RMK MADISHF
OWD,2017-11-03 13:50,-71.1733,42.1912,M,M,M,210.00,5.00,M,30.04,M,10.00,M,BKN,M,M,M,12000.00,M,M,M,M,KOWD 031350Z AUTO 21005KT 10SM BKN120 A3004 RMK MADISHF
FIT,2017-11-03 13:50,-71.7558,42.5519,M,M,M,210.00,10.00,M,30.01,M,10.00,M,CLR,M,M,M,M,M,M,M,M,KFIT 031350Z AUTO 21010KT 10SM CLR A3001 RMK MADISHF
HYA,2017-11-03 13:50,-70.2800,41.6700,M,M,M,220.00,9.00,M,30.08,M,0.24,M,VV ,M,M,M,200.00,M,M,M,FG,KHYA 031350Z AUTO 22009KT 1/4SM FG VV002 A3008 RMK MADISHF
ORH,2017-11-03 13:50,-71.8757,42.2673,M,M,M,210.00,11.00,M,30.05,M,10.00,M,SCT,M,M,M,999.00,M,M,M,M,KORH 031350Z AUTO 21011KT 10SM SCT009 A3005 RMK MADISHF
BOS,2017-11-03 13:50,-71.0097,42.3606,M,M,M,220.00,10.00,M,30.04,M,10.00,M,BKN,M,M,M,12000.00,M,M,M,M,KBOS 031350Z AUTO 22010KT 10SM BKN120 A3004 RMK MADISHF
BED,2017-11-03 13:50,-71.2890,42.4699,M,M,M,190.00,11.00,M,30.01,M,10.00,M,SCT,SCT,M,M,900.00,11000.00,M,M,M,KBED 031350Z AUTO 19011KT 10SM SCT009 SCT110 A3001 RMK MADISHF
PYM,2017-11-03 13:52,-70.7288,41.9090,64.00,60.10,87.14,170.00,6.00,0.00,30.06,1017.90,10.00,M,FEW,M,M,M,12000.00,M,M,M,M,KPYM 031352Z AUTO 17006KT 10SM FEW120 18/16 A3006 RMK AO2 SLP179 T01780156
ORE,2017-11-03 13:52,-72.2886,42.5701,63.00,59.00,86.77,190.00,8.00,0.00,30.01,1016.30,10.00,M,BKN,M,M,M,1800.00,M,M,M,M,KORE 031352Z AUTO 19008KT 10SM BKN018 17/15 A3001 RMK AO2 SLP163 T01720150 TSNO
TAN,2017-11-03 13:52,-71.0211,41.8756,66.90,57.90,72.81,190.00,5.00,0.00,30.06,1017.80,10.00,M,FEW,M,M,M,12000.00,M,M,M,M,KTAN 031352Z AUTO 19005KT 10SM FEW120 19/14 A3006 RMK AO2 SLP178 T01940144
CQX,2017-11-03 13:52,-69.9933,41.6875,59.00,59.00,100.00,220.00,5.00,0.00,30.09,1019.20,1.50,M,OVC,M,M,M,200.00,M,M,M,BR,KCQX 031352Z AUTO 22005KT 1 1/2SM BR OVC002 15/15 A3009 RMK AO2 SLP192 T01500150
FIT,2017-11-03 13:52,-71.7558,42.5519,69.10,60.10,73.03,210.00,10.00,0.00,30.01,1016.40,10.00,18.00,CLR,M,M,M,M,M,M,M,M,KFIT 031352Z AUTO 21010G18KT 10SM CLR 21/16 A3001 RMK AO2 SLP164 T02060156
EWB,2017-11-03 13:53,-70.9583,41.6764,62.10,61.00,96.18,190.00,8.00,0.00,30.06,1018.00,10.00,M,FEW,M,M,M,12000.00,M,M,M,M,KEWB 031353Z 19008KT 10SM FEW120 17/16 A3006 RMK AO2 SLP180 T01670161
OWD,2017-11-03 13:53,-71.1733,42.1912,64.90,60.10,84.44,220.00,6.00,0.00,30.03,1017.00,10.00,M,BKN,M,M,M,12000.00,M,M,M,M,KOWD 031353Z 22006KT 10SM BKN120 18/16 A3003 RMK AO2 SLP170 T01830156
BOS,2017-11-03 13:54,-71.0097,42.3606,64.00,57.90,80.54,220.00,11.00,0.00,30.03,1016.90,10.00,M,SCT,SCT,M,M,12000.00,25000.00,M,M,M,KBOS 031354Z 22011KT 10SM SCT120 SCT250 18/14 A3003 RMK A02 SLP169 T01780144
ORH,2017-11-03 13:54,-71.8757,42.2673,61.00,55.90,83.29,210.00,13.00,0.00,30.05,1017.40,10.00,M,SCT,M,M,M,1000.00,M,M,M,M,KORH 031354Z 21013KT 10SM SCT010 16/13 A3005 RMK AO2 SLP174 T01610133
TAN,2017-11-03 13:55,-71.0211,41.8756,M,M,M,210.00,5.00,M,30.05,M,10.00,M,FEW,M,M,M,12000.00,M,M,M,M,KTAN 031355Z AUTO 21005KT 10SM FEW120 A3005 RMK MADISHF
PVC,2017-11-03 13:55,-70.2200,42.0700,M,M,M,180.00,8.00,M,30.07,M,0.25,M,M,M,M,M,M,M,M,M,-RA FG,KPVC 031355Z AUTO 18008KT 1/4SM -RA FG A3007 RMK MADISHF
FIT,2017-11-03 13:55,-71.7558,42.5519,M,M,M,220.00,11.00,M,30.01,M,10.00,M,CLR,M,M,M,M,M,M,M,M,KFIT 031355Z AUTO 22011KT 10SM CLR A3001 RMK WND 19V26  MADISHF
PYM,2017-11-03 13:55,-70.7288,41.9090,M,M,M,210.00,7.00,M,30.06,M,10.00,M,FEW,M,M,M,12000.00,M,M,M,M,KPYM 031355Z AUTO 21007KT 10SM FEW120 A3006 RMK MADISHF
BED,2017-11-03 13:55,-71.2890,42.4699,M,M,M,200.00,9.00,M,30.01,M,10.00,M,SCT,SCT,M,M,900.00,11000.00,M,M,M,KBED 031355Z AUTO 20009KT 10SM SCT009 SCT110 A3001 RMK MADISHF
ORE,2017-11-03 13:55,-72.2886,42.5701,M,M,M,200.00,9.00,M,30.01,M,10.00,M,BKN,M,M,M,1800.00,M,M,M,M,KORE 031355Z AUTO 20009KT 10SM BKN018 A3001 RMK MADISHF
EWB,2017-11-03 13:55,-70.9583,41.6764,M,M,M,190.00,8.00,M,30.06,M,10.00,M,FEW,M,M,M,12000.00,M,M,M,M,KEWB 031355Z AUTO 19008KT 10SM FEW120 A3006 RMK MADISHF
HYA,2017-11-03 13:55,-70.2800,41.6700,M,M,M,210.00,10.00,M,30.08,M,0.24,M,VV ,M,M,M,200.00,M,M,M,FG,KHYA 031355Z AUTO 21010KT 1/4SM FG VV002 A3008 RMK MADISHF
ORH,2017-11-03 13:55,-71.8757,42.2673,M,M,M,210.00,11.00,M,30.05,M,10.00,M,BKN,M,M,M,999.00,M,M,M,M,KORH 031355Z AUTO 21011KT 10SM BKN009 A3005 RMK MADISHF
OWD,2017-11-03 13:55,-71.1733,42.1912,M,M,M,210.00,8.00,M,30.03,M,10.00,M,BKN,M,M,M,12000.00,M,M,M,M,KOWD 031355Z AUTO 21008KT 10SM BKN120 A3003 RMK MADISHF
GHG,2017-11-03 13:55,-70.6721,42.0982,68.00,57.20,68.35,220.00,7.00,0.00,30.04,M,10.00,14.00,CLR,M,M,M,M,M,M,M,M,KGHG 031355Z AUTO 22007G14KT 10SM CLR 20/14 A3004 RMK AO2
FMH,2017-11-03 13:55,-70.5215,41.6585,59.00,59.00,100.00,190.00,9.00,0.00,30.09,M,0.50,M,OVC,M,M,M,300.00,M,M,M,FG,KFMH 031355Z AUTO 19009KT 1/2SM FG OVC003 15/15 A3009 RMK AO2
BED,2017-11-03 13:56,-71.2890,42.4699,64.00,59.00,83.78,200.00,9.00,0.00,30.01,1017.40,10.00,M,SCT,SCT,M,M,900.00,11000.00,M,M,M,KBED 031356Z 20009KT 10SM SCT009 SCT110 18/15 A3001 RMK AO2 SLP174 T01780150
HYA,2017-11-03 13:56,-70.2800,41.6700,61.00,60.10,96.85,210.00,9.00,0.00,30.07,1018.50,0.25,M,VV ,M,M,M,200.00,M,M,M,FG,KHYA 031356Z 21009KT 1/4SM FG VV002 16/16 A3007 RMK AO2 SLP185 T01610156
MQE,2017-11-03 13:56,-71.1142,42.2121,62.10,57.00,83.36,210.00,11.00,0.00,30.03,1017.90,M,M,M,M,M,M,M,M,M,M,M,KMQE 031356Z AUTO 21011KT 17/14 A3003 RMK AO1 SLP179 T01670139
PVC,2017-11-03 13:56,-70.2200,42.0700,57.90,57.90,100.00,180.00,10.00,0.00,30.07,1018.10,0.25,15.00,M,M,M,M,M,M,M,M,-RA FG,KPVC 031356Z AUTO 18010G15KT 1/4SM -RA FG 14/14 A3007 RMK AO2 SLP181 P0000 T01440144 $
FIT,2017-11-03 14:00,-71.7558,42.5519,M,M,M,200.00,11.00,M,30.01,M,10.00,16.00,CLR,M,M,M,M,M,M,M,M,KFIT 031400Z AUTO 20011G16KT 10SM CLR A3001 RMK MADISHF
PYM,2017-11-03 14:00,-70.7288,41.9090,M,M,M,200.00,7.00,M,30.06,M,10.00,M,FEW,M,M,M,12000.00,M,M,M,M,KPYM 031400Z AUTO 20007KT 10SM FEW120 A3006 RMK MADISHF
OWD,2017-11-03 14:00,-71.1733,42.1912,M,M,M,220.00,6.00,M,30.03,M,10.00,M,BKN,M,M,M,12000.00,M,M,M,M,KOWD 031400Z AUTO 22006KT 10SM BKN120 A3003 RMK MADISHF
CQX,2017-11-03 14:00,-69.9933,41.6875,M,M,M,200.00,4.00,M,30.09,M,1.00,M,OVC,M,M,M,200.00,M,M,M,BR,KCQX 031400Z AUTO 20004KT 1SM BR OVC002 A3009 RMK MADISHF
BED,2017-11-03 14:00,-71.2890,42.4699,M,M,M,200.00,12.00,M,30.01,M,10.00,17.00,SCT,SCT,M,M,900.00,11000.00,M,M,M,KBED 031400Z AUTO 20012G17KT 10SM SCT009 SCT110 A3001 RMK MADISHF
HYA,2017-11-03 14:00,-70.2800,41.6700,M,M,M,220.00,9.00,M,30.07,M,0.24,M,VV ,M,M,M,200.00,M,M,M,FG,KHYA 031400Z AUTO 22009KT 1/4SM FG VV002 A3007 RMK MADISHF
PVC,2017-11-03 14:00,-70.2200,42.0700,M,M,M,180.00,11.00,M,30.07,M,0.25,M,M,M,M,M,M,M,M,M,-RA FG,KPVC 031400Z AUTO 18011KT 1/4SM -RA FG A3007 RMK MADISHF
ORE,2017-11-03 14:00,-72.2886,42.5701,M,M,M,180.00,11.00,M,30.01,M,10.00,M,BKN,M,M,M,1699.00,M,M,M,M,KORE 031400Z AUTO 18011KT 10SM BKN016 A3001 RMK MADISHF
ORH,2017-11-03 14:00,-71.8757,42.2673,M,M,M,M,M,M,30.04,M,10.00,M,SCT,BKN,M,M,999.00,1400.00,M,M,M,KORH 031400Z AUTO /////KT 10SM SCT009 BKN014 A3004 RMK MADISHF
EWB,2017-11-03 14:00,-70.9583,41.6764,M,M,M,190.00,8.00,M,30.06,M,10.00,M,FEW,M,M,M,12000.00,M,M,M,M,KEWB 031400Z AUTO 19008KT 10SM FEW120 A3006 RMK MADISHF
BOS,2017-11-03 14:00,-71.0097,42.3606,M,M,M,220.00,11.00,M,30.02,M,10.00,M,BKN,M,M,M,12000.00,M,M,M,M,KBOS 031400Z AUTO 22011KT 10SM BKN120 A3002 RMK MADISHF
ORH,2017-11-03 14:01,-71.8757,42.2673,62.10,57.00,83.36,210.00,12.00,0.00,30.04,M,10.00,19.00,BKN,M,M,M,1200.00,M,M,M,M,KORH 031401Z 21012G19KT 10SM BKN012 17/14 A3004 RMK AO2 T01670139
PVC,2017-11-03 14:05,-70.2200,42.0700,M,M,M,180.00,9.00,M,30.07,M,0.25,M,M,M,M,M,M,M,M,M,-RA FG,KPVC 031405Z AUTO 18009KT 1/4SM -RA FG A3007 RMK MADISHF
BED,2017-11-03 14:05,-71.2890,42.4699,M,M,M,200.00,12.00,M,30.01,M,10.00,M,SCT,SCT,M,M,900.00,11000.00,M,M,M,KBED 031405Z AUTO 20012KT 10SM SCT009 SCT110 A3001 RMK MADISHF
HYA,2017-11-03 14:05,-70.2800,41.6700,M,M,M,210.00,9.00,M,30.07,M,0.24,M,VV ,M,M,M,200.00,M,M,M,FG,KHYA 031405Z AUTO 21009KT 1/4SM FG VV002 A3007 RMK MADISHF
ORH,2017-11-03 14:05,-71.8757,42.2673,M,M,M,M,M,M,30.04,M,10.00,M,BKN,M,M,M,1200.00,M,M,M,M,KORH 031405Z AUTO /////KT 10SM BKN012 A3004 RMK MADISHF
OWD,2017-11-03 14:05,-71.1733,42.1912,M,M,M,200.00,8.00,M,30.03,M,10.00,M,SCT,M,M,M,12000.00,M,M,M,M,KOWD 031405Z AUTO 20008KT 10SM SCT120 A3003 RMK MADISHF
EWB,2017-11-03 14:05,-70.9583,41.6764,M,M,M,200.00,9.00,M,30.06,M,10.00,M,FEW,M,M,M,12000.00,M,M,M,M,KEWB 031405Z AUTO 20009KT 10SM FEW120 A3006 RMK MADISHF
FIT,2017-11-03 14:05,-71.7558,42.5519,M,M,M,200.00,11.00,M,30.01,M,10.00,M,CLR,M,M,M,M,M,M,M,M,KFIT 031405Z AUTO 20011KT 10SM CLR A3001 RMK MADISHF
ORE,2017-11-03 14:05,-72.2886,42.5701,M,M,M,M,M,M,30.01,M,10.00,M,BKN,M,M,M,1699.00,M,M,M,M,KORE 031405Z AUTO /////KT 10SM BKN016 A3001 RMK MADISHF
CQX,2017-11-03 14:05,-69.9933,41.6875,M,M,M,210.00,6.00,M,30.09,M,0.75,M,VV ,M,M,M,200.00,M,M,M,BR,KCQX 031405Z AUTO 21006KT 1SM BR VV002 A3009 RMK MADISHF
TAN,2017-11-03 14:05,-71.0211,41.8756,M,M,M,180.00,7.00,M,30.05,M,10.00,M,SCT,M,M,M,12000.00,M,M,M,M,KTAN 031405Z AUTO 18007KT 10SM SCT120 A3005 RMK MADISHF
BOS,2017-11-03 14:05,-71.0097,42.3606,M,M,M,M,M,M,30.02,M,10.00,M,BKN,M,M,M,12000.00,M,M,M,M,KBOS 031405Z AUTO /////KT 10SM BKN120 A3002 RMK MADISHF
PYM,2017-11-03 14:05,-70.7288,41.9090,M,M,M,210.00,7.00,M,30.06,M,10.00,M,CLR,M,M,M,M,M,M,M,M,KPYM 031405Z AUTO 21007KT 10SM CLR A3006 RMK MADISHF
TAN,2017-11-03 14:10,-71.0211,41.8756,M,M,M,190.00,8.00,M,30.04,M,10.00,M,SCT,M,M,M,12000.00,M,M,M,M,KTAN 031410Z AUTO 19008KT 10SM SCT120 A3004 RMK WND 15V22  MADISHF
PVC,2017-11-03 14:10,-70.2200,42.0700,M,M,M,180.00,12.00,M,30.06,M,0.24,M,M,M,M,M,M,M,M,M,-RA FG,KPVC 031410Z AUTO 18012KT 1/4SM -RA FG A3006 RMK MADISHF
FIT,2017-11-03 14:10,-71.7558,42.5519,M,M,M,M,M,M,30.01,M,10.00,M,CLR,M,M,M,M,M,M,M,M,KFIT 031410Z AUTO /////KT 10SM CLR A3001 RMK MADISHF
BOS,2017-11-03 14:10,-71.0097,42.3606,M,M,M,220.00,14.00,M,30.02,M,10.00,M,SCT,M,M,M,12000.00,M,M,M,M,KBOS 031410Z AUTO 22014KT 10SM SCT120 A3002 RMK MADISHF
ORH,2017-11-03 14:10,-71.8757,42.2673,M,M,M,200.00,11.00,M,30.03,M,10.00,M,BKN,M,M,M,1200.00,M,M,M,M,KORH 031410Z AUTO 20011KT 10SM BKN012 A3003 RMK MADISHF
PYM,2017-11-03 14:10,-70.7288,41.9090,M,M,M,200.00,9.00,M,30.06,M,10.00,M,CLR,M,M,M,M,M,M,M,M,KPYM 031410Z AUTO 20009KT 10SM CLR A3006 RMK MADISHF
ORE,2017-11-03 14:10,-72.2886,42.5701,M,M,M,200.00,11.00,M,30.00,M,10.00,M,BKN,M,M,M,1900.00,M,M,M,M,KORE 031410Z AUTO 20011KT 10SM BKN019 A3000 RMK MADISHF
CQX,2017-11-03 14:10,-69.9933,41.6875,M,M,M,220.00,5.00,M,30.09,M,0.50,M,VV ,M,M,M,200.00,M,M,M,FG,KCQX 031410Z AUTO 22005KT 1/2SM FG VV002 A3009 RMK MADISHF
HYA,2017-11-03 14:10,-70.2800,41.6700,M,M,M,210.00,11.00,M,30.06,M,0.24,M,VV ,M,M,M,200.00,M,M,M,FG,KHYA 031410Z AUTO 21011KT 1/4SM FG VV002 A3006 RMK MADISHF
EWB,2017-11-03 14:10,-70.9583,41.6764,M,M,M,200.00,9.00,M,30.05,M,10.00,M,FEW,M,M,M,12000.00,M,M,M,M,KEWB 031410Z AUTO 20009KT 10SM FEW120 A3005 RMK MADISHF
BED,2017-11-03 14:10,-71.2890,42.4699,M,M,M,200.00,13.00,M,30.00,M,10.00,M,SCT,SCT,M,M,900.00,11000.00,M,M,M,KBED 031410Z AUTO 20013KT 10SM SCT009 SCT110 A3000 RMK MADISHF
OWD,2017-11-03 14:10,-71.1733,42.1912,M,M,M,210.00,7.00,M,30.03,M,10.00,M,FEW,M,M,M,11000.00,M,M,M,M,KOWD 031410Z AUTO 21007KT 10SM FEW110 A3003 RMK MADISHF
CQX,2017-11-03 14:11,-69.9933,41.6875,59.00,59.00,100.00,220.00,5.00,0.00,30.09,M,0.50,M,VV ,M,M,M,200.00,M,M,M,FG,KCQX 031411Z AUTO 22005KT 1/2SM FG VV002 15/15 A3009 RMK AO2 T01500150
PYM,2017-11-03 14:15,-70.7288,41.9090,M,M,M,200.00,7.00,M,30.05,M,10.00,M,CLR,M,M,M,M,M,M,M,M,KPYM 031415Z AUTO 20007KT 10SM CLR A3005 RMK MADISHF
ORE,2017-11-03 14:15,-72.2886,42.5701,M,M,M,M,M,M,30.00,M,10.00,M,BKN,M,M,M,1900.00,M,M,M,M,KORE 031415Z AUTO /////KT 10SM BKN019 A3000 RMK MADISHF
HYA,2017-11-03 14:15,-70.2800,41.6700,M,M,M,200.00,10.00,M,30.06,M,0.24,15.00,VV ,M,M,M,200.00,M,M,M,FG,KHYA 031415Z AUTO 20010G15KT 1/4SM FG VV002 A3006 RMK MADISHF
ORH,2017-11-03 14:15,-71.8757,42.2673,M,M,M,M,M,M,30.03,M,10.00,20.00,BKN,M,M,M,1200.00,M,M,M,M,KORH 031415Z AUTO /////G20KT 10SM BKN012 A3003 RMK MADISHF
OWD,2017-11-03 14:15,-71.1733,42.1912,M,M,M,200.00,8.00,M,30.02,M,10.00,M,FEW,M,M,M,11000.00,M,M,M,M,KOWD 031415Z AUTO 20008KT 10SM FEW110 A3002 RMK MADISHF
EWB,2017-11-03 14:15,-70.9583,41.6764,M,M,M,190.00,11.00,M,30.05,M,10.00,M,CLR,M,M,M,M,M,M,M,M,KEWB 031415Z AUTO 19011KT 10SM CLR A3005 RMK MADISHF
FIT,2017-11-03 14:15,-71.7558,42.5519,M,M,M,210.00,10.00,M,30.01,M,10.00,15.00,CLR,M,M,M,M,M,M,M,M,KFIT 031415Z AUTO 21010G15KT 10SM CLR A3001 RMK MADISHF
PVC,2017-11-03 14:15,-70.2200,42.0700,M,M,M,190.00,10.00,M,30.06,M,0.25,M,M,M,M,M,M,M,M,M,-RA FG,KPVC 031415Z AUTO 19010KT 1/4SM -RA FG A3006 RMK MADISHF
BOS,2017-11-03 14:15,-71.0097,42.3606,M,M,M,M,M,M,30.02,M,10.00,M,SCT,M,M,M,12000.00,M,M,M,M,KBOS 031415Z AUTO /////KT 10SM SCT120 A3002 RMK MADISHF
GHG,2017-11-03 14:15,-70.6721,42.0982,68.00,59.00,72.92,210.00,7.00,0.00,30.03,M,10.00,17.00,CLR,M,M,M,M,M,M,M,M,KGHG 031415Z AUTO 21007G17KT 150V240 10SM CLR 20/15 A3003 RMK AO2
CQX,2017-11-03 14:15,-69.9933,41.6875,M,M,M,220.00,8.00,M,30.08,M,0.50,M,VV ,M,M,M,200.00,M,M,M,FG,KCQX 031415Z AUTO 22008KT 1/2SM FG VV002 A3008 RMK MADISHF
BED,2017-11-03 14:15,-71.2890,42.4699,M,M,M,210.00,14.00,M,30.00,M,10.00,M,SCT,SCT,M,M,900.00,11000.00,M,M,M,KBED 031415Z AUTO 21014KT 10SM SCT009 SCT110 A3000 RMK MADISHF
TAN,2017-11-03 14:15,-71.0211,41.8756,M,M,M,180.00,8.00,M,30.04,M,10.00,M,SCT,M,M,M,12000.00,M,M,M,M,KTAN 031415Z AUTO 18008KT 10SM SCT120 A3004 RMK MADISHF
FMH,2017-11-03 14:15,-70.5215,41.6585,60.80,60.80,100.00,190.00,10.00,0.00,30.08,M,6.00,M,OVC,M,M,M,300.00,M,M,M,BR,KFMH 031415Z AUTO 19010KT 6SM BR OVC003 16/16 A3008 RMK AO2
ORH,2017-11-03 14:20,-71.8757,42.2673,M,M,M,M,M,M,30.03,M,10.00,M,SCT,M,M,M,1200.00,M,M,M,M,KORH 031420Z AUTO /////KT 10SM SCT012 A3003 RMK MADISHF
OWD,2017-11-03 14:20,-71.1733,42.1912,M,M,M,210.00,9.00,M,30.02,M,10.00,M,FEW,M,M,M,11000.00,M,M,M,M,KOWD 031420Z AUTO 21009KT 10SM FEW110 A3002 RMK MADISHF
TAN,2017-11-03 14:20,-71.0211,41.8756,M,M,M,190.00,10.00,M,30.03,M,10.00,15.00,BKN,M,M,M,12000.00,M,M,M,M,KTAN 031420Z AUTO 19010G15KT 10SM BKN120 A3003 RMK WND 15V22  MADISHF
PYM,2017-11-03 14:20,-70.7288,41.9090,M,M,M,200.00,6.00,M,30.05,M,10.00,M,CLR,M,M,M,M,M,M,M,M,KPYM 031420Z AUTO 20006KT 10SM CLR A3005 RMK MADISHF
PVC,2017-11-03 14:20,-70.2200,42.0700,M,M,M,190.00,11.00,M,30.06,M,0.25,M,M,M,M,M,M,M,M,M,-RA FG,KPVC 031420Z AUTO 19011KT 1/4SM -RA FG A3006 RMK MADISHF
HYA,2017-11-03 14:20,-70.2800,41.6700,M,M,M,210.00,12.00,M,30.06,M,0.24,M,VV ,M,M,M,200.00,M,M,M,FG,KHYA 031420Z AUTO 21012KT 1/4SM FG VV002 A3006 RMK MADISHF
BED,2017-11-03 14:20,-71.2890,42.4699,M,M,M,200.00,11.00,M,30.00,M,10.00,M,SCT,SCT,M,M,900.00,11000.00,M,M,M,KBED 031420Z AUTO 20011KT 10SM SCT009 SCT110 A3000 RMK MADISHF
CQX,2017-11-03 14:20,-69.9933,41.6875,M,M,M,220.00,7.00,M,30.08,M,0.50,M,VV ,M,M,M,200.00,M,M,M,FG,KCQX 031420Z AUTO 22007KT 1/2SM FG VV002 A3008 RMK MADISHF
ORE,2017-11-03 14:20,-72.2886,42.5701,M,M,M,M,M,M,30.00,M,10.00,M,BKN,M,M,M,1800.00,M,M,M,M,KORE 031420Z AUTO /////KT 10SM BKN018 A3000 RMK MADISHF
BOS,2017-11-03 14:20,-71.0097,42.3606,M,M,M,M,M,M,30.02,M,10.00,M,FEW,M,M,M,12000.00,M,M,M,M,KBOS 031420Z AUTO /////KT 10SM FEW120 A3002 RMK MADISHF
EWB,2017-11-03 14:20,-70.9583,41.6764,M,M,M,190.00,9.00,M,30.04,M,10.00,M,CLR,M,M,M,M,M,M,M,M,KEWB 031420Z AUTO 19009KT 10SM CLR A3004 RMK MADISHF
ORH,2017-11-03 14:23,-71.8757,42.2673,63.00,57.00,80.76,220.00,11.00,0.00,30.03,M,10.00,20.00,SCT,M,M,M,1200.00,M,M,M,M,KORH 031423Z 22011G20KT 10SM SCT012 17/14 A3003 RMK AO2 T01720139
ORH,2017-11-03 14:25,-71.8757,42.2673,M,M,M,M,M,M,30.02,M,10.00,M,FEW,M,M,M,1200.00,M,M,M,M,KORH 031425Z AUTO /////KT 10SM FEW012 A3002 RMK MADISHF
OWD,2017-11-03 14:25,-71.1733,42.1912,M,M,M,210.00,6.00,M,30.02,M,10.00,M,CLR,M,M,M,M,M,M,M,M,KOWD 031425Z AUTO 21006KT 10SM CLR A3002 RMK MADISHF
BED,2017-11-03 14:25,-71.2890,42.4699,M,M,M,200.00,10.00,M,30.00,M,10.00,M,SCT,SCT,M,M,900.00,11000.00,M,M,M,KBED 031425Z AUTO 20010KT 10SM SCT009 SCT110 A3000 RMK MADISHF
FIT,2017-11-03 14:25,-71.7558,42.5519,M,M,M,M,M,M,30.00,M,10.00,M,CLR,M,M,M,M,M,M,M,M,KFIT 031425Z AUTO /////KT 10SM CLR A3000 RMK MADISHF
ORE,2017-11-03 14:25,-72.2886,42.5701,M,M,M,180.00,11.00,M,30.00,M,10.00,M,BKN,M,M,M,1800.00,M,M,M,M,KORE 031425Z AUTO 18011KT 10SM BKN018 A3000 RMK MADISHF
TAN,2017-11-03 14:25,-71.0211,41.8756,M,M,M,210.00,9.00,M,30.03,M,10.00,M,SCT,M,M,M,12000.00,M,M,M,M,KTAN 031425Z AUTO 21009KT 10SM SCT120 A3003 RMK MADISHF
HYA,2017-11-03 14:25,-70.2800,41.6700,M,M,M,190.00,6.00,M,30.05,M,0.24,M,VV ,M,M,M,200.00,M,M,M,FG,KHYA 031425Z AUTO 19006KT 1/4SM FG VV002 A3005 RMK MADISHF
BOS,2017-11-03 14:25,-71.0097,42.3606,M,M,M,M,M,M,30.01,M,10.00,M,FEW,M,M,M,11000.00,M,M,M,M,KBOS 031425Z AUTO /////KT 10SM FEW110 A3001 RMK MADISHF
CQX,2017-11-03 14:25,-69.9933,41.6875,M,M,M,220.00,7.00,M,30.08,M,0.50,M,VV ,M,M,M,200.00,M,M,M,FG,KCQX 031425Z AUTO 22007KT 1/2SM FG VV002 A3008 RMK MADISHF
PVC,2017-11-03 14:25,-70.2200,42.0700,M,M,M,190.00,10.00,M,30.06,M,0.24,M,M,M,M,M,M,M,M,M,-RA FG,KPVC 031425Z AUTO 19010KT 1/4SM -RA FG A3006 RMK MADISHF
EWB,2017-11-03 14:25,-70.9583,41.6764,M,M,M,190.00,10.00,M,30.04,M,10.00,M,CLR,M,M,M,M,M,M,M,M,KEWB 031425Z AUTO 19010KT 10SM CLR A3004 RMK MADISHF
PVC,2017-11-03 14:30,-70.2200,42.0700,M,M,M,180.00,9.00,M,30.06,M,0.25,M,M,M,M,M,M,M,M,M,-RA FG,KPVC 031430Z AUTO 18009KT 1/4SM -RA FG A3006 RMK MADISHF
FIT,2017-11-03 14:30,-71.7558,42.5519,M,M,M,210.00,7.00,M,30.00,M,10.00,M,CLR,M,M,M,M,M,M,M,M,KFIT 031430Z AUTO 21007KT 10SM CLR A3000 RMK WND 17V24  MADISHF
BED,2017-11-03 14:30,-71.2890,42.4699,M,M,M,210.00,11.00,M,30.00,M,10.00,M,SCT,SCT,M,M,900.00,11000.00,M,M,M,KBED 031430Z AUTO 21011KT 10SM SCT009 SCT110 A3000 RMK MADISHF
BOS,2017-11-03 14:30,-71.0097,42.3606,M,M,M,M,M,M,30.01,M,10.00,M,CLR,M,M,M,M,M,M,M,M,KBOS 031430Z AUTO /////KT 10SM CLR A3001 RMK MADISHF
HYA,2017-11-03 14:30,-70.2800,41.6700,M,M,M,210.00,8.00,M,30.05,M,0.25,M,VV ,M,M,M,200.00,M,M,M,FG,KHYA 031430Z AUTO 21008KT 1/4SM FG VV002 A3005 RMK MADISHF
EWB,2017-11-03 14:30,-70.9583,41.6764,M,M,M,190.00,10.00,M,30.04,M,10.00,M,CLR,M,M,M,M,M,M,M,M,KEWB 031430Z AUTO 19010KT 10SM CLR A3004 RMK MADISHF
TAN,2017-11-03 14:30,-71.0211,41.8756,M,M,M,220.00,9.00,M,30.03,M,10.00,M,SCT,M,M,M,12000.00,M,M,M,M,KTAN 031430Z AUTO 22009KT 10SM SCT120 A3003 RMK MADISHF
PYM,2017-11-03 14:30,-70.7288,41.9090,M,M,M,200.00,10.00,M,30.04,M,10.00,M,CLR,M,M,M,M,M,M,M,M,KPYM 031430Z AUTO 20010KT 10SM CLR A3004 RMK MADISHF
OWD,2017-11-03 14:30,-71.1733,42.1912,M,M,M,210.00,9.00,M,30.02,M,10.00,M,CLR,M,M,M,M,M,M,M,M,KOWD 031430Z AUTO 21009KT 10SM CLR A3002 RMK MADISHF
ORH,2017-11-03 14:30,-71.8757,42.2673,M,M,M,M,M,M,30.02,M,10.00,M,FEW,M,M,M,1200.00,M,M,M,M,KORH 031430Z AUTO /////KT 10SM FEW012 A3002 RMK MADISHF
OWD,2017-11-03 14:35,-71.1733,42.1912,M,M,M,210.00,10.00,M,30.01,M,10.00,M,CLR,M,M,M,M,M,M,M,M,KOWD 031435Z AUTO 21010KT 10SM CLR A3001 RMK MADISHF
BED,2017-11-03 14:35,-71.2890,42.4699,M,M,M,190.00,12.00,M,29.99,M,10.00,M,SCT,SCT,M,M,900.00,11000.00,M,M,M,KBED 031435Z AUTO 19012KT 10SM SCT009 SCT110 A2999 RMK MADISHF
HYA,2017-11-03 14:35,-70.2800,41.6700,M,M,M,200.00,9.00,M,30.05,M,0.25,M,VV ,M,M,M,200.00,M,M,M,FG,KHYA 031435Z AUTO 20009KT 1/4SM FG VV002 A3005 RMK MADISHF
PYM,2017-11-03 14:35,-70.7288,41.9090,M,M,M,200.00,8.00,M,30.04,M,10.00,M,CLR,M,M,M,M,M,M,M,M,KPYM 031435Z AUTO 20008KT 10SM CLR A3004 RMK MADISHF
PVC,2017-11-03 14:35,-70.2200,42.0700,M,M,M,190.00,10.00,M,30.05,M,0.25,M,M,M,M,M,M,M,M,M,-RA FG,KPVC 031435Z AUTO 19010KT 1/4SM -RA FG A3005 RMK MADISHF
BOS,2017-11-03 14:35,-71.0097,42.3606,M,M,M,M,M,M,30.01,M,10.00,M,CLR,M,M,M,M,M,M,M,M,KBOS 031435Z AUTO /////KT 10SM CLR A3001 RMK MADISHF
EWB,2017-11-03 14:35,-70.9583,41.6764,M,M,M,200.00,10.00,M,30.04,M,10.00,M,CLR,M,M,M,M,M,M,M,M,KEWB 031435Z AUTO 20010KT 10SM CLR A3004 RMK MADISHF
ORH,2017-11-03 14:35,-71.8757,42.2673,M,M,M,M,M,M,30.03,M,10.00,18.00,FEW,M,M,M,1200.00,M,M,M,M,KORH 031435Z AUTO /////G18KT 10SM FEW012 A3003 RMK MADISHF
FIT,2017-11-03 14:35,-71.7558,42.5519,M,M,M,210.00,9.00,M,30.00,M,10.00,M,CLR,M,M,M,M,M,M,M,M,KFIT 031435Z AUTO 21009KT 10SM CLR A3000 RMK MADISHF
ORE,2017-11-03 14:35,-72.2886,42.5701,M,M,M,M,M,M,29.99,M,10.00,M,SCT,BKN,M,M,1900.00,8500.00,M,M,M,KORE 031435Z AUTO /////KT 10SM SCT019 BKN085 A2999 RMK MADISHF
CQX,2017-11-03 14:35,-69.9933,41.6875,M,M,M,220.00,7.00,M,30.07,M,0.50,M,VV ,M,M,M,200.00,M,M,M,FG,KCQX 031435Z AUTO 22007KT 1/2SM FG VV002 A3007 RMK WND 19V25  MADISHF
GHG,2017-11-03 14:35,-70.6721,42.0982,68.00,59.00,72.92,220.00,10.00,0.00,30.02,M,10.00,M,CLR,M,M,M,M,M,M,M,M,KGHG 031435Z AUTO 22010KT 10SM CLR 20/15 A3002 RMK AO2
FMH,2017-11-03 14:35,-70.5215,41.6585,60.80,60.80,100.00,200.00,10.00,0.00,30.07,M,10.00,M,BKN,M,M,M,400.00,M,M,M,M,KFMH 031435Z AUTO 20010KT 10SM BKN004 16/16 A3007 RMK AO2
CQX,2017-11-03 14:40,-69.9933,41.6875,M,M,M,230.00,8.00,M,30.07,M,0.25,M,VV ,M,M,M,200.00,M,M,M,FG,KCQX 031440Z AUTO 23008KT 1/4SM FG VV002 A3007 RMK MADISHF
HYA,2017-11-03 14:40,-70.2800,41.6700,M,M,M,200.00,10.00,M,30.04,M,0.25,M,VV ,M,M,M,200.00,M,M,M,FG,KHYA 031440Z AUTO 20010KT 1/4SM FG VV002 A3004 RMK MADISHF
OWD,2017-11-03 14:40,-71.1733,42.1912,M,M,M,210.00,9.00,M,30.01,M,10.00,M,CLR,M,M,M,M,M,M,M,M,KOWD 031440Z AUTO 21009KT 10SM CLR A3001 RMK MADISHF
BED,2017-11-03 14:40,-71.2890,42.4699,M,M,M,190.00,12.00,M,29.99,M,10.00,M,SCT,SCT,M,M,900.00,11000.00,M,M,M,KBED 031440Z AUTO 19012KT 10SM SCT009 SCT110 A2999 RMK MADISHF
PYM,2017-11-03 14:40,-70.7288,41.9090,M,M,M,190.00,8.00,M,30.04,M,10.00,M,CLR,M,M,M,M,M,M,M,M,KPYM 031440Z AUTO 19008KT 10SM CLR A3004 RMK MADISHF
TAN,2017-11-03 14:40,-71.0211,41.8756,M,M,M,210.00,8.00,M,30.03,M,10.00,M,FEW,M,M,M,12000.00,M,M,M,M,KTAN 031440Z AUTO 21008KT 10SM FEW120 A3003 RMK MADISHF
PVC,2017-11-03 14:40,-70.2200,42.0700,M,M,M,190.00,9.00,M,30.05,M,0.25,M,M,M,M,M,M,M,M,M,-RA FG,KPVC 031440Z AUTO 19009KT 1/4SM -RA FG A3005 RMK MADISHF
ORE,2017-11-03 14:40,-72.2886,42.5701,M,M,M,M,M,M,29.99,M,10.00,M,SCT,BKN,M,M,1900.00,8500.00,M,M,M,KORE 031440Z AUTO /////KT 10SM SCT019 BKN085 A2999 RMK MADISHF
EWB,2017-11-03 14:40,-70.9583,41.6764,M,M,M,190.00,10.00,M,30.04,M,10.00,M,CLR,M,M,M,M,M,M,M,M,KEWB 031440Z AUTO 19010KT 10SM CLR A3004 RMK MADISHF
ORH,2017-11-03 14:40,-71.8757,42.2673,M,M,M,M,M,M,30.03,M,10.00,M,CLR,M,M,M,M,M,M,M,M,KORH 031440Z AUTO /////KT 10SM CLR A3003 RMK MADISHF
BOS,2017-11-03 14:40,-71.0097,42.3606,M,M,M,M,M,M,30.00,M,10.00,M,CLR,M,M,M,M,M,M,M,M,KBOS 031440Z AUTO /////KT 10SM CLR A3000 RMK MADISHF
ORE,2017-11-03 14:41,-72.2886,42.5701,64.00,59.00,83.78,190.00,14.00,0.00,29.99,M,10.00,M,SCT,BKN,M,M,1900.00,8500.00,M,M,M,KORE 031441Z AUTO 19014KT 10SM SCT019 BKN085 18/15 A2999 RMK AO2 T01780150 TSNO
CQX,2017-11-03 14:42,-69.9933,41.6875,60.10,60.10,100.00,220.00,8.00,0.00,30.06,M,0.25,M,VV ,M,M,M,200.00,M,M,M,FG,KCQX 031442Z AUTO 22008KT 1/4SM FG VV002 16/16 A3006 RMK AO2 T01560156
TAN,2017-11-03 14:45,-71.0211,41.8756,M,M,M,210.00,9.00,M,30.03,M,10.00,M,CLR,M,M,M,M,M,M,M,M,KTAN 031445Z AUTO 21009KT 10SM CLR A3003 RMK WND 17V24  MADISHF
EWB,2017-11-03 14:45,-70.9583,41.6764,M,M,M,200.00,9.00,M,30.04,M,10.00,M,FEW,FEW,M,M,1200.00,12000.00,M,M,M,KEWB 031445Z AUTO 20009KT 10SM FEW012 FEW120 A3004 RMK MADISHF
ORH,2017-11-03 14:45,-71.8757,42.2673,M,M,M,M,M,M,30.02,M,10.00,M,FEW,M,M,M,1699.00,M,M,M,M,KORH 031445Z AUTO /////KT 10SM FEW016 A3002 RMK MADISHF
HYA,2017-11-03 14:45,-70.2800,41.6700,M,M,M,210.00,10.00,M,30.04,M,0.25,M,VV ,M,M,M,200.00,M,M,M,FG,KHYA 031445Z AUTO 21010KT 1/4SM FG VV002 A3004 RMK MADISHF
OWD,2017-11-03 14:45,-71.1733,42.1912,M,M,M,220.00,12.00,M,30.01,M,10.00,M,CLR,M,M,M,M,M,M,M,M,KOWD 031445Z AUTO 22012KT 10SM CLR A3001 RMK MADISHF
BOS,2017-11-03 14:45,-71.0097,42.3606,M,M,M,220.00,14.00,M,30.00,M,10.00,M,CLR,M,M,M,M,M,M,M,M,KBOS 031445Z AUTO 22014KT 10SM CLR A3000 RMK MADISHF
BED,2017-11-03 14:45,-71.2890,42.4699,M,M,M,200.00,11.00,M,29.98,M,10.00,M,SCT,SCT,M,M,900.00,11000.00,M,M,M,KBED 031445Z AUTO 20011KT 10SM SCT009 SCT110 A2998 RMK MADISHF
PVC,2017-11-03 14:45,-70.2200,42.0700,M,M,M,190.00,11.00,M,30.04,M,0.25,M,M,M,M,M,M,M,M,M,-RA FG,KPVC 031445Z AUTO 19011KT 1/4SM -RA FG A3004 RMK MADISHF
FIT,2017-11-03 14:45,-71.7558,42.5519,M,M,M,220.00,10.00,M,30.00,M,10.00,M,CLR,M,M,M,M,M,M,M,M,KFIT 031445Z AUTO 22010KT 10SM CLR A3000 RMK WND 19V25  MADISHF
CQX,2017-11-03 14:45,-69.9933,41.6875,M,M,M,220.00,7.00,M,30.06,M,0.24,M,VV ,M,M,M,200.00,M,M,M,FG,KCQX 031445Z AUTO 22007KT 1/4SM FG VV002 A3006 RMK MADISHF
ORE,2017-11-03 14:45,-72.2886,42.5701,M,M,M,190.00,12.00,M,29.99,M,10.00,M,FEW,SCT,M,M,1900.00,9000.00,M,M,M,KORE 031445Z AUTO 19012KT 10SM FEW019 SCT090 A2999 RMK MADISHF
PYM,2017-11-03 14:50,-70.7288,41.9090,M,M,M,200.00,7.00,M,30.04,M,10.00,M,SCT,M,M,M,12000.00,M,M,M,M,KPYM 031450Z AUTO 20007KT 10SM SCT120 A3004 RMK MADISHF
EWB,2017-11-03 14:50,-70.9583,41.6764,M,M,M,190.00,8.00,M,30.04,M,10.00,M,FEW,SCT,M,M,1200.00,12000.00,M,M,M,KEWB 031450Z AUTO 19008KT 10SM FEW012 SCT120 A3004 RMK MADISHF
PVC,2017-11-03 14:50,-70.2200,42.0700,M,M,M,190.00,11.00,M,30.04,M,0.25,M,M,M,M,M,M,M,M,M,-RA FG,KPVC 031450Z AUTO 19011KT 1/4SM -RA FG A3004 RMK MADISHF
FIT,2017-11-03 14:50,-71.7558,42.5519,M,M,M,210.00,10.00,M,30.00,M,10.00,16.00,CLR,M,M,M,M,M,M,M,M,KFIT 031450Z AUTO 21010G16KT 10SM CLR A3000 RMK MADISHF
HYA,2017-11-03 14:50,-70.2800,41.6700,M,M,M,190.00,10.00,M,30.04,M,0.24,M,VV ,M,M,M,200.00,M,M,M,FG,KHYA 031450Z AUTO 19010KT 1/4SM FG VV002 A3004 RMK MADISHF
OWD,2017-11-03 14:50,-71.1733,42.1912,M,M,M,230.00,10.00,M,30.00,M,10.00,M,CLR,M,M,M,M,M,M,M,M,KOWD 031450Z AUTO 23010KT 10SM CLR A3000 RMK MADISHF
BED,2017-11-03 14:50,-71.2890,42.4699,M,M,M,210.00,10.00,M,29.98,M,10.00,M,SCT,SCT,M,M,900.00,11000.00,M,M,M,KBED 031450Z AUTO 21010KT 10SM SCT009 SCT110 A2998 RMK MADISHF
BOS,2017-11-03 14:50,-71.0097,42.3606,M,M,M,220.00,14.00,M,30.00,M,10.00,M,FEW,M,M,M,12000.00,M,M,M,M,KBOS 031450Z AUTO 22014KT 10SM FEW120 A3000 RMK MADISHF
ORH,2017-11-03 14:50,-71.8757,42.2673,M,M,M,210.00,15.00,M,30.02,M,10.00,M,FEW,M,M,M,1699.00,M,M,M,M,KORH 031450Z AUTO 21015KT 10SM FEW016 A3002 RMK MADISHF
ORE,2017-11-03 14:50,-72.2886,42.5701,M,M,M,180.00,13.00,M,29.99,M,10.00,M,FEW,SCT,M,M,1900.00,9000.00,M,M,M,KORE 031450Z AUTO 18013KT 10SM FEW019 SCT090 A2999 RMK MADISHF
TAN,2017-11-03 14:50,-71.0211,41.8756,M,M,M,210.00,8.00,M,30.02,M,10.00,M,CLR,M,M,M,M,M,M,M,M,KTAN 031450Z AUTO 21008KT 10SM CLR A3002 RMK MADISHF
CQX,2017-11-03 14:52,-69.9933,41.6875,60.10,60.10,100.00,230.00,7.00,0.00,30.06,1018.10,0.25,M,VV ,M,M,M,200.00,M,M,M,FG,KCQX 031452Z AUTO 23007KT 1/4SM FG VV002 16/16 A3006 RMK AO2 SLP181 T01560156 58017
FIT,2017-11-03 14:52,-71.7558,42.5519,72.00,60.10,66.16,210.00,14.00,0.00,29.99,1015.60,10.00,19.00,CLR,M,M,M,M,M,M,M,M,KFIT 031452Z AUTO 21014G19KT 10SM CLR 22/16 A2999 RMK AO2 SLP156 T02220156 58016
PYM,2017-11-03 14:52,-70.7288,41.9090,66.00,59.00,78.14,200.00,8.00,0.00,30.04,1017.10,10.00,M,SCT,M,M,M,12000.00,M,M,M,M,KPYM 031452Z AUTO 20008KT 10SM SCT120 19/15 A3004 RMK AO2 SLP171 T01890150 58016
ORE,2017-11-03 14:52,-72.2886,42.5701,64.90,59.00,81.19,180.00,14.00,0.00,29.99,1015.40,10.00,M,FEW,FEW,M,M,1900.00,8500.00,M,M,M,KORE 031452Z AUTO 18014KT 10SM FEW019 FEW085 18/15 A2999 RMK AO2 SLP154 T01830150 58016 TSNO
TAN,2017-11-03 14:52,-71.0211,41.8756,70.00,57.90,65.45,M,5.00,0.00,30.02,1016.60,10.00,M,CLR,M,M,M,M,M,M,M,M,KTAN 031452Z AUTO VRB05KT 10SM CLR 21/14 A3002 RMK AO2 SLP166 T02110144 58018
EWB,2017-11-03 14:53,-70.9583,41.6764,66.00,60.10,81.27,190.00,8.00,0.00,30.04,1017.10,10.00,M,SCT,SCT,M,M,1200.00,12000.00,M,M,M,KEWB 031453Z 19008KT 10SM SCT012 SCT120 19/16 A3004 RMK AO2 SLP171 T01890156 58014
OWD,2017-11-03 14:53,-71.1733,42.1912,70.00,61.00,73.11,200.00,10.00,0.00,30.01,1016.00,10.00,M,CLR,M,M,M,M,M,M,M,M,KOWD 031453Z 20010KT 10SM CLR 21/16 A3001 RMK AO2 SLP160 T02110161 58016
ORH,2017-11-03 14:54,-71.8757,42.2673,64.90,55.90,72.61,210.00,13.00,0.00,30.02,1016.40,10.00,M,FEW,M,M,M,1700.00,M,M,M,M,KORH 031454Z 21013KT 10SM FEW017 18/13 A3002 RMK AO2 SLP164 T01830133 58012
BOS,2017-11-03 14:54,-71.0097,42.3606,68.00,59.00,72.92,220.00,17.00,0.00,30.00,1015.80,10.00,M,FEW,SCT,M,M,12000.00,25000.00,M,M,M,KBOS 031454Z 22017KT 10SM FEW120 SCT250 20/15 A3000 RMK AO2 SLP158 T02000150 58018
PVC,2017-11-03 14:55,-70.2200,42.0700,M,M,M,190.00,9.00,M,30.04,M,0.25,M,M,M,M,M,M,M,M,M,-RA FG,KPVC 031455Z AUTO 19009KT 1/4SM -RA FG A3004 RMK MADISHF
PYM,2017-11-03 14:55,-70.7288,41.9090,M,M,M,200.00,9.00,M,30.04,M,10.00,M,SCT,M,M,M,12000.00,M,M,M,M,KPYM 031455Z AUTO 20009KT 10SM SCT120 A3004 RMK MADISHF
CQX,2017-11-03 14:55,-69.9933,41.6875,M,M,M,210.00,7.00,M,30.06,M,0.25,M,VV ,M,M,M,200.00,M,M,M,FG,KCQX 031455Z AUTO 21007KT 1/4SM FG VV002 A3006 RMK MADISHF
ORH,2017-11-03 14:55,-71.8757,42.2673,M,M,M,M,M,M,30.02,M,10.00,M,FEW,M,M,M,1699.00,M,M,M,M,KORH 031455Z AUTO /////KT 10SM FEW016 A3002 RMK MADISHF
OWD,2017-11-03 14:55,-71.1733,42.1912,M,M,M,210.00,8.00,M,30.01,M,10.00,M,CLR,M,M,M,M,M,M,M,M,KOWD 031455Z AUTO 21008KT 10SM CLR A3001 RMK MADISHF
HYA,2017-11-03 14:55,-70.2800,41.6700,M,M,M,210.00,11.00,M,30.03,M,0.24,M,VV ,M,M,M,200.00,M,M,M,FG,KHYA 031455Z AUTO 21011KT 1/4SM FG VV002 A3003 RMK MADISHF
EWB,2017-11-03 14:55,-70.9583,41.6764,M,M,M,190.00,8.00,M,30.04,M,10.00,M,SCT,BKN,M,M,1200.00,12000.00,M,M,M,KEWB 031455Z AUTO 19008KT 10SM SCT012 BKN120 A3004 RMK MADISHF
BED,2017-11-03 14:55,-71.2890,42.4699,M,M,M,210.00,12.00,M,29.98,M,10.00,M,SCT,SCT,M,M,900.00,11000.00,M,M,M,KBED 031455Z AUTO 21012KT 10SM SCT009 SCT110 A2998 RMK MADISHF
TAN,2017-11-03 14:55,-71.0211,41.8756,M,M,M,210.00,8.00,M,30.02,M,10.00,M,CLR,M,M,M,M,M,M,M,M,KTAN 031455Z AUTO 21008KT 10SM CLR A3002 RMK MADISHF
BOS,2017-11-03 14:55,-71.0097,42.3606,M,M,M,M,M,M,30.00,M,10.00,M,CLR,M,M,M,M,M,M,M,M,KBOS 031455Z AUTO /////KT 10SM CLR A3000 RMK MADISHF
ORE,2017-11-03 14:55,-72.2886,42.5701,M,M,M,180.00,13.00,M,29.99,M,10.00,M,FEW,FEW,M,M,1900.00,8500.00,M,M,M,KORE 031455Z AUTO 18013KT 10SM FEW019 FEW085 A2999 RMK MADISHF
GHG,2017-11-03 14:55,-70.6721,42.0982,69.80,60.80,73.09,210.00,11.00,0.00,30.01,M,10.00,M,CLR,M,M,M,M,M,M,M,M,KGHG 031455Z AUTO 21011KT 10SM CLR 21/16 A3001 RMK AO2
FMH,2017-11-03 14:55,-70.5215,41.6585,60.80,60.80,100.00,200.00,9.00,0.00,30.06,M,10.00,M,BKN,M,M,M,700.00,M,M,M,M,KFMH 031455Z AUTO 20009KT 10SM BKN007 16/16 A3006 RMK AO2
HYA,2017-11-03 14:56,-70.2800,41.6700,61.00,61.00,100.00,210.00,10.00,0.00,30.03,1017.10,0.25,17.00,VV ,M,M,M,200.00,M,M,M,FG,KHYA 031456Z 21010G17KT 1/4SM FG VV002 16/16 A3003 RMK AO2 SLP171 T01610161 58018
BED,2017-11-03 14:56,-71.2890,42.4699,68.00,59.00,72.92,210.00,12.00,0.00,29.98,1016.30,10.00,18.00,SCT,SCT,M,M,900.00,11000.00,M,M,M,KBED 031456Z 21012G18KT 10SM SCT009 SCT110 20/15 A2998 RMK AO2 SLP163 T02000150 58020
PVC,2017-11-03 14:56,-70.2200,42.0700,59.00,59.00,100.00,190.00,10.00,0.00,30.04,1017.20,0.25,M,M,M,M,M,M,M,M,M,-RA FG,KPVC 031456Z AUTO 19010KT 1/4SM -RA FG 15/15 A3004 RMK AO2 SLP172 P0000 60000 T01500150 58018 $
MQE,2017-11-03 14:56,-71.1142,42.2121,66.90,57.00,70.49,230.00,13.00,0.00,30.01,1017.10,M,19.00,M,M,M,M,M,M,M,M,M,KMQE 031456Z AUTO 23013G19KT 19/14 A3001 RMK AO1 SLP171 T01940139 58015
BOS,2017-11-03 15:00,-71.0097,42.3606,M,M,M,M,M,M,30.00,M,10.00,M,CLR,M,M,M,M,M,M,M,M,KBOS 031500Z AUTO /////KT 10SM CLR A3000 RMK MADISHF
FIT,2017-11-03 15:00,-71.7558,42.5519,M,M,M,230.00,10.00,M,29.99,M,10.00,18.00,CLR,M,M,M,M,M,M,M,M,KFIT 031500Z AUTO 23010G18KT 10SM CLR A2999 RMK MADISHF
TAN,2017-11-03 15:00,-71.0211,41.8756,M,M,M,210.00,9.00,M,30.02,M,10.00,M,CLR,M,M,M,M,M,M,M,M,KTAN 031500Z AUTO 21009KT 10SM CLR A3002 RMK MADISHF
ORH,2017-11-03 15:00,-71.8757,42.2673,M,M,M,M,M,M,30.02,M,10.00,M,FEW,M,M,M,1699.00,M,M,M,M,KORH 031500Z AUTO /////KT 10SM FEW016 A3002 RMK MADISHF
BED,2017-11-03 15:00,-71.2890,42.4699,M,M,M,220.00,13.00,M,29.98,M,10.00,M,CLR,M,M,M,M,M,M,M,M,KBED 031500Z AUTO 22013KT 10SM CLR A2998 RMK MADISHF
PVC,2017-11-03 15:00,-70.2200,42.0700,M,M,M,190.00,10.00,M,30.04,M,0.50,M,M,M,M,M,M,M,M,M,-RA FG,KPVC 031500Z AUTO 19010KT 1/2SM -RA FG A3004 RMK MADISHF
CQX,2017-11-03 15:00,-69.9933,41.6875,M,M,M,220.00,5.00,M,30.06,M,0.25,M,VV ,M,M,M,200.00,M,M,M,FG,KCQX 031500Z AUTO 22005KT 1/4SM FG VV002 A3006 RMK VRB05KT  MADISHF
HYA,2017-11-03 15:00,-70.2800,41.6700,M,M,M,200.00,8.00,M,30.04,M,0.24,M,VV ,M,M,M,200.00,M,M,M,FG,KHYA 031500Z AUTO 20008KT 1/4SM FG VV002 A3004 RMK MADISHF
OWD,2017-11-03 15:00,-71.1733,42.1912,M,M,M,210.00,7.00,M,30.00,M,10.00,M,CLR,M,M,M,M,M,M,M,M,KOWD 031500Z AUTO 21007KT 10SM CLR A3000 RMK MADISHF
ORE,2017-11-03 15:00,-72.2886,42.5701,M,M,M,M,M,M,29.98,M,10.00,M,FEW,M,M,M,8500.00,M,M,M,M,KORE 031500Z AUTO /////KT 10SM FEW085 A2998 RMK MADISHF
EWB,2017-11-03 15:00,-70.9583,41.6764,M,M,M,190.00,12.00,M,30.04,M,10.00,M,SCT,BKN,M,M,1200.00,12000.00,M,M,M,KEWB 031500Z AUTO 19012KT 10SM SCT012 BKN120 A3004 RMK MADISHF
PVC,2017-11-03 15:04,-70.2200,42.0700,59.00,59.00,100.00,190.00,9.00,0.00,30.04,M,0.75,M,M,M,M,M,M,M,M,M,-RA BR,KPVC 031504Z AUTO 19009KT 3/4SM -RA BR 15/15 A3004 RMK AO2 P0000 $
CQX,2017-11-03 15:05,-69.9933,41.6875,M,M,M,220.00,7.00,M,30.06,M,0.50,M,VV ,M,M,M,200.00,M,M,M,FG,KCQX 031505Z AUTO 22007KT 1/2SM FG VV002 A3006 RMK MADISHF
TAN,2017-11-03 15:05,-71.0211,41.8756,M,M,M,230.00,8.00,M,30.02,M,10.00,M,CLR,M,M,M,M,M,M,M,M,KTAN 031505Z AUTO 23008KT 10SM CLR A3002 RMK MADISHF
BOS,2017-11-03 15:05,-71.0097,42.3606,M,M,M,220.00,14.00,M,29.99,M,10.00,M,CLR,M,M,M,M,M,M,M,M,KBOS 031505Z AUTO 22014KT 10SM CLR A2999 RMK MADISHF
PYM,2017-11-03 15:05,-70.7288,41.9090,M,M,M,200.00,8.00,M,30.03,M,10.00,M,SCT,M,M,M,12000.00,M,M,M,M,KPYM 031505Z AUTO 20008KT 10SM SCT120 A3003 RMK MADISHF
ORE,2017-11-03 15:05,-72.2886,42.5701,M,M,M,M,M,M,29.99,M,10.00,M,CLR,M,M,M,M,M,M,M,M,KORE 031505Z AUTO /////KT 10SM CLR A2999 RMK MADISHF
PVC,2017-11-03 15:05,-70.2200,42.0700,M,M,M,190.00,10.00,M,30.04,M,0.75,M,M,M,M,M,M,M,M,M,-RA BR,KPVC 031505Z AUTO 19010KT 1SM -RA BR A3004 RMK MADISHF
OWD,2017-11-03 15:05,-71.1733,42.1912,M,M,M,220.00,9.00,M,30.00,M,10.00,M,CLR,M,M,M,M,M,M,M,M,KOWD 031505Z AUTO 22009KT 10SM CLR A3000 RMK MADISHF
BED,2017-11-03 15:05,-71.2890,42.4699,M,M,M,220.00,12.00,M,29.98,M,10.00,M,CLR,M,M,M,M,M,M,M,M,KBED 031505Z AUTO 22012KT 10SM CLR A2998 RMK MADISHF
ORH,2017-11-03 15:05,-71.8757,42.2673,M,M,M,220.00,12.00,M,30.02,M,10.00,M,SCT,SCT,M,M,1900.00,2500.00,M,M,M,KORH 031505Z AUTO 22012KT 10SM SCT019 SCT025 A3002 RMK MADISHF
EWB,2017-11-03 15:05,-70.9583,41.6764,M,M,M,180.00,10.00,M,30.03,M,10.00,M,BKN,BKN,M,M,1200.00,12000.00,M,M,M,KEWB 031505Z AUTO 18010KT 10SM BKN012 BKN120 A3003 RMK MADISHF
FIT,2017-11-03 15:05,-71.7558,42.5519,M,M,M,220.00,9.00,M,29.99,M,10.00,M,CLR,M,M,M,M,M,M,M,M,KFIT 031505Z AUTO 22009KT 10SM CLR A2999 RMK MADISHF
HYA,2017-11-03 15:05,-70.2800,41.6700,M,M,M,210.00,14.00,M,30.03,M,0.24,M,VV ,M,M,M,200.00,M,M,M,FG,KHYA 031505Z AUTO 21014KT 1/4SM FG VV002 A3003 RMK MADISHF
EWB,2017-11-03 15:07,-70.9583,41.6764,64.90,60.10,84.44,190.00,9.00,0.00,30.03,M,10.00,M,BKN,BKN,M,M,1200.00,12000.00,M,M,M,KEWB 031507Z 19009KT 10SM BKN012 BKN120 18/16 A3003 RMK AO2 T01830156
CQX,2017-11-03 15:09,-69.9933,41.6875,60.10,60.10,100.00,220.00,9.00,0.00,30.05,M,0.50,M,VV ,M,M,M,200.00,M,M,M,FG,KCQX 031509Z AUTO 22009KT 1/2SM FG VV002 16/16 A3005 RMK AO2 T01560156
PVC,2017-11-03 15:09,-70.2200,42.0700,59.00,59.00,100.00,190.00,10.00,0.00,30.03,M,1.25,M,M,M,M,M,M,M,M,M,-RA BR,KPVC 031509Z AUTO 19010KT 1 1/4SM -RA BR 15/15 A3003 RMK AO2 P0000 $
PVC,2017-11-03 15:10,-70.2200,42.0700,M,M,M,190.00,11.00,M,30.03,M,1.50,M,M,M,M,M,M,M,M,M,-RA BR,KPVC 031510Z AUTO 19011KT 1 1/2SM -RA BR A3003 RMK MADISHF
PYM,2017-11-03 15:10,-70.7288,41.9090,M,M,M,180.00,7.00,M,30.02,M,10.00,M,SCT,M,M,M,12000.00,M,M,M,M,KPYM 031510Z AUTO 18007KT 10SM SCT120 A3002 RMK MADISHF
EWB,2017-11-03 15:10,-70.9583,41.6764,M,M,M,180.00,8.00,M,30.03,M,10.00,M,BKN,BKN,M,M,1200.00,12000.00,M,M,M,KEWB 031510Z AUTO 18008KT 10SM BKN012 BKN120 A3003 RMK MADISHF
BOS,2017-11-03 15:10,-71.0097,42.3606,M,M,M,220.00,14.00,M,29.99,M,10.00,M,CLR,M,M,M,M,M,M,M,M,KBOS 031510Z AUTO 22014KT 10SM CLR A2999 RMK MADISHF
OWD,2017-11-03 15:10,-71.1733,42.1912,M,M,M,220.00,9.00,M,30.00,M,10.00,M,CLR,M,M,M,M,M,M,M,M,KOWD 031510Z AUTO 22009KT 10SM CLR A3000 RMK MADISHF
HYA,2017-11-03 15:10,-70.2800,41.6700,M,M,M,200.00,11.00,M,30.03,M,0.24,M,VV ,M,M,M,200.00,M,M,M,FG,KHYA 031510Z AUTO 20011KT 1/4SM FG VV002 A3003 RMK MADISHF
CQX,2017-11-03 15:10,-69.9933,41.6875,M,M,M,220.00,8.00,M,30.05,M,0.50,M,VV ,M,M,M,200.00,M,M,M,FG,KCQX 031510Z AUTO 22008KT 1/2SM FG VV002 A3005 RMK MADISHF
BED,2017-11-03 15:10,-71.2890,42.4699,M,M,M,210.00,13.00,M,29.98,M,10.00,M,CLR,M,M,M,M,M,M,M,M,KBED 031510Z AUTO 21013KT 10SM CLR A2998 RMK MADISHF
FIT,2017-11-03 15:10,-71.7558,42.5519,M,M,M,M,M,M,29.99,M,10.00,M,CLR,M,M,M,M,M,M,M,M,KFIT 031510Z AUTO /////KT 10SM CLR A2999 RMK WND 19V25  MADISHF
ORH,2017-11-03 15:10,-71.8757,42.2673,M,M,M,M,M,M,30.02,M,10.00,M,SCT,SCT,M,M,1900.00,2500.00,M,M,M,KORH 031510Z AUTO /////KT 10SM SCT019 SCT025 A3002 RMK MADISHF
ORE,2017-11-03 15:10,-72.2886,42.5701,M,M,M,190.00,16.00,M,29.98,M,10.00,M,CLR,M,M,M,M,M,M,M,M,KORE 031510Z AUTO 19016KT 10SM CLR A2998 RMK MADISHF
PVC,2017-11-03 15:13,-70.2200,42.0700,60.80,59.00,93.79,190.00,11.00,0.00,30.03,M,3.00,M,M,M,M,M,M,M,M,M,-RA BR,KPVC 031513Z AUTO 19011KT 3SM -RA BR 16/15 A3003 RMK AO2 P0000 $
PVC,2017-11-03 15:15,-70.2200,42.0700,M,M,M,200.00,12.00,M,30.03,M,7.00,17.00,M,M,M,M,M,M,M,M,M,KPVC 031515Z AUTO 20012G17KT 7SM A3003 RMK MADISHF
ORE,2017-11-03 15:15,-72.2886,42.5701,M,M,M,190.00,12.00,M,29.99,M,10.00,M,CLR,M,M,M,M,M,M,M,M,KORE 031515Z AUTO 19012KT 10SM CLR A2999 RMK MADISHF
TAN,2017-11-03 15:15,-71.0211,41.8756,M,M,M,230.00,8.00,M,30.02,M,10.00,M,CLR,M,M,M,M,M,M,M,M,KTAN 031515Z AUTO 23008KT 10SM CLR A3002 RMK WND 20V26  MADISHF
BOS,2017-11-03 15:15,-71.0097,42.3606,M,M,M,220.00,12.00,M,29.99,M,10.00,M,CLR,M,M,M,M,M,M,M,M,KBOS 031515Z AUTO 22012KT 10SM CLR A2999 RMK MADISHF
BED,2017-11-03 15:15,-71.2890,42.4699,M,M,M,200.00,12.00,M,29.98,M,10.00,M,CLR,M,M,M,M,M,M,M,M,KBED 031515Z AUTO 20012KT 10SM CLR A2998 RMK MADISHF
HYA,2017-11-03 15:15,-70.2800,41.6700,M,M,M,210.00,12.00,M,30.03,M,0.24,M,VV ,M,M,M,200.00,M,M,M,FG,KHYA 031515Z AUTO 21012KT 1/4SM FG VV002 A3003 RMK MADISHF
CQX,2017-11-03 15:15,-69.9933,41.6875,M,M,M,220.00,8.00,M,30.05,M,0.50,M,VV ,M,M,M,200.00,M,M,M,FG,KCQX 031515Z AUTO 22008KT 1/2SM FG VV002 A3005 RMK MADISHF
EWB,2017-11-03 15:15,-70.9583,41.6764,M,M,M,180.00,9.00,M,30.03,M,10.00,M,BKN,BKN,M,M,1200.00,12000.00,M,M,M,KEWB 031515Z AUTO 18009KT 10SM BKN012 BKN120 A3003 RMK MADISHF
OWD,2017-11-03 15:15,-71.1733,42.1912,M,M,M,220.00,8.00,M,30.00,M,10.00,M,CLR,M,M,M,M,M,M,M,M,KOWD 031515Z AUTO 22008KT 10SM CLR A3000 RMK MADISHF
ORH,2017-11-03 15:15,-71.8757,42.2673,M,M,M,M,M,M,30.02,M,10.00,22.00,SCT,BKN,M,M,1999.00,2500.00,M,M,M,KORH 031515Z AUTO /////G22KT 10SM SCT019 BKN025 A3002 RMK MADISHF
PYM,2017-11-03 15:15,-70.7288,41.9090,M,M,M,190.00,7.00,M,30.02,M,10.00,M,FEW,M,M,M,12000.00,M,M,M,M,KPYM 031515Z AUTO 19007KT 10SM FEW120 A3002 RMK MADISHF
GHG,2017-11-03 15:15,-70.6721,42.0982,69.80,60.80,73.09,210.00,11.00,0.00,30.00,M,10.00,17.00,CLR,M,M,M,M,M,M,M,M,KGHG 031515Z AUTO 21011G17KT 10SM CLR 21/16 A3000 RMK AO2
FMH,2017-11-03 15:15,-70.5215,41.6585,60.80,60.80,100.00,200.00,8.00,0.00,30.05,M,10.00,M,FEW,SCT,M,M,700.00,1800.00,M,M,M,KFMH 031515Z AUTO 20008KT 10SM FEW007 SCT018 16/16 A3005 RMK AO2
ORH,2017-11-03 15:17,-71.8757,42.2673,66.00,55.90,69.88,210.00,16.00,0.00,30.02,M,10.00,22.00,SCT,BKN,M,M,2000.00,2500.00,M,M,M,KORH 031517Z 21016G22KT 10SM SCT020 BKN025 19/13 A3002 RMK AO2 T01890133
FIT,2017-11-03 15:20,-71.7558,42.5519,M,M,M,220.00,10.00,M,29.98,M,10.00,M,CLR,M,M,M,M,M,M,M,M,KFIT 031520Z AUTO 22010KT 10SM CLR A2998 RMK MADISHF
ORE,2017-11-03 15:20,-72.2886,42.5701,M,M,M,M,M,M,29.98,M,10.00,M,CLR,M,M,M,M,M,M,M,M,KORE 031520Z AUTO /////KT 10SM CLR A2998 RMK MADISHF
BED,2017-11-03 15:20,-71.2890,42.4699,M,M,M,220.00,11.00,M,29.98,M,10.00,M,CLR,M,M,M,M,M,M,M,M,KBED 031520Z AUTO 22011KT 10SM CLR A2998 RMK MADISHF
BOS,2017-11-03 15:20,-71.0097,42.3606,M,M,M,220.00,15.00,M,29.99,M,10.00,M,CLR,M,M,M,M,M,M,M,M,KBOS 031520Z AUTO 22015KT 10SM CLR A2999 RMK MADISHF
OWD,2017-11-03 15:20,-71.1733,42.1912,M,M,M,240.00,8.00,M,30.00,M,10.00,M,CLR,M,M,M,M,M,M,M,M,KOWD 031520Z AUTO 24008KT 10SM CLR A3000 RMK MADISHF
HYA,2017-11-03 15:20,-70.2800,41.6700,M,M,M,210.00,14.00,M,30.03,M,0.24,M,VV ,M,M,M,200.00,M,M,M,FG,KHYA 031520Z AUTO 21014KT 1/4SM FG VV002 A3003 RMK MADISHF
TAN,2017-11-03 15:20,-71.0211,41.8756,M,M,M,210.00,8.00,M,30.01,M,10.00,M,CLR,M,M,M,M,M,M,M,M,KTAN 031520Z AUTO 21008KT 10SM CLR A3001 RMK WND 18V25  MADISHF
EWB,2017-11-03 15:20,-70.9583,41.6764,M,M,M,170.00,10.00,M,30.03,M,10.00,M,BKN,M,M,M,1200.00,M,M,M,M,KEWB 031520Z AUTO 17010KT 10SM BKN012 A3003 RMK MADISHF
CQX,2017-11-03 15:20,-69.9933,41.6875,M,M,M,230.00,7.00,M,30.05,M,0.50,M,VV ,M,M,M,200.00,M,M,M,FG,KCQX 031520Z AUTO 23007KT 1/2SM FG VV002 A3005 RMK MADISHF
PVC,2017-11-03 15:20,-70.2200,42.0700,M,M,M,190.00,12.00,M,30.03,M,10.00,M,M,M,M,M,M,M,M,M,M,KPVC 031520Z AUTO 19012KT 10SM A3003 RMK MADISHF
ORH,2017-11-03 15:20,-71.8757,42.2673,M,M,M,M,M,M,30.02,M,10.00,M,BKN,M,M,M,2200.00,M,M,M,M,KORH 031520Z AUTO /////KT 10SM BKN022 A3002 RMK MADISHF
CQX,2017-11-03 15:25,-69.9933,41.6875,M,M,M,230.00,6.00,M,30.05,M,0.75,M,VV ,M,M,M,200.00,M,M,M,BR,KCQX 031525Z AUTO 23006KT 1SM BR VV002 A3005 RMK VRB06KT  MADISHF
ORE,2017-11-03 15:25,-72.2886,42.5701,M,M,M,180.00,9.00,M,29.98,M,10.00,M,FEW,M,M,M,2300.00,M,M,M,M,KORE 031525Z AUTO 18009KT 10SM FEW023 A2998 RMK MADISHF
PVC,2017-11-03 15:25,-70.2200,42.0700,M,M,M,200.00,12.00,M,30.02,M,10.00,M,M,M,M,M,M,M,M,M,M,KPVC 031525Z AUTO 20012KT 10SM A3002 RMK MADISHF
FIT,2017-11-03 15:25,-71.7558,42.5519,M,M,M,240.00,12.00,M,29.98,M,10.00,M,CLR,M,M,M,M,M,M,M,M,KFIT 031525Z AUTO 24012KT 10SM CLR A2998 RMK WND 20V27  MADISHF
OWD,2017-11-03 15:25,-71.1733,42.1912,M,M,M,210.00,9.00,M,30.00,M,10.00,M,CLR,M,M,M,M,M,M,M,M,KOWD 031525Z AUTO 21009KT 10SM CLR A3000 RMK MADISHF
HYA,2017-11-03 15:25,-70.2800,41.6700,M,M,M,220.00,13.00,M,30.03,M,0.25,M,VV ,M,M,M,200.00,M,M,M,FG,KHYA 031525Z AUTO 22013KT 1/4SM FG VV002 A3003 RMK MADISHF
BED,2017-11-03 15:25,-71.2890,42.4699,M,M,M,220.00,10.00,M,29.98,M,10.00,M,CLR,M,M,M,M,M,M,M,M,KBED 031525Z AUTO 22010KT 10SM CLR A2998 RMK MADISHF
TAN,2017-11-03 15:25,-71.0211,41.8756,M,M,M,200.00,8.00,M,30.02,M,10.00,M,CLR,M,M,M,M,M,M,M,M,KTAN 031525Z AUTO 20008KT 10SM CLR A3002 RMK WND 17V27  MADISHF
PYM,2017-11-03 15:25,-70.7288,41.9090,M,M,M,200.00,9.00,M,30.02,M,10.00,M,FEW,M,M,M,12000.00,M,M,M,M,KPYM 031525Z AUTO 20009KT 10SM FEW120 A3002 RMK MADISHF
EWB,2017-11-03 15:25,-70.9583,41.6764,M,M,M,190.00,10.00,M,30.02,M,10.00,M,BKN,M,M,M,1200.00,M,M,M,M,KEWB 031525Z AUTO 19010KT 10SM BKN012 A3002 RMK MADISHF
ORH,2017-11-03 15:25,-71.8757,42.2673,M,M,M,M,M,M,30.01,M,10.00,M,BKN,BKN,M,M,2200.00,2800.00,M,M,M,KORH 031525Z AUTO /////KT 10SM BKN022 BKN028 A3001 RMK MADISHF
BOS,2017-11-03 15:25,-71.0097,42.3606,M,M,M,220.00,13.00,M,29.99,M,10.00,M,CLR,M,M,M,M,M,M,M,M,KBOS 031525Z AUTO 22013KT 10SM CLR A2999 RMK MADISHF
ORE,2017-11-03 15:30,-72.2886,42.5701,M,M,M,180.00,11.00,M,29.98,M,10.00,16.00,FEW,M,M,M,10000.00,M,M,M,M,KORE 031530Z AUTO 18011G16KT 10SM FEW100 A2998 RMK MADISHF
TAN,2017-11-03 15:30,-71.0211,41.8756,M,M,M,250.00,9.00,M,30.01,M,10.00,M,CLR,M,M,M,M,M,M,M,M,KTAN 031530Z AUTO 25009KT 10SM CLR A3001 RMK MADISHF
PYM,2017-11-03 15:30,-70.7288,41.9090,M,M,M,190.00,8.00,M,30.02,M,10.00,M,CLR,M,M,M,M,M,M,M,M,KPYM 031530Z AUTO 19008KT 10SM CLR A3002 RMK MADISHF
ORH,2017-11-03 15:30,-71.8757,42.2673,M,M,M,M,M,M,30.01,M,10.00,M,BKN,M,M,M,2200.00,M,M,M,M,KORH 031530Z AUTO /////KT 10SM BKN022 A3001 RMK MADISHF
HYA,2017-11-03 15:30,-70.2800,41.6700,M,M,M,220.00,11.00,M,30.03,M,0.50,M,VV ,M,M,M,200.00,M,M,M,FG,KHYA 031530Z AUTO 22011KT 1/2SM FG VV002 A3003 RMK MADISHF
CQX,2017-11-03 15:30,-69.9933,41.6875,M,M,M,230.00,7.00,M,30.05,M,0.75,M,VV ,M,M,M,200.00,M,M,M,BR,KCQX 031530Z AUTO 23007KT 1SM BR VV002 A3005 RMK MADISHF
EWB,2017-11-03 15:30,-70.9583,41.6764,M,M,M,190.00,11.00,M,30.03,M,10.00,M,BKN,M,M,M,1200.00,M,M,M,M,KEWB 031530Z AUTO 19011KT 10SM BKN012 A3003 RMK MADISHF
OWD,2017-11-03 15:30,-71.1733,42.1912,M,M,M,200.00,11.00,M,29.99,M,10.00,M,CLR,M,M,M,M,M,M,M,M,KOWD 031530Z AUTO 20011KT 10SM CLR A2999 RMK MADISHF
PVC,2017-11-03 15:30,-70.2200,42.0700,M,M,M,190.00,11.00,M,30.02,M,10.00,M,M,M,M,M,M,M,M,M,M,KPVC 031530Z AUTO 19011KT 10SM A3002 RMK MADISHF
FIT,2017-11-03 15:30,-71.7558,42.5519,M,M,M,220.00,12.00,M,29.98,M,10.00,M,CLR,M,M,M,M,M,M,M,M,KFIT 031530Z AUTO 22012KT 10SM CLR A2998 RMK MADISHF
BOS,2017-11-03 15:30,-71.0097,42.3606,M,M,M,220.00,12.00,M,29.98,M,10.00,M,CLR,M,M,M,M,M,M,M,M,KBOS 031530Z AUTO 22012KT 10SM CLR A2998 RMK MADISHF
BED,2017-11-03 15:30,-71.2890,42.4699,M,M,M,210.00,8.00,M,29.98,M,10.00,M,CLR,M,M,M,M,M,M,M,M,KBED 031530Z AUTO 21008KT 10SM CLR A2998 RMK MADISHF
PYM,2017-11-03 15:35,-70.7288,41.9090,M,M,M,190.00,9.00,M,30.02,M,10.00,M,CLR,M,M,M,M,M,M,M,M,KPYM 031535Z AUTO 19009KT 10SM CLR A3002 RMK MADISHF
CQX,2017-11-03 15:35,-69.9933,41.6875,M,M,M,220.00,5.00,M,30.05,M,0.50,M,VV ,M,M,M,200.00,M,M,M,FG,KCQX 031535Z AUTO 22005KT 1/2SM FG VV002 A3005 RMK VRB05KT  MADISHF
ORE,2017-11-03 15:35,-72.2886,42.5701,M,M,M,170.00,11.00,M,29.98,M,10.00,M,FEW,FEW,M,M,2400.00,10000.00,M,M,M,KORE 031535Z AUTO 17011KT 10SM FEW024 FEW100 A2998 RMK MADISHF
EWB,2017-11-03 15:35,-70.9583,41.6764,M,M,M,190.00,10.00,M,30.02,M,10.00,M,BKN,M,M,M,1200.00,M,M,M,M,KEWB 031535Z AUTO 19010KT 10SM BKN012 A3002 RMK MADISHF
ORH,2017-11-03 15:35,-71.8757,42.2673,M,M,M,M,M,M,30.01,M,10.00,23.00,BKN,M,M,M,2200.00,M,M,M,M,KORH 031535Z AUTO /////G23KT 10SM BKN022 A3001 RMK MADISHF
PVC,2017-11-03 15:35,-70.2200,42.0700,M,M,M,200.00,12.00,M,30.02,M,10.00,M,M,M,M,M,M,M,M,M,M,KPVC 031535Z AUTO 20012KT 10SM A3002 RMK MADISHF
BOS,2017-11-03 15:35,-71.0097,42.3606,M,M,M,230.00,13.00,M,29.98,M,10.00,M,CLR,M,M,M,M,M,M,M,M,KBOS 031535Z AUTO 23013KT 10SM CLR A2998 RMK MADISHF
TAN,2017-11-03 15:35,-71.0211,41.8756,M,M,M,250.00,9.00,M,30.02,M,10.00,M,FEW,M,M,M,2500.00,M,M,M,M,KTAN 031535Z AUTO 25009KT 10SM FEW025 A3002 RMK MADISHF
OWD,2017-11-03 15:35,-71.1733,42.1912,M,M,M,220.00,9.00,M,29.99,M,10.00,M,CLR,M,M,M,M,M,M,M,M,KOWD 031535Z AUTO 22009KT 10SM CLR A2999 RMK MADISHF
HYA,2017-11-03 15:35,-70.2800,41.6700,M,M,M,220.00,13.00,M,30.02,M,0.50,M,VV ,M,M,M,200.00,M,M,M,FG,KHYA 031535Z AUTO 22013KT 1/2SM FG VV002 A3002 RMK MADISHF
BED,2017-11-03 15:35,-71.2890,42.4699,M,M,M,210.00,10.00,M,29.97,M,10.00,M,CLR,M,M,M,M,M,M,M,M,KBED 031535Z AUTO 21010KT 10SM CLR A2997 RMK MADISHF
GHG,2017-11-03 15:35,-70.6721,42.0982,71.60,60.80,68.75,230.00,9.00,0.00,29.99,M,10.00,M,CLR,M,M,M,M,M,M,M,M,KGHG 031535Z AUTO 23009KT 10SM CLR 22/16 A2999 RMK AO2
FMH,2017-11-03 15:35,-70.5215,41.6585,66.20,59.00,77.60,190.00,9.00,0.00,30.04,M,10.00,M,FEW,M,M,M,1800.00,M,M,M,M,KFMH 031535Z AUTO 19009KT 10SM FEW018 19/15 A3004 RMK AO2
HYA,2017-11-03 15:36,-70.2800,41.6700,61.00,61.00,100.00,210.00,13.00,0.00,30.02,M,0.75,M,VV ,M,M,M,200.00,M,M,M,BR,KHYA 031536Z 21013KT 3/4SM BR VV002 16/16 A3002 RMK AO2 T01610161
PYM,2017-11-03 15:40,-70.7288,41.9090,M,M,M,190.00,9.00,M,30.02,M,10.00,15.00,FEW,M,M,M,1100.00,M,M,M,M,KPYM 031540Z AUTO 19009G15KT 10SM FEW011 A3002 RMK MADISHF
CQX,2017-11-03 15:40,-69.9933,41.6875,M,M,M,220.00,6.00,M,30.05,M,0.50,M,VV ,M,M,M,200.00,M,M,M,FG,KCQX 031540Z AUTO 22006KT 1/2SM FG VV002 A3005 RMK MADISHF
ORE,2017-11-03 15:40,-72.2886,42.5701,M,M,M,170.00,10.00,M,29.98,M,10.00,M,FEW,SCT,M,M,2400.00,10000.00,M,M,M,KORE 031540Z AUTO 17010KT 10SM FEW024 SCT100 A2998 RMK MADISHF
BED,2017-11-03 15:40,-71.2890,42.4699,M,M,M,210.00,13.00,M,29.97,M,10.00,M,CLR,M,M,M,M,M,M,M,M,KBED 031540Z AUTO 21013KT 10SM CLR A2997 RMK MADISHF
ORH,2017-11-03 15:40,-71.8757,42.2673,M,M,M,M,M,M,30.00,M,10.00,20.00,SCT,BKN,M,M,2200.00,2900.00,M,M,M,KORH 031540Z AUTO /////G20KT 10SM SCT022 BKN029 A3000 RMK MADISHF
BOS,2017-11-03 15:40,-71.0097,42.3606,M,M,M,220.00,16.00,M,29.98,M,10.00,M,CLR,M,M,M,M,M,M,M,M,KBOS 031540Z AUTO 22016KT 10SM CLR A2998 RMK MADISHF
FIT,2017-11-03 15:40,-71.7558,42.5519,M,M,M,220.00,11.00,M,29.98,M,10.00,M,CLR,M,M,M,M,M,M,M,M,KFIT 031540Z AUTO 22011KT 10SM CLR A2998 RMK WND 18V24  MADISHF
PVC,2017-11-03 15:40,-70.2200,42.0700,M,M,M,200.00,12.00,M,30.02,M,10.00,M,M,M,M,M,M,M,M,M,M,KPVC 031540Z AUTO 20012KT 10SM A3002 RMK MADISHF
TAN,2017-11-03 15:40,-71.0211,41.8756,M,M,M,230.00,11.00,M,30.01,M,10.00,M,FEW,M,M,M,2500.00,M,M,M,M,KTAN 031540Z AUTO 23011KT 10SM FEW025 A3001 RMK MADISHF
HYA,2017-11-03 15:40,-70.2800,41.6700,M,M,M,220.00,13.00,M,30.02,M,0.50,M,OVC,M,M,M,200.00,M,M,M,FG,KHYA 031540Z AUTO 22013KT 1/2SM FG OVC002 A3002 RMK MADISHF
OWD,2017-11-03 15:40,-71.1733,42.1912,M,M,M,210.00,9.00,M,29.99,M,10.00,M,CLR,M,M,M,M,M,M,M,M,KOWD 031540Z AUTO 21009KT 10SM CLR A2999 RMK MADISHF
EWB,2017-11-03 15:40,-70.9583,41.6764,M,M,M,200.00,11.00,M,30.02,M,10.00,M,BKN,BKN,M,M,999.00,1300.00,M,M,M,KEWB 031540Z AUTO 20011KT 10SM BKN009 BKN013 A3002 RMK CIG 8V12  MADISHF
ORE,2017-11-03 15:45,-72.2886,42.5701,M,M,M,180.00,12.00,M,29.97,M,10.00,M,FEW,SCT,M,M,2400.00,10000.00,M,M,M,KORE 031545Z AUTO 18012KT 10SM FEW024 SCT100 A2997 RMK MADISHF
OWD,2017-11-03 15:45,-71.1733,42.1912,M,M,M,220.00,11.00,M,29.99,M,10.00,M,CLR,M,M,M,M,M,M,M,M,KOWD 031545Z AUTO 22011KT 10SM CLR A2999 RMK MADISHF
HYA,2017-11-03 15:45,-70.2800,41.6700,M,M,M,210.00,12.00,M,30.02,M,0.50,M,OVC,M,M,M,200.00,M,M,M,FG,KHYA 031545Z AUTO 21012KT 1/2SM FG OVC002 A3002 RMK MADISHF
BOS,2017-11-03 15:45,-71.0097,42.3606,M,M,M,220.00,16.00,M,29.98,M,10.00,M,CLR,M,M,M,M,M,M,M,M,KBOS 031545Z AUTO 22016KT 10SM CLR A2998 RMK MADISHF
ORH,2017-11-03 15:45,-71.8757,42.2673,M,M,M,M,M,M,30.00,M,10.00,M,SCT,SCT,M,M,2200.00,2900.00,M,M,M,KORH 031545Z AUTO /////KT 10SM SCT022 SCT029 A3000 RMK MADISHF
CQX,2017-11-03 15:45,-69.9933,41.6875,M,M,M,230.00,7.00,M,30.04,M,0.50,M,VV ,M,M,M,200.00,M,M,M,FG,KCQX 031545Z AUTO 23007KT 1/2SM FG VV002 A3004 RMK MADISHF
TAN,2017-11-03 15:45,-71.0211,41.8756,M,M,M,220.00,10.00,M,30.01,M,10.00,M,CLR,M,M,M,M,M,M,M,M,KTAN 031545Z AUTO 22010KT 10SM CLR A3001 RMK MADISHF
PVC,2017-11-03 15:45,-70.2200,42.0700,M,M,M,190.00,11.00,M,30.02,M,10.00,M,M,M,M,M,M,M,M,M,M,KPVC 031545Z AUTO 19011KT 10SM A3002 RMK MADISHF
FIT,2017-11-03 15:45,-71.7558,42.5519,M,M,M,M,M,M,29.97,M,10.00,18.00,CLR,M,M,M,M,M,M,M,M,KFIT 031545Z AUTO /////G18KT 10SM CLR A2997 RMK MADISHF
PYM,2017-11-03 15:45,-70.7288,41.9090,M,M,M,190.00,8.00,M,30.01,M,10.00,M,FEW,M,M,M,900.00,M,M,M,M,KPYM 031545Z AUTO 19008KT 10SM FEW009 A3001 RMK WND 16V22  MADISHF
EWB,2017-11-03 15:45,-70.9583,41.6764,M,M,M,200.00,10.00,M,30.02,M,10.00,M,BKN,OVC,M,M,999.00,1300.00,M,M,M,KEWB 031545Z AUTO 20010KT 10SM BKN009 OVC013 A3002 RMK CIG 8V11  MADISHF
BED,2017-11-03 15:45,-71.2890,42.4699,M,M,M,240.00,12.00,M,29.97,M,10.00,19.00,CLR,M,M,M,M,M,M,M,M,KBED 031545Z AUTO 24012G19KT 10SM CLR A2997 RMK MADISHF
ORH,2017-11-03 15:49,-71.8757,42.2673,66.20,55.40,68.15,230.00,11.00,0.00,30.00,M,10.00,22.00,FEW,SCT,M,M,2200.00,2900.00,M,M,M,KORH 031549Z 23011G22KT 10SM FEW022 SCT029 19/13 A3000 RMK AO2
PYM,2017-11-03 15:49,-70.7288,41.9090,66.20,60.80,82.74,190.00,11.00,0.00,30.01,M,10.00,17.00,FEW,M,M,M,900.00,M,M,M,M,KPYM 031549Z AUTO 19011G17KT 10SM FEW009 19/16 A3001 RMK AO2
PVC,2017-11-03 15:50,-70.2200,42.0700,M,M,M,190.00,10.00,M,30.01,M,10.00,M,M,M,M,M,M,M,M,M,M,KPVC 031550Z AUTO 19010KT 10SM A3001 RMK MADISHF
PYM,2017-11-03 15:50,-70.7288,41.9090,M,M,M,190.00,11.00,M,30.01,M,10.00,M,FEW,M,M,M,900.00,M,M,M,M,KPYM 031550Z AUTO 19011KT 10SM FEW009 A3001 RMK MADISHF
BOS,2017-11-03 15:50,-71.0097,42.3606,M,M,M,220.00,16.00,M,29.97,M,10.00,M,FEW,FEW,M,M,5000.00,12000.00,M,M,M,KBOS 031550Z AUTO 22016KT 10SM FEW050 FEW120 A2997 RMK MADISHF
EWB,2017-11-03 15:50,-70.9583,41.6764,M,M,M,210.00,9.00,M,30.02,M,10.00,M,BKN,OVC,M,M,900.00,1300.00,M,M,M,KEWB 031550Z AUTO 21009KT 10SM BKN009 OVC013 A3002 RMK CIG 8V11  MADISHF
HYA,2017-11-03 15:50,-70.2800,41.6700,M,M,M,220.00,12.00,M,30.02,M,0.50,M,OVC,M,M,M,200.00,M,M,M,FG,KHYA 031550Z AUTO 22012KT 1/2SM FG OVC002 A3002 RMK MADISHF
BED,2017-11-03 15:50,-71.2890,42.4699,M,M,M,230.00,13.00,M,29.96,M,10.00,M,FEW,M,M,M,3200.00,M,M,M,M,KBED 031550Z AUTO 23013KT 10SM FEW032 A2996 RMK MADISHF
FIT,2017-11-03 15:50,-71.7558,42.5519,M,M,M,210.00,13.00,M,29.97,M,10.00,M,CLR,M,M,M,M,M,M,M,M,KFIT 031550Z AUTO 21013KT 10SM CLR A2997 RMK MADISHF
ORH,2017-11-03 15:50,-71.8757,42.2673,M,M,M,220.00,12.00,M,30.00,M,10.00,M,FEW,SCT,M,M,2200.00,2900.00,M,M,M,KORH 031550Z AUTO 22012KT 10SM FEW022 SCT029 A3000 RMK MADISHF
CQX,2017-11-03 15:50,-69.9933,41.6875,M,M,M,230.00,9.00,M,30.04,M,0.50,M,VV ,M,M,M,200.00,M,M,M,FG,KCQX 031550Z AUTO 23009KT 1/2SM FG VV002 A3004 RMK MADISHF
OWD,2017-11-03 15:50,-71.1733,42.1912,M,M,M,200.00,10.00,M,29.98,M,10.00,M,CLR,M,M,M,M,M,M,M,M,KOWD 031550Z AUTO 20010KT 10SM CLR A2998 RMK MADISHF
PYM,2017-11-03 15:52,-70.7288,41.9090,66.00,60.10,81.27,200.00,10.00,0.00,30.01,1016.20,10.00,17.00,FEW,M,M,M,900.00,M,M,M,M,KPYM 031552Z AUTO 20010G17KT 10SM FEW009 19/16 A3001 RMK AO2 SLP162 T01890156
CQX,2017-11-03 15:52,-69.9933,41.6875,60.10,60.10,100.00,230.00,5.00,0.00,30.04,1017.30,0.25,16.00,VV ,M,M,M,200.00,M,M,M,FG,KCQX 031552Z AUTO 23005G16KT 1/4SM FG VV002 16/16 A3004 RMK AO2 SLP173 T01560156
TAN,2017-11-03 15:52,-71.0211,41.8756,71.10,59.00,65.58,M,6.00,0.00,30.01,1016.10,10.00,M,CLR,M,M,M,M,M,M,M,M,KTAN 031552Z AUTO VRB06KT 10SM CLR 22/15 A3001 RMK AO2 SLP161 T02170150
ORE,2017-11-03 15:52,-72.2886,42.5701,66.00,59.00,78.14,170.00,10.00,0.00,29.97,1014.80,10.00,M,FEW,SCT,M,M,2400.00,10000.00,M,M,M,KORE 031552Z AUTO 17010KT 10SM FEW024 SCT100 19/15 A2997 RMK AO2 SLP148 T01890150 TSNO
FIT,2017-11-03 15:52,-71.7558,42.5519,73.90,59.00,59.66,210.00,15.00,0.00,29.96,1014.70,10.00,M,CLR,M,M,M,M,M,M,M,M,KFIT 031552Z AUTO 21015KT 10SM CLR 23/15 A2996 RMK AO2 SLP147 T02330150
EWB,2017-11-03 15:53,-70.9583,41.6764,64.00,59.00,83.78,210.00,10.00,0.00,30.02,1016.40,10.00,M,BKN,OVC,M,M,900.00,1300.00,M,M,M,KEWB 031553Z 21010KT 10SM BKN009 OVC013 18/15 A3002 RMK AO2 CIG 008V011 SLP164 T01780150
OWD,2017-11-03 15:53,-71.1733,42.1912,72.00,60.10,66.16,210.00,13.00,0.00,29.98,1015.10,10.00,M,CLR,M,M,M,M,M,M,M,M,KOWD 031553Z 21013KT 10SM CLR 22/16 A2998 RMK AO2 SLP151 T02220156
BOS,2017-11-03 15:54,-71.0097,42.3606,71.10,59.00,65.58,220.00,16.00,0.00,29.97,1014.90,10.00,M,FEW,FEW,BKN,M,5000.00,12000.00,25000.00,M,M,KBOS 031554Z 22016KT 10SM FEW050 FEW120 BKN250 22/15 A2997 RMK AO2 SLP149 T02170150
ORH,2017-11-03 15:54,-71.8757,42.2673,66.00,55.90,69.88,210.00,15.00,0.00,30.00,1015.60,10.00,21.00,FEW,SCT,M,M,2200.00,2900.00,M,M,M,KORH 031554Z 21015G21KT 10SM FEW022 SCT029 19/13 A3000 RMK AO2 SLP156 T01890133
HYA,2017-11-03 15:54,-70.2800,41.6700,60.80,60.80,100.00,200.00,13.00,0.00,30.01,M,3.00,M,OVC,M,M,M,200.00,M,M,M,BR,KHYA 031554Z 20013KT 3SM BR OVC002 16/16 A3001 RMK AO2
PYM,2017-11-03 15:55,-70.7288,41.9090,M,M,M,200.00,11.00,M,30.01,M,10.00,16.00,FEW,M,M,M,900.00,M,M,M,M,KPYM 031555Z AUTO 20011G16KT 10SM FEW009 A3001 RMK MADISHF
TAN,2017-11-03 15:55,-71.0211,41.8756,M,M,M,230.00,8.00,M,30.01,M,10.00,M,CLR,M,M,M,M,M,M,M,M,KTAN 031555Z AUTO 23008KT 10SM CLR A3001 RMK WND 18V26  MADISHF
ORE,2017-11-03 15:55,-72.2886,42.5701,M,M,M,180.00,11.00,M,29.97,M,10.00,M,FEW,SCT,M,M,2400.00,10000.00,M,M,M,KORE 031555Z AUTO 18011KT 10SM FEW024 SCT100 A2997 RMK MADISHF
CQX,2017-11-03 15:55,-69.9933,41.6875,M,M,M,220.00,4.00,M,30.04,M,0.25,M,VV ,M,M,M,200.00,M,M,M,FG,KCQX 031555Z AUTO 22004KT 1/4SM FG VV002 A3004 RMK VRB04G16KT  MADISHF
BED,2017-11-03 15:55,-71.2890,42.4699,M,M,M,210.00,13.00,M,29.96,M,10.00,20.00,FEW,M,M,M,3200.00,M,M,M,M,KBED 031555Z AUTO 21013G20KT 10SM FEW032 A2996 RMK MADISHF
ORH,2017-11-03 15:55,-71.8757,42.2673,M,M,M,M,M,M,30.00,M,10.00,M,FEW,SCT,M,M,2200.00,2900.00,M,M,M,KORH 031555Z AUTO /////KT 10SM FEW022 SCT029 A3000 RMK MADISHF
EWB,2017-11-03 15:55,-70.9583,41.6764,M,M,M,200.00,11.00,M,30.02,M,10.00,M,OVC,M,M,M,900.00,M,M,M,M,KEWB 031555Z AUTO 20011KT 10SM OVC009 A3002 RMK MADISHF
BOS,2017-11-03 15:55,-71.0097,42.3606,M,M,M,220.00,16.00,M,29.97,M,10.00,M,CLR,M,M,M,M,M,M,M,M,KBOS 031555Z AUTO 22016KT 10SM CLR A2997 RMK MADISHF
OWD,2017-11-03 15:55,-71.1733,42.1912,M,M,M,210.00,12.00,M,29.98,M,10.00,M,CLR,M,M,M,M,M,M,M,M,KOWD 031555Z AUTO 21012KT 10SM CLR A2998 RMK MADISHF
HYA,2017-11-03 15:55,-70.2800,41.6700,M,M,M,200.00,12.00,M,30.01,M,3.00,M,OVC,M,M,M,200.00,M,M,M,BR,KHYA 031555Z AUTO 20012KT 3SM BR OVC002 A3001 RMK MADISHF
PVC,2017-11-03 15:55,-70.2200,42.0700,M,M,M,190.00,10.00,M,30.01,M,10.00,M,M,M,M,M,M,M,M,M,M,KPVC 031555Z AUTO 19010KT 10SM A3001 RMK MADISHF
FMH,2017-11-03 15:55,-70.5215,41.6585,66.20,59.00,77.60,200.00,10.00,0.00,30.03,M,10.00,16.00,SCT,M,M,M,1800.00,M,M,M,M,KFMH 031555Z AUTO 20010G16KT 10SM SCT018 19/15 A3003 RMK AO2
GHG,2017-11-03 15:55,-70.6721,42.0982,71.60,60.80,68.75,240.00,8.00,0.00,29.98,M,10.00,20.00,CLR,M,M,M,M,M,M,M,M,KGHG 031555Z AUTO 24008G20KT 220V290 10SM CLR 22/16 A2998 RMK AO2
HYA,2017-11-03 15:56,-70.2800,41.6700,61.00,61.00,100.00,200.00,11.00,0.00,30.01,1016.30,3.00,M,OVC,M,M,M,200.00,M,M,M,BR,KHYA 031556Z 20011KT 3SM BR OVC002 16/16 A3001 RMK AO2 SLP163 T01610161
BED,2017-11-03 15:56,-71.2890,42.4699,71.10,59.00,65.58,210.00,16.00,0.00,29.96,1015.60,10.00,20.00,FEW,M,M,M,3200.00,M,M,M,M,KBED 031556Z 21016G20KT 10SM FEW032 22/15 A2996 RMK AO2 SLP156 T02170150
MQE,2017-11-03 15:56,-71.1142,42.2121,69.10,57.00,65.35,200.00,13.00,0.00,29.98,1016.20,M,18.00,M,M,M,M,M,M,M,M,M,KMQE 031556Z AUTO 20013G18KT 21/14 A2998 RMK AO1 SLP162 T02060139
PVC,2017-11-03 15:56,-70.2200,42.0700,62.10,59.00,89.57,190.00,10.00,0.00,30.00,1016.00,10.00,M,M,M,M,M,M,M,M,M,M,KPVC 031556Z AUTO 19010KT 10SM 17/15 A3000 RMK AO2 RAE14 SLP160 P0000 T01670150 $
FIT,2017-11-03 16:00,-71.7558,42.5519,M,M,M,210.00,11.00,M,29.96,M,10.00,M,CLR,M,M,M,M,M,M,M,M,KFIT 031600Z AUTO 21011KT 10SM CLR A2996 RMK MADISHF
ORE,2017-11-03 16:00,-72.2886,42.5701,M,M,M,180.00,10.00,M,29.96,M,10.00,M,FEW,FEW,M,M,2300.00,10000.00,M,M,M,KORE 031600Z AUTO 18010KT 10SM FEW023 FEW100 A2996 RMK MADISHF
TAN,2017-11-03 16:00,-71.0211,41.8756,M,M,M,210.00,8.00,M,30.01,M,10.00,M,CLR,M,M,M,M,M,M,M,M,KTAN 031600Z AUTO 21008KT 10SM CLR A3001 RMK MADISHF
BOS,2017-11-03 16:00,-71.0097,42.3606,M,M,M,230.00,12.00,M,29.97,M,10.00,M,CLR,M,M,M,M,M,M,M,M,KBOS 031600Z AUTO 23012KT 10SM CLR A2997 RMK MADISHF
OWD,2017-11-03 16:00,-71.1733,42.1912,M,M,M,230.00,9.00,M,29.97,M,10.00,M,CLR,M,M,M,M,M,M,M,M,KOWD 031600Z AUTO 23009KT 10SM CLR A2997 RMK MADISHF
PYM,2017-11-03 16:00,-70.7288,41.9090,M,M,M,210.00,10.00,M,30.01,M,10.00,M,SCT,M,M,M,900.00,M,M,M,M,KPYM 031600Z AUTO 21010KT 10SM SCT009 A3001 RMK MADISHF
EWB,2017-11-03 16:00,-70.9583,41.6764,M,M,M,M,M,M,30.02,M,10.00,M,OVC,M,M,M,900.00,M,M,M,M,KEWB 031600Z AUTO /////KT 10SM OVC009 A3002 RMK CIG 7V11  MADISHF
CQX,2017-11-03 16:00,-69.9933,41.6875,M,M,M,M,M,M,30.03,M,0.25,M,VV ,M,M,M,200.00,M,M,M,FG,KCQX 031600Z AUTO /////KT 1/4SM FG VV002 A3003 RMK MADISHF
ORH,2017-11-03 16:00,-71.8757,42.2673,M,M,M,200.00,12.00,M,29.99,M,10.00,M,FEW,SCT,M,M,2400.00,2900.00,M,M,M,KORH 031600Z AUTO 20012KT 10SM FEW024 SCT029 A2999 RMK MADISHF
PVC,2017-11-03 16:00,-70.2200,42.0700,M,M,M,190.00,11.00,M,30.00,M,10.00,M,M,M,M,M,M,M,M,M,M,KPVC 031600Z AUTO 19011KT 10SM A3000 RMK MADISHF
HYA,2017-11-03 16:00,-70.2800,41.6700,M,M,M,200.00,12.00,M,30.01,M,5.00,17.00,OVC,M,M,M,200.00,M,M,M,BR,KHYA 031600Z AUTO 20012G17KT 5SM BR OVC002 A3001 RMK MADISHF
BED,2017-11-03 16:00,-71.2890,42.4699,M,M,M,210.00,13.00,M,29.96,M,10.00,M,FEW,M,M,M,3200.00,M,M,M,M,KBED 031600Z AUTO 21013KT 10SM FEW032 A2996 RMK MADISHF
ORE,2017-11-03 16:05,-72.2886,42.5701,M,M,M,180.00,12.00,M,29.96,M,10.00,M,FEW,FEW,M,M,2300.00,10000.00,M,M,M,KORE 031605Z AUTO 18012KT 10SM FEW023 FEW100 A2996 RMK MADISHF
TAN,2017-11-03 16:05,-71.0211,41.8756,M,M,M,200.00,10.00,M,30.00,M,10.00,15.00,CLR,M,M,M,M,M,M,M,M,KTAN 031605Z AUTO 20010G15KT 10SM CLR A3000 RMK WND 17V23  MADISHF
BOS,2017-11-03 16:05,-71.0097,42.3606,M,M,M,220.00,16.00,M,29.97,M,10.00,M,CLR,M,M,M,M,M,M,M,M,KBOS 031605Z AUTO 22016KT 10SM CLR A2997 RMK MADISHF
HYA,2017-11-03 16:05,-70.2800,41.6700,M,M,M,210.00,13.00,M,30.01,M,7.00,18.00,OVC,M,M,M,300.00,M,M,M,M,KHYA 031605Z AUTO 21013G18KT 7SM OVC003 A3001 RMK MADISHF
BED,2017-11-03 16:05,-71.2890,42.4699,M,M,M,210.00,11.00,M,29.95,M,10.00,M,SCT,SCT,M,M,2100.00,11000.00,M,M,M,KBED 031605Z AUTO 21011KT 10SM SCT021 SCT110 A2995 RMK MADISHF
FIT,2017-11-03 16:05,-71.7558,42.5519,M,M,M,M,M,M,29.96,M,10.00,M,CLR,M,M,M,M,M,M,M,M,KFIT 031605Z AUTO /////KT 10SM CLR A2996 RMK MADISHF
EWB,2017-11-03 16:05,-70.9583,41.6764,M,M,M,210.00,10.00,M,30.01,M,10.00,M,OVC,M,M,M,900.00,M,M,M,M,KEWB 031605Z AUTO 21010KT 10SM OVC009 A3001 RMK CIG 7V11  MADISHF
PVC,2017-11-03 16:05,-70.2200,42.0700,M,M,M,190.00,11.00,M,30.00,M,10.00,M,M,M,M,M,M,M,M,M,M,KPVC 031605Z AUTO 19011KT 10SM A3000 RMK MADISHF
PYM,2017-11-03 16:05,-70.7288,41.9090,M,M,M,210.00,8.00,M,30.01,M,10.00,M,SCT,M,M,M,900.00,M,M,M,M,KPYM 031605Z AUTO 21008KT 10SM SCT009 A3001 RMK WND 16V24  MADISHF
OWD,2017-11-03 16:05,-71.1733,42.1912,M,M,M,210.00,11.00,M,29.97,M,10.00,M,CLR,M,M,M,M,M,M,M,M,KOWD 031605Z AUTO 21011KT 10SM CLR A2997 RMK MADISHF
ORH,2017-11-03 16:05,-71.8757,42.2673,M,M,M,M,M,M,29.99,M,10.00,M,FEW,FEW,M,M,2400.00,2900.00,M,M,M,KORH 031605Z AUTO /////KT 10SM FEW024 FEW029 A2999 RMK MADISHF
ORE,2017-11-03 16:10,-72.2886,42.5701,M,M,M,160.00,10.00,M,29.96,M,10.00,M,FEW,FEW,M,M,8500.00,12000.00,M,M,M,KORE 031610Z AUTO 16010KT 10SM FEW085 FEW120 A2996 RMK MADISHF
TAN,2017-11-03 16:10,-71.0211,41.8756,M,M,M,210.00,8.00,M,30.00,M,10.00,M,CLR,M,M,M,M,M,M,M,M,KTAN 031610Z AUTO 21008KT 10SM CLR A3000 RMK WND 17V23  MADISHF
BED,2017-11-03 16:10,-71.2890,42.4699,M,M,M,220.00,14.00,M,29.95,M,10.00,M,SCT,SCT,M,M,2100.00,11000.00,M,M,M,KBED 031610Z AUTO 22014KT 10SM SCT021 SCT110 A2995 RMK MADISHF
ORH,2017-11-03 16:10,-71.8757,42.2673,M,M,M,230.00,13.00,M,29.99,M,10.00,M,FEW,M,M,M,2400.00,M,M,M,M,KORH 031610Z AUTO 23013KT 10SM FEW024 A2999 RMK MADISHF
CQX,2017-11-03 16:10,-69.9933,41.6875,M,M,M,220.00,8.00,M,30.02,M,0.25,M,VV ,M,M,M,200.00,M,M,M,FG,KCQX 031610Z AUTO 22008KT 1/4SM FG VV002 A3002 RMK MADISHF
BOS,2017-11-03 16:10,-71.0097,42.3606,M,M,M,220.00,17.00,M,29.96,M,10.00,M,CLR,M,M,M,M,M,M,M,M,KBOS 031610Z AUTO 22017KT 10SM CLR A2996 RMK MADISHF
OWD,2017-11-03 16:10,-71.1733,42.1912,M,M,M,230.00,10.00,M,29.97,M,10.00,M,CLR,M,M,M,M,M,M,M,M,KOWD 031610Z AUTO 23010KT 10SM CLR A2997 RMK MADISHF
FIT,2017-11-03 16:10,-71.7558,42.5519,M,M,M,200.00,15.00,M,29.96,M,10.00,M,CLR,M,M,M,M,M,M,M,M,KFIT 031610Z AUTO 20015KT 10SM CLR A2996 RMK MADISHF
PVC,2017-11-03 16:10,-70.2200,42.0700,M,M,M,190.00,12.00,M,30.00,M,10.00,M,M,M,M,M,M,M,M,M,M,KPVC 031610Z AUTO 19012KT 10SM A3000 RMK MADISHF
HYA,2017-11-03 16:10,-70.2800,41.6700,M,M,M,210.00,12.00,M,30.00,M,7.00,M,OVC,M,M,M,300.00,M,M,M,M,KHYA 031610Z AUTO 21012KT 7SM OVC003 A3000 RMK MADISHF
PYM,2017-11-03 16:10,-70.7288,41.9090,M,M,M,210.00,12.00,M,30.01,M,10.00,17.00,SCT,M,M,M,900.00,M,M,M,M,KPYM 031610Z AUTO 21012G17KT 10SM SCT009 A3001 RMK MADISHF
EWB,2017-11-03 16:10,-70.9583,41.6764,M,M,M,220.00,10.00,M,30.01,M,10.00,M,OVC,M,M,M,900.00,M,M,M,M,KEWB 031610Z AUTO 22010KT 10SM OVC009 A3001 RMK CIG 7V13  MADISHF
PVC,2017-11-03 16:15,-70.2200,42.0700,M,M,M,190.00,10.00,M,30.00,M,10.00,M,M,M,M,M,M,M,M,M,M,KPVC 031615Z AUTO 19010KT 10SM A3000 RMK MADISHF
CQX,2017-11-03 16:15,-69.9933,41.6875,M,M,M,230.00,8.00,M,30.02,M,0.25,M,VV ,M,M,M,200.00,M,M,M,FG,KCQX 031615Z AUTO 23008KT 1/4SM FG VV002 A3002 RMK WND 19V25  MADISHF
EWB,2017-11-03 16:15,-70.9583,41.6764,M,M,M,210.00,11.00,M,30.01,M,10.00,M,OVC,M,M,M,800.00,M,M,M,M,KEWB 031615Z AUTO 21011KT 10SM OVC008 A3001 RMK CIG 7V11  MADISHF
ORE,2017-11-03 16:15,-72.2886,42.5701,M,M,M,180.00,11.00,M,29.95,M,10.00,M,FEW,SCT,M,M,7999.00,12000.00,M,M,M,KORE 031615Z AUTO 18011KT 10SM FEW079 SCT120 A2995 RMK MADISHF
TAN,2017-11-03 16:15,-71.0211,41.8756,M,M,M,220.00,10.00,M,29.99,M,10.00,M,CLR,M,M,M,M,M,M,M,M,KTAN 031615Z AUTO 22010KT 10SM CLR A2999 RMK MADISHF
OWD,2017-11-03 16:15,-71.1733,42.1912,M,M,M,220.00,9.00,M,29.97,M,10.00,M,CLR,M,M,M,M,M,M,M,M,KOWD 031615Z AUTO 22009KT 10SM CLR A2997 RMK WND 19V26  MADISHF
BOS,2017-11-03 16:15,-71.0097,42.3606,M,M,M,220.00,16.00,M,29.96,M,10.00,M,CLR,M,M,M,M,M,M,M,M,KBOS 031615Z AUTO 22016KT 10SM CLR A2996 RMK MADISHF
BED,2017-11-03 16:15,-71.2890,42.4699,M,M,M,210.00,15.00,M,29.95,M,10.00,M,SCT,SCT,M,M,2100.00,11000.00,M,M,M,KBED 031615Z AUTO 21015KT 10SM SCT021 SCT110 A2995 RMK MADISHF
ORH,2017-11-03 16:15,-71.8757,42.2673,M,M,M,M,M,M,29.98,M,10.00,M,FEW,FEW,M,M,2400.00,3100.00,M,M,M,KORH 031615Z AUTO /////KT 10SM FEW024 FEW031 A2998 RMK MADISHF
PYM,2017-11-03 16:15,-70.7288,41.9090,M,M,M,210.00,12.00,M,30.00,M,10.00,M,SCT,M,M,M,900.00,M,M,M,M,KPYM 031615Z AUTO 21012KT 10SM SCT009 A3000 RMK MADISHF
HYA,2017-11-03 16:15,-70.2800,41.6700,M,M,M,210.00,13.00,M,30.00,M,9.00,M,OVC,M,M,M,300.00,M,M,M,M,KHYA 031615Z AUTO 21013KT 9SM OVC003 A3000 RMK MADISHF
FMH,2017-11-03 16:15,-70.5215,41.6585,68.00,57.20,68.35,230.00,10.00,0.00,30.02,M,10.00,16.00,BKN,M,M,M,1700.00,M,M,M,M,KFMH 031615Z AUTO 23010G16KT 10SM BKN017 20/14 A3002 RMK AO2
GHG,2017-11-03 16:15,-70.6721,42.0982,71.60,60.80,68.75,230.00,12.00,0.00,29.97,M,9.00,18.00,CLR,M,M,M,M,M,M,M,M,KGHG 031615Z AUTO 23012G18KT 9SM CLR 22/16 A2997 RMK AO2
FIT,2017-11-03 16:20,-71.7558,42.5519,M,M,M,M,M,M,29.95,M,10.00,M,CLR,M,M,M,M,M,M,M,M,KFIT 031620Z AUTO /////KT 10SM CLR A2995 RMK MADISHF
CQX,2017-11-03 16:20,-69.9933,41.6875,M,M,M,220.00,6.00,M,30.02,M,0.25,M,VV ,M,M,M,200.00,M,M,M,FG,KCQX 031620Z AUTO 22006KT 1/4SM FG VV002 A3002 RMK MADISHF
TAN,2017-11-03 16:20,-71.0211,41.8756,M,M,M,190.00,9.00,M,29.99,M,10.00,M,CLR,M,M,M,M,M,M,M,M,KTAN 031620Z AUTO 19009KT 10SM CLR A2999 RMK MADISHF
OWD,2017-11-03 16:20,-71.1733,42.1912,M,M,M,220.00,8.00,M,29.96,M,10.00,M,CLR,M,M,M,M,M,M,M,M,KOWD 031620Z AUTO 22008KT 10SM CLR A2996 RMK MADISHF
BOS,2017-11-03 16:20,-71.0097,42.3606,M,M,M,230.00,15.00,M,29.96,M,10.00,M,CLR,M,M,M,M,M,M,M,M,KBOS 031620Z AUTO 23015KT 10SM CLR A2996 RMK MADISHF
BED,2017-11-03 16:20,-71.2890,42.4699,M,M,M,210.00,12.00,M,29.94,M,10.00,M,SCT,SCT,M,M,2100.00,11000.00,M,M,M,KBED 031620Z AUTO 21012KT 10SM SCT021 SCT110 A2994 RMK MADISHF
EWB,2017-11-03 16:20,-70.9583,41.6764,M,M,M,200.00,10.00,M,30.00,M,10.00,M,OVC,M,M,M,800.00,M,M,M,M,KEWB 031620Z AUTO 20010KT 10SM OVC008 A3000 RMK MADISHF
ORH,2017-11-03 16:20,-71.8757,42.2673,M,M,M,M,M,M,29.98,M,10.00,M,FEW,FEW,M,M,2600.00,3100.00,M,M,M,KORH 031620Z AUTO /////KT 10SM FEW026 FEW031 A2998 RMK MADISHF
ORE,2017-11-03 16:20,-72.2886,42.5701,M,M,M,180.00,10.00,M,29.95,M,10.00,M,FEW,SCT,M,M,7999.00,12000.00,M,M,M,KORE 031620Z AUTO 18010KT 10SM FEW079 SCT120 A2995 RMK MADISHF
HYA,2017-11-03 16:20,-70.2800,41.6700,M,M,M,210.00,13.00,M,30.00,M,10.00,M,OVC,M,M,M,300.00,M,M,M,M,KHYA 031620Z AUTO 21013KT 10SM OVC003 A3000 RMK MADISHF
PYM,2017-11-03 16:20,-70.7288,41.9090,M,M,M,210.00,9.00,M,30.00,M,10.00,M,FEW,M,M,M,900.00,M,M,M,M,KPYM 031620Z AUTO 21009KT 10SM FEW009 A3000 RMK MADISHF
ORE,2017-11-03 16:25,-72.2886,42.5701,M,M,M,180.00,10.00,M,29.95,M,10.00,M,FEW,SCT,M,M,7999.00,12000.00,M,M,M,KORE 031625Z AUTO 18010KT 10SM FEW079 SCT120 A2995 RMK MADISHF
TAN,2017-11-03 16:25,-71.0211,41.8756,M,M,M,200.00,7.00,M,29.98,M,10.00,M,CLR,M,M,M,M,M,M,M,M,KTAN 031625Z AUTO 20007KT 10SM CLR A2998 RMK MADISHF
FIT,2017-11-03 16:25,-71.7558,42.5519,M,M,M,M,M,M,29.95,M,10.00,M,CLR,M,M,M,M,M,M,M,M,KFIT 031625Z AUTO /////KT 10SM CLR A2995 RMK MADISHF
OWD,2017-11-03 16:25,-71.1733,42.1912,M,M,M,220.00,9.00,M,29.96,M,10.00,M,FEW,M,M,M,3700.00,M,M,M,M,KOWD 031625Z AUTO 22009KT 10SM FEW037 A2996 RMK MADISHF
BOS,2017-11-03 16:25,-71.0097,42.3606,M,M,M,220.00,14.00,M,29.95,M,10.00,M,CLR,M,M,M,M,M,M,M,M,KBOS 031625Z AUTO 22014KT 10SM CLR A2995 RMK MADISHF
EWB,2017-11-03 16:25,-70.9583,41.6764,M,M,M,210.00,9.00,M,30.00,M,10.00,M,OVC,M,M,M,800.00,M,M,M,M,KEWB 031625Z AUTO 21009KT 10SM OVC008 A3000 RMK CIG 7V12  MADISHF
BED,2017-11-03 16:25,-71.2890,42.4699,M,M,M,210.00,12.00,M,29.94,M,10.00,20.00,SCT,SCT,M,M,2100.00,11000.00,M,M,M,KBED 031625Z AUTO 21012G20KT 10SM SCT021 SCT110 A2994 RMK MADISHF
PVC,2017-11-03 16:25,-70.2200,42.0700,M,M,M,190.00,13.00,M,30.00,M,10.00,M,M,M,M,M,M,M,M,M,M,KPVC 031625Z AUTO 19013KT 10SM A3000 RMK MADISHF
HYA,2017-11-03 16:25,-70.2800,41.6700,M,M,M,230.00,12.00,M,30.00,M,10.00,M,OVC,M,M,M,300.00,M,M,M,M,KHYA 031625Z AUTO 23012KT 10SM OVC003 A3000 RMK CIG 3V8  MADISHF
CQX,2017-11-03 16:25,-69.9933,41.6875,M,M,M,230.00,7.00,M,30.02,M,0.25,M,VV ,M,M,M,200.00,M,M,M,FG,KCQX 031625Z AUTO 23007KT 1/4SM FG VV002 A3002 RMK MADISHF
PYM,2017-11-03 16:25,-70.7288,41.9090,M,M,M,200.00,8.00,M,30.00,M,10.00,M,FEW,M,M,M,900.00,M,M,M,M,KPYM 031625Z AUTO 20008KT 10SM FEW009 A3000 RMK MADISHF
ORH,2017-11-03 16:25,-71.8757,42.2673,M,M,M,M,M,M,29.98,M,10.00,M,CLR,M,M,M,M,M,M,M,M,KORH 031625Z AUTO /////KT 10SM CLR A2998 RMK MADISHF
PYM,2017-11-03 16:30,-70.7288,41.9090,M,M,M,190.00,8.00,M,29.99,M,10.00,M,FEW,M,M,M,900.00,M,M,M,M,KPYM 031630Z AUTO 19008KT 10SM FEW009 A2999 RMK MADISHF
FIT,2017-11-03 16:30,-71.7558,42.5519,M,M,M,M,M,M,29.94,M,10.00,M,CLR,M,M,M,M,M,M,M,M,KFIT 031630Z AUTO /////KT 10SM CLR A2994 RMK MADISHF
PVC,2017-11-03 16:30,-70.2200,42.0700,M,M,M,190.00,12.00,M,30.00,M,10.00,M,M,M,M,M,M,M,M,M,M,KPVC 031630Z AUTO 19012KT 10SM A3000 RMK MADISHF
ORE,2017-11-03 16:30,-72.2886,42.5701,M,M,M,180.00,10.00,M,29.94,M,10.00,M,FEW,FEW,M,M,7999.00,12000.00,M,M,M,KORE 031630Z AUTO 18010KT 10SM FEW079 FEW120 A2994 RMK MADISHF
HYA,2017-11-03 16:30,-70.2800,41.6700,M,M,M,230.00,13.00,M,30.00,M,10.00,M,OVC,M,M,M,400.00,M,M,M,M,KHYA 031630Z AUTO 23013KT 10SM OVC004 A3000 RMK CIG 3V8  MADISHF
CQX,2017-11-03 16:30,-69.9933,41.6875,M,M,M,230.00,9.00,M,30.02,M,0.25,14.00,VV ,M,M,M,200.00,M,M,M,FG,KCQX 031630Z AUTO 23009G14KT 1/4SM FG VV002 A3002 RMK MADISHF
BOS,2017-11-03 16:30,-71.0097,42.3606,M,M,M,210.00,13.00,M,29.95,M,10.00,18.00,CLR,M,M,M,M,M,M,M,M,KBOS 031630Z AUTO 21013G18KT 10SM CLR A2995 RMK MADISHF
EWB,2017-11-03 16:30,-70.9583,41.6764,M,M,M,210.00,11.00,M,30.00,M,10.00,M,BKN,M,M,M,800.00,M,M,M,M,KEWB 031630Z AUTO 21011KT 10SM BKN008 A3000 RMK CIG 7V12  MADISHF
BED,2017-11-03 16:30,-71.2890,42.4699,M,M,M,230.00,11.00,M,29.94,M,10.00,16.00,SCT,SCT,M,M,2100.00,11000.00,M,M,M,KBED 031630Z AUTO 23011G16KT 10SM SCT021 SCT110 A2994 RMK MADISHF
ORH,2017-11-03 16:30,-71.8757,42.2673,M,M,M,210.00,17.00,M,29.97,M,10.00,M,CLR,M,M,M,M,M,M,M,M,KORH 031630Z AUTO 21017KT 10SM CLR A2997 RMK MADISHF
OWD,2017-11-03 16:30,-71.1733,42.1912,M,M,M,210.00,7.00,M,29.96,M,10.00,M,FEW,M,M,M,3700.00,M,M,M,M,KOWD 031630Z AUTO 21007KT 10SM FEW037 A2996 RMK MADISHF
PVC,2017-11-03 16:35,-70.2200,42.0700,M,M,M,200.00,12.00,M,30.00,M,10.00,M,M,M,M,M,M,M,M,M,M,KPVC 031635Z AUTO 20012KT 10SM A3000 RMK MADISHF
EWB,2017-11-03 16:35,-70.9583,41.6764,M,M,M,210.00,11.00,M,29.99,M,10.00,M,BKN,M,M,M,800.00,M,M,M,M,KEWB 031635Z AUTO 21011KT 10SM BKN008 A2999 RMK CIG 7V12  MADISHF
BOS,2017-11-03 16:35,-71.0097,42.3606,M,M,M,220.00,12.00,M,29.95,M,10.00,M,CLR,M,M,M,M,M,M,M,M,KBOS 031635Z AUTO 22012KT 10SM CLR A2995 RMK MADISHF
ORE,2017-11-03 16:35,-72.2886,42.5701,M,M,M,180.00,10.00,M,29.94,M,10.00,M,FEW,FEW,M,M,7999.00,12000.00,M,M,M,KORE 031635Z AUTO 18010KT 10SM FEW079 FEW120 A2994 RMK MADISHF
BED,2017-11-03 16:35,-71.2890,42.4699,M,M,M,210.00,14.00,M,29.94,M,10.00,M,SCT,SCT,M,M,2100.00,11000.00,M,M,M,KBED 031635Z AUTO 21014KT 10SM SCT021 SCT110 A2994 RMK MADISHF
TAN,2017-11-03 16:35,-71.0211,41.8756,M,M,M,200.00,10.00,M,29.98,M,10.00,15.00,CLR,M,M,M,M,M,M,M,M,KTAN 031635Z AUTO 20010G15KT 10SM CLR A2998 RMK MADISHF
CQX,2017-11-03 16:35,-69.9933,41.6875,M,M,M,220.00,5.00,M,30.02,M,0.25,M,VV ,M,M,M,200.00,M,M,M,FG,KCQX 031635Z AUTO 22005KT 1/4SM FG VV002 A3002 RMK VRB05G15KT  MADISHF
HYA,2017-11-03 16:35,-70.2800,41.6700,M,M,M,220.00,14.00,M,30.00,M,10.00,M,BKN,M,M,M,400.00,M,M,M,M,KHYA 031635Z AUTO 22014KT 10SM BKN004 A3000 RMK CIG 3V8  MADISHF
OWD,2017-11-03 16:35,-71.1733,42.1912,M,M,M,220.00,10.00,M,29.96,M,10.00,M,FEW,M,M,M,3700.00,M,M,M,M,KOWD 031635Z AUTO 22010KT 10SM FEW037 A2996 RMK MADISHF
PYM,2017-11-03 16:35,-70.7288,41.9090,M,M,M,M,M,M,29.99,M,10.00,M,CLR,M,M,M,M,M,M,M,M,KPYM 031635Z AUTO /////KT 10SM CLR A2999 RMK MADISHF
ORH,2017-11-03 16:35,-71.8757,42.2673,M,M,M,M,M,M,29.96,M,10.00,M,CLR,M,M,M,M,M,M,M,M,KORH 031635Z AUTO /////KT 10SM CLR A2996 RMK MADISHF
GHG,2017-11-03 16:35,-70.6721,42.0982,73.40,60.80,64.69,230.00,10.00,0.00,29.96,M,10.00,18.00,CLR,M,M,M,M,M,M,M,M,KGHG 031635Z AUTO 23010G18KT 10SM CLR 23/16 A2996 RMK AO2
FMH,2017-11-03 16:35,-70.5215,41.6585,68.00,57.20,68.35,240.00,14.00,0.00,30.02,M,10.00,20.00,FEW,M,M,M,1700.00,M,M,M,M,KFMH 031635Z 24014G20KT 10SM FEW017 20/14 A3002 RMK AO2
CQX,2017-11-03 16:40,-69.9933,41.6875,M,M,M,230.00,7.00,M,30.02,M,0.50,M,VV ,M,M,M,200.00,M,M,M,FG,KCQX 031640Z AUTO 23007KT 1/2SM FG VV002 A3002 RMK WND 20V26  MADISHF
PYM,2017-11-03 16:40,-70.7288,41.9090,M,M,M,200.00,9.00,M,29.99,M,10.00,M,CLR,M,M,M,M,M,M,M,M,KPYM 031640Z AUTO 20009KT 10SM CLR A2999 RMK WND 15V22  MADISHF
EWB,2017-11-03 16:40,-70.9583,41.6764,M,M,M,200.00,11.00,M,29.99,M,10.00,M,BKN,M,M,M,800.00,M,M,M,M,KEWB 031640Z AUTO 20011KT 10SM BKN008 A2999 RMK CIG 7V12  MADISHF
HYA,2017-11-03 16:40,-70.2800,41.6700,M,M,M,210.00,13.00,M,30.00,M,10.00,M,BKN,M,M,M,400.00,M,M,M,M,KHYA 031640Z AUTO 21013KT 10SM BKN004 A3000 RMK CIG 4V7  MADISHF
BED,2017-11-03 16:40,-71.2890,42.4699,M,M,M,210.00,14.00,M,29.93,M,10.00,M,SCT,SCT,M,M,2100.00,11000.00,M,M,M,KBED 031640Z AUTO 21014KT 10SM SCT021 SCT110 A2993 RMK MADISHF
PVC,2017-11-03 16:40,-70.2200,42.0700,M,M,M,190.00,11.00,M,30.00,M,10.00,M,M,M,M,M,M,M,M,M,M,KPVC 031640Z AUTO 19011KT 10SM A3000 RMK MADISHF
FIT,2017-11-03 16:40,-71.7558,42.5519,M,M,M,M,M,M,29.94,M,10.00,17.00,CLR,M,M,M,M,M,M,M,M,KFIT 031640Z AUTO /////G17KT 10SM CLR A2994 RMK MADISHF
ORE,2017-11-03 16:40,-72.2886,42.5701,M,M,M,180.00,10.00,M,29.94,M,10.00,M,FEW,M,M,M,12000.00,M,M,M,M,KORE 031640Z AUTO 18010KT 10SM FEW120 A2994 RMK MADISHF
TAN,2017-11-03 16:40,-71.0211,41.8756,M,M,M,190.00,11.00,M,29.98,M,10.00,M,CLR,M,M,M,M,M,M,M,M,KTAN 031640Z AUTO 19011KT 10SM CLR A2998 RMK MADISHF
BOS,2017-11-03 16:40,-71.0097,42.3606,M,M,M,220.00,15.00,M,29.95,M,10.00,M,CLR,M,M,M,M,M,M,M,M,KBOS 031640Z AUTO 22015KT 10SM CLR A2995 RMK MADISHF
OWD,2017-11-03 16:40,-71.1733,42.1912,M,M,M,220.00,12.00,M,29.96,M,10.00,M,SCT,M,M,M,3500.00,M,M,M,M,KOWD 031640Z AUTO 22012KT 10SM SCT035 A2996 RMK MADISHF
ORH,2017-11-03 16:40,-71.8757,42.2673,M,M,M,M,M,M,29.96,M,10.00,M,CLR,M,M,M,M,M,M,M,M,KORH 031640Z AUTO /////KT 10SM CLR A2996 RMK MADISHF
CQX,2017-11-03 16:45,-69.9933,41.6875,M,M,M,230.00,7.00,M,30.02,M,0.75,M,VV ,M,M,M,200.00,M,M,M,BR,KCQX 031645Z AUTO 23007KT 1SM BR VV002 A3002 RMK MADISHF
PYM,2017-11-03 16:45,-70.7288,41.9090,M,M,M,210.00,8.00,M,29.99,M,10.00,M,CLR,M,M,M,M,M,M,M,M,KPYM 031645Z AUTO 21008KT 10SM CLR A2999 RMK MADISHF
FIT,2017-11-03 16:45,-71.7558,42.5519,M,M,M,M,M,M,29.94,M,10.00,M,CLR,M,M,M,M,M,M,M,M,KFIT 031645Z AUTO /////KT 10SM CLR A2994 RMK MADISHF
BOS,2017-11-03 16:45,-71.0097,42.3606,M,M,M,230.00,16.00,M,29.95,M,10.00,M,CLR,M,M,M,M,M,M,M,M,KBOS 031645Z AUTO 23016KT 10SM CLR A2995 RMK MADISHF
OWD,2017-11-03 16:45,-71.1733,42.1912,M,M,M,220.00,10.00,M,29.95,M,10.00,16.00,SCT,M,M,M,3500.00,M,M,M,M,KOWD 031645Z AUTO 22010G16KT 10SM SCT035 A2995 RMK MADISHF
TAN,2017-11-03 16:45,-71.0211,41.8756,M,M,M,190.00,10.00,M,29.98,M,10.00,M,CLR,M,M,M,M,M,M,M,M,KTAN 031645Z AUTO 19010KT 10SM CLR A2998 RMK MADISHF
BED,2017-11-03 16:45,-71.2890,42.4699,M,M,M,220.00,12.00,M,29.93,M,10.00,M,SCT,SCT,M,M,2100.00,11000.00,M,M,M,KBED 031645Z AUTO 22012KT 10SM SCT021 SCT110 A2993 RMK MADISHF
ORH,2017-11-03 16:45,-71.8757,42.2673,M,M,M,M,M,M,29.96,M,10.00,26.00,CLR,M,M,M,M,M,M,M,M,KORH 031645Z AUTO /////G26KT 10SM CLR A2996 RMK MADISHF
EWB,2017-11-03 16:45,-70.9583,41.6764,M,M,M,210.00,10.00,M,29.99,M,10.00,M,BKN,M,M,M,900.00,M,M,M,M,KEWB 031645Z AUTO 21010KT 10SM BKN009 A2999 RMK MADISHF
HYA,2017-11-03 16:45,-70.2800,41.6700,M,M,M,230.00,14.00,M,29.99,M,10.00,M,SCT,M,M,M,400.00,M,M,M,M,KHYA 031645Z AUTO 23014KT 10SM SCT004 A2999 RMK MADISHF
PVC,2017-11-03 16:45,-70.2200,42.0700,M,M,M,190.00,13.00,M,29.99,M,10.00,M,M,M,M,M,M,M,M,M,M,KPVC 031645Z AUTO 19013KT 10SM A2999 RMK MADISHF
ORE,2017-11-03 16:45,-72.2886,42.5701,M,M,M,170.00,9.00,M,29.94,M,10.00,M,FEW,SCT,M,M,2900.00,12000.00,M,M,M,KORE 031645Z AUTO 17009KT 10SM FEW029 SCT120 A2994 RMK MADISHF
HYA,2017-11-03 16:49,-70.2800,41.6700,64.90,61.00,87.18,210.00,13.00,0.00,29.99,M,10.00,M,SCT,M,M,M,600.00,M,M,M,M,KHYA 031649Z 21013KT 10SM SCT006 18/16 A2999 RMK AO2 T01830161
TAN,2017-11-03 16:50,-71.0211,41.8756,M,M,M,200.00,11.00,M,29.98,M,10.00,16.00,CLR,M,M,M,M,M,M,M,M,KTAN 031650Z AUTO 20011G16KT 10SM CLR A2998 RMK MADISHF
PVC,2017-11-03 16:50,-70.2200,42.0700,M,M,M,200.00,11.00,M,29.99,M,10.00,M,M,M,M,M,M,M,M,M,M,KPVC 031650Z AUTO 20011KT 10SM A2999 RMK MADISHF
FIT,2017-11-03 16:50,-71.7558,42.5519,M,M,M,M,M,M,29.93,M,10.00,M,CLR,M,M,M,M,M,M,M,M,KFIT 031650Z AUTO /////KT 10SM CLR A2993 RMK MADISHF
BOS,2017-11-03 16:50,-71.0097,42.3606,M,M,M,230.00,16.00,M,29.94,M,10.00,M,FEW,M,M,M,4500.00,M,M,M,M,KBOS 031650Z AUTO 23016KT 10SM FEW045 A2994 RMK MADISHF
BED,2017-11-03 16:50,-71.2890,42.4699,M,M,M,210.00,13.00,M,29.92,M,10.00,M,SCT,SCT,M,M,2100.00,11000.00,M,M,M,KBED 031650Z AUTO 21013KT 10SM SCT021 SCT110 A2992 RMK MADISHF
CQX,2017-11-03 16:50,-69.9933,41.6875,M,M,M,230.00,10.00,M,30.02,M,1.25,M,OVC,M,M,M,200.00,M,M,M,BR,KCQX 031650Z AUTO 23010KT 1 1/2SM BR OVC002 A3002 RMK MADISHF
PYM,2017-11-03 16:50,-70.7288,41.9090,M,M,M,200.00,7.00,M,29.99,M,10.00,M,CLR,M,M,M,M,M,M,M,M,KPYM 031650Z AUTO 20007KT 10SM CLR A2999 RMK MADISHF
ORE,2017-11-03 16:50,-72.2886,42.5701,M,M,M,170.00,11.00,M,29.94,M,10.00,M,SCT,M,M,M,2900.00,M,M,M,M,KORE 031650Z AUTO 17011KT 10SM SCT029 A2994 RMK MADISHF
HYA,2017-11-03 16:50,-70.2800,41.6700,M,M,M,210.00,14.00,M,29.99,M,10.00,M,FEW,M,M,M,600.00,M,M,M,M,KHYA 031650Z AUTO 21014KT 10SM FEW006 A2999 RMK MADISHF
OWD,2017-11-03 16:50,-71.1733,42.1912,M,M,M,230.00,12.00,M,29.95,M,10.00,17.00,FEW,M,M,M,3500.00,M,M,M,M,KOWD 031650Z AUTO 23012G17KT 10SM FEW035 A2995 RMK MADISHF
ORH,2017-11-03 16:50,-71.8757,42.2673,M,M,M,220.00,16.00,M,29.96,M,10.00,M,CLR,M,M,M,M,M,M,M,M,KORH 031650Z AUTO 22016KT 10SM CLR A2996 RMK MADISHF
EWB,2017-11-03 16:50,-70.9583,41.6764,M,M,M,200.00,11.00,M,29.99,M,10.00,M,BKN,M,M,M,900.00,M,M,M,M,KEWB 031650Z AUTO 20011KT 10SM BKN009 A2999 RMK MADISHF
TAN,2017-11-03 16:52,-71.0211,41.8756,72.00,59.00,63.61,210.00,8.00,0.00,29.98,1015.10,10.00,16.00,CLR,M,M,M,M,M,M,M,M,KTAN 031652Z AUTO 21008G16KT 180V240 10SM CLR 22/15 A2998 RMK AO2 SLP151 T02220150
ORE,2017-11-03 16:52,-72.2886,42.5701,66.90,59.00,75.74,180.00,7.00,0.00,29.94,1013.60,10.00,M,SCT,SCT,M,M,2700.00,3300.00,M,M,M,KORE 031652Z AUTO 18007KT 10SM SCT027 SCT033 19/15 A2994 RMK AO2 SLP136 T01940150 TSNO
CQX,2017-11-03 16:52,-69.9933,41.6875,61.00,61.00,100.00,240.00,8.00,0.00,30.02,1016.50,2.00,16.00,OVC,M,M,M,200.00,M,M,M,BR,KCQX 031652Z AUTO 24008G16KT 2SM BR OVC002 16/16 A3002 RMK AO2 SLP165 T01610161
FIT,2017-11-03 16:52,-71.7558,42.5519,75.90,59.00,55.80,200.00,12.00,0.00,29.93,1013.40,10.00,19.00,CLR,M,M,M,M,M,M,M,M,KFIT 031652Z AUTO 20012G19KT 10SM CLR 24/15 A2993 RMK AO2 SLP134 T02440150
PYM,2017-11-03 16:52,-70.7288,41.9090,69.10,61.00,75.40,210.00,7.00,0.00,29.98,1015.20,10.00,M,CLR,M,M,M,M,M,M,M,M,KPYM 031652Z AUTO 21007KT 160V240 10SM CLR 21/16 A2998 RMK AO2 SLP152 T02060161 $
OWD,2017-11-03 16:53,-71.1733,42.1912,75.00,60.10,59.81,230.00,13.00,0.00,29.95,1014.10,10.00,18.00,FEW,SCT,M,M,3500.00,4300.00,M,M,M,KOWD 031653Z 23013G18KT 10SM FEW035 SCT043 24/16 A2995 RMK AO2 SLP141 T02390156
EWB,2017-11-03 16:53,-70.9583,41.6764,64.90,60.10,84.44,200.00,13.00,0.00,29.99,1015.50,10.00,M,SCT,M,M,M,900.00,M,M,M,M,KEWB 031653Z 20013KT 10SM SCT009 18/16 A2999 RMK AO2 SLP155 T01830156
ORH,2017-11-03 16:54,-71.8757,42.2673,69.10,54.00,58.60,220.00,16.00,0.00,29.96,1014.30,10.00,28.00,CLR,M,M,M,M,M,M,M,M,KORH 031654Z 22016G28KT 10SM CLR 21/12 A2996 RMK AO2 PK WND 22029/1606 SLP143 T02060122
BOS,2017-11-03 16:54,-71.0097,42.3606,71.10,59.00,65.58,220.00,16.00,0.00,29.94,1013.80,10.00,M,FEW,SCT,OVC,M,4500.00,20000.00,25000.00,M,M,KBOS 031654Z 22016KT 10SM FEW045 SCT200 OVC250 22/15 A2994 RMK AO2 SLP138 T02170150
PVC,2017-11-03 16:55,-70.2200,42.0700,M,M,M,200.00,9.00,M,29.99,M,10.00,M,M,M,M,M,M,M,M,M,M,KPVC 031655Z AUTO 20009KT 10SM A2999 RMK MADISHF
CQX,2017-11-03 16:55,-69.9933,41.6875,M,M,M,230.00,10.00,M,30.02,M,6.00,15.00,OVC,M,M,M,200.00,M,M,M,BR,KCQX 031655Z AUTO 23010G15KT 6SM BR OVC002 A3002 RMK MADISHF
HYA,2017-11-03 16:55,-70.2800,41.6700,M,M,M,210.00,13.00,M,29.98,M,10.00,M,FEW,M,M,M,600.00,M,M,M,M,KHYA 031655Z AUTO 21013KT 10SM FEW006 A2998 RMK MADISHF
OWD,2017-11-03 16:55,-71.1733,42.1912,M,M,M,230.00,12.00,M,29.95,M,10.00,19.00,SCT,M,M,M,3800.00,M,M,M,M,KOWD 031655Z AUTO 23012G19KT 10SM SCT038 A2995 RMK MADISHF
BOS,2017-11-03 16:55,-71.0097,42.3606,M,M,M,220.00,17.00,M,29.94,M,10.00,M,FEW,M,M,M,3600.00,M,M,M,M,KBOS 031655Z AUTO 22017KT 10SM FEW036 A2994 RMK MADISHF
ORH,2017-11-03 16:55,-71.8757,42.2673,M,M,M,M,M,M,29.96,M,10.00,M,CLR,M,M,M,M,M,M,M,M,KORH 031655Z AUTO /////KT 10SM CLR A2996 RMK MADISHF
BED,2017-11-03 16:55,-71.2890,42.4699,M,M,M,210.00,14.00,M,29.91,M,10.00,M,SCT,SCT,M,M,2100.00,11000.00,M,M,M,KBED 031655Z AUTO 21014KT 10SM SCT021 SCT110 A2991 RMK MADISHF
EWB,2017-11-03 16:55,-70.9583,41.6764,M,M,M,210.00,12.00,M,29.99,M,10.00,M,SCT,M,M,M,900.00,M,M,M,M,KEWB 031655Z AUTO 21012KT 10SM SCT009 A2999 RMK MADISHF
PYM,2017-11-03 16:55,-70.7288,41.9090,M,M,M,200.00,8.00,M,29.98,M,10.00,M,CLR,M,M,M,M,M,M,M,M,KPYM 031655Z AUTO 20008KT 10SM CLR A2998 RMK MADISHF
ORE,2017-11-03 16:55,-72.2886,42.5701,M,M,M,180.00,9.00,M,29.93,M,10.00,M,FEW,SCT,M,M,2700.00,3300.00,M,M,M,KORE 031655Z AUTO 18009KT 10SM FEW027 SCT033 A2993 RMK MADISHF
TAN,2017-11-03 16:55,-71.0211,41.8756,M,M,M,210.00,7.00,M,29.98,M,10.00,M,CLR,M,M,M,M,M,M,M,M,KTAN 031655Z AUTO 21007KT 10SM CLR A2998 RMK WND 16V25  MADISHF
GHG,2017-11-03 16:55,-70.6721,42.0982,73.40,62.60,68.94,200.00,11.00,0.00,29.95,M,10.00,16.00,FEW,M,M,M,2700.00,M,M,M,M,KGHG 031655Z AUTO 20011G16KT 160V220 10SM FEW027 23/17 A2995 RMK AO2
FMH,2017-11-03 16:55,-70.5215,41.6585,68.00,59.00,72.92,230.00,16.00,0.00,30.00,M,10.00,M,FEW,M,M,M,1700.00,M,M,M,M,KFMH 031655Z 23016KT 10SM FEW017 20/15 A3000 RMK AO2
MQE,2017-11-03 16:56,-71.1142,42.2121,70.00,57.00,63.37,230.00,12.00,0.00,29.96,1015.20,M,22.00,M,M,M,M,M,M,M,M,M,KMQE 031656Z AUTO 23012G22KT 21/14 A2996 RMK AO1 SLP152 T02110139
BED,2017-11-03 16:56,-71.2890,42.4699,72.00,57.90,61.15,210.00,14.00,0.00,29.91,1014.10,10.00,22.00,SCT,SCT,M,M,2100.00,11000.00,M,M,M,KBED 031656Z 21014G22KT 10SM SCT021 SCT110 22/14 A2991 RMK AO2 SLP141 T02220144
HYA,2017-11-03 16:56,-70.2800,41.6700,66.00,61.00,83.91,210.00,14.00,0.00,29.98,1015.30,10.00,M,FEW,M,M,M,600.00,M,M,M,M,KHYA 031656Z 21014KT 10SM FEW006 19/16 A2998 RMK AO2 SLP153 T01890161
PVC,2017-11-03 16:56,-70.2200,42.0700,64.00,59.00,83.78,200.00,9.00,0.00,29.99,1015.40,10.00,M,M,M,M,M,M,M,M,M,M,KPVC 031656Z AUTO 20009KT 10SM 18/15 A2999 RMK AO2 SLP154 T01780150 $
CQX,2017-11-03 16:59,-69.9933,41.6875,61.00,61.00,100.00,240.00,6.00,0.00,30.02,M,10.00,16.00,OVC,M,M,M,200.00,M,M,M,M,KCQX 031659Z AUTO 24006G16KT 10SM OVC002 16/16 A3002 RMK AO2 T01610161
FIT,2017-11-03 17:00,-71.7558,42.5519,M,M,M,M,M,M,29.93,M,10.00,M,CLR,M,M,M,M,M,M,M,M,KFIT 031700Z AUTO /////KT 10SM CLR A2993 RMK WND 18V25  MADISHF
TAN,2017-11-03 17:00,-71.0211,41.8756,M,M,M,210.00,9.00,M,29.98,M,10.00,M,CLR,M,M,M,M,M,M,M,M,KTAN 031700Z AUTO 21009KT 10SM CLR A2998 RMK WND 15V24  MADISHF
EWB,2017-11-03 17:00,-70.9583,41.6764,M,M,M,220.00,12.00,M,29.99,M,10.00,M,SCT,M,M,M,900.00,M,M,M,M,KEWB 031700Z AUTO 22012KT 10SM SCT009 A2999 RMK MADISHF
PYM,2017-11-03 17:00,-70.7288,41.9090,M,M,M,210.00,10.00,M,29.98,M,10.00,M,CLR,M,M,M,M,M,M,M,M,KPYM 031700Z AUTO 21010KT 10SM CLR A2998 RMK WND 17V23  MADISHF
ORE,2017-11-03 17:00,-72.2886,42.5701,M,M,M,170.00,8.00,M,29.93,M,10.00,M,FEW,SCT,SCT,M,2700.00,3100.00,10000.00,M,M,KORE 031700Z AUTO 17008KT 10SM FEW027 SCT031 SCT100 A2993 RMK MADISHF
HYA,2017-11-03 17:00,-70.2800,41.6700,M,M,M,210.00,12.00,M,29.98,M,10.00,M,CLR,M,M,M,M,M,M,M,M,KHYA 031700Z AUTO 21012KT 10SM CLR A2998 RMK MADISHF
OWD,2017-11-03 17:00,-71.1733,42.1912,M,M,M,230.00,12.00,M,29.94,M,10.00,M,SCT,M,M,M,3800.00,M,M,M,M,KOWD 031700Z AUTO 23012KT 10SM SCT038 A2994 RMK MADISHF
BED,2017-11-03 17:00,-71.2890,42.4699,M,M,M,210.00,12.00,M,29.91,M,10.00,M,CLR,M,M,M,M,M,M,M,M,KBED 031700Z AUTO 21012KT 10SM CLR A2991 RMK MADISHF
CQX,2017-11-03 17:00,-69.9933,41.6875,M,M,M,230.00,6.00,M,30.02,M,10.00,M,OVC,M,M,M,200.00,M,M,M,M,KCQX 031700Z AUTO 23006KT 10SM OVC002 A3002 RMK VRB06G16KT  MADISHF
PVC,2017-11-03 17:00,-70.2200,42.0700,M,M,M,190.00,9.00,M,29.99,M,10.00,M,M,M,M,M,M,M,M,M,M,KPVC 031700Z AUTO 19009KT 10SM A2999 RMK MADISHF
BOS,2017-11-03 17:00,-71.0097,42.3606,M,M,M,M,M,M,29.93,M,10.00,M,FEW,M,M,M,3600.00,M,M,M,M,KBOS 031700Z AUTO /////KT 10SM FEW036 A2993 RMK MADISHF
ORH,2017-11-03 17:00,-71.8757,42.2673,M,M,M,M,M,M,29.96,M,10.00,M,CLR,M,M,M,M,M,M,M,M,KORH 031700Z AUTO /////KT 10SM CLR A2996 RMK MADISHF
TAN,2017-11-03 17:05,-71.0211,41.8756,M,M,M,220.00,10.00,M,29.97,M,10.00,M,FEW,M,M,M,2700.00,M,M,M,M,KTAN 031705Z AUTO 22010KT 10SM FEW027 A2997 RMK MADISHF
ORE,2017-11-03 17:05,-72.2886,42.5701,M,M,M,180.00,8.00,M,29.94,M,10.00,M,SCT,SCT,BKN,M,2700.00,3100.00,10000.00,M,M,KORE 031705Z AUTO 18008KT 10SM SCT027 SCT031 BKN100 A2994 RMK MADISHF
PVC,2017-11-03 17:05,-70.2200,42.0700,M,M,M,190.00,9.00,M,29.98,M,10.00,M,M,M,M,M,M,M,M,M,M,KPVC 031705Z AUTO 19009KT 10SM A2998 RMK MADISHF
ORH,2017-11-03 17:05,-71.8757,42.2673,M,M,M,M,M,M,29.95,M,10.00,M,CLR,M,M,M,M,M,M,M,M,KORH 031705Z AUTO /////KT 10SM CLR A2995 RMK MADISHF
EWB,2017-11-03 17:05,-70.9583,41.6764,M,M,M,200.00,11.00,M,29.98,M,10.00,M,SCT,M,M,M,900.00,M,M,M,M,KEWB 031705Z AUTO 20011KT 10SM SCT009 A2998 RMK MADISHF
BOS,2017-11-03 17:05,-71.0097,42.3606,M,M,M,220.00,18.00,M,29.93,M,10.00,M,FEW,M,M,M,3600.00,M,M,M,M,KBOS 031705Z AUTO 22018KT 10SM FEW036 A2993 RMK MADISHF
OWD,2017-11-03 17:05,-71.1733,42.1912,M,M,M,230.00,11.00,M,29.94,M,10.00,M,FEW,FEW,M,M,3300.00,4100.00,M,M,M,KOWD 031705Z AUTO 23011KT 10SM FEW033 FEW041 A2994 RMK MADISHF
PYM,2017-11-03 17:05,-70.7288,41.9090,M,M,M,200.00,8.00,M,29.98,M,10.00,M,CLR,M,M,M,M,M,M,M,M,KPYM 031705Z AUTO 20008KT 10SM CLR A2998 RMK MADISHF
FIT,2017-11-03 17:05,-71.7558,42.5519,M,M,M,210.00,10.00,M,29.93,M,10.00,M,FEW,M,M,M,9000.00,M,M,M,M,KFIT 031705Z AUTO 21010KT 10SM FEW090 A2993 RMK MADISHF
BED,2017-11-03 17:05,-71.2890,42.4699,M,M,M,220.00,9.00,M,29.92,M,10.00,M,CLR,M,M,M,M,M,M,M,M,KBED 031705Z AUTO 22009KT 10SM CLR A2992 RMK MADISHF
HYA,2017-11-03 17:05,-70.2800,41.6700,M,M,M,220.00,14.00,M,29.98,M,10.00,19.00,CLR,M,M,M,M,M,M,M,M,KHYA 031705Z AUTO 22014G19KT 10SM CLR A2998 RMK MADISHF
ORE,2017-11-03 17:10,-72.2886,42.5701,M,M,M,180.00,8.00,M,29.93,M,10.00,M,SCT,SCT,BKN,M,2700.00,3300.00,9000.00,M,M,KORE 031710Z AUTO 18008KT 10SM SCT027 SCT033 BKN090 A2993 RMK MADISHF
ORH,2017-11-03 17:10,-71.8757,42.2673,M,M,M,M,M,M,29.95,M,10.00,M,CLR,M,M,M,M,M,M,M,M,KORH 031710Z AUTO /////KT 10SM CLR A2995 RMK MADISHF
CQX,2017-11-03 17:10,-69.9933,41.6875,M,M,M,220.00,6.00,M,30.01,M,10.00,M,OVC,M,M,M,300.00,M,M,M,M,KCQX 031710Z AUTO 22006KT 10SM OVC003 A3001 RMK VRB06G16KT  MADISHF
FIT,2017-11-03 17:10,-71.7558,42.5519,M,M,M,M,M,M,29.93,M,10.00,M,FEW,M,M,M,9000.00,M,M,M,M,KFIT 031710Z AUTO /////KT 10SM FEW090 A2993 RMK MADISHF
PVC,2017-11-03 17:10,-70.2200,42.0700,M,M,M,200.00,10.00,M,29.98,M,10.00,M,M,M,M,M,M,M,M,M,M,KPVC 031710Z AUTO 20010KT 10SM A2998 RMK MADISHF
BOS,2017-11-03 17:10,-71.0097,42.3606,M,M,M,M,M,M,29.93,M,10.00,M,FEW,M,M,M,3600.00,M,M,M,M,KBOS 031710Z AUTO /////KT 10SM FEW036 A2993 RMK MADISHF
HYA,2017-11-03 17:10,-70.2800,41.6700,M,M,M,220.00,13.00,M,29.98,M,10.00,M,CLR,M,M,M,M,M,M,M,M,KHYA 031710Z AUTO 22013KT 10SM CLR A2998 RMK MADISHF
OWD,2017-11-03 17:10,-71.1733,42.1912,M,M,M,210.00,13.00,M,29.93,M,10.00,M,FEW,M,M,M,3900.00,M,M,M,M,KOWD 031710Z AUTO 21013KT 10SM FEW039 A2993 RMK MADISHF
BED,2017-11-03 17:10,-71.2890,42.4699,M,M,M,230.00,10.00,M,29.91,M,10.00,M,CLR,M,M,M,M,M,M,M,M,KBED 031710Z AUTO 23010KT 10SM CLR A2991 RMK MADISHF
EWB,2017-11-03 17:10,-70.9583,41.6764,M,M,M,230.00,11.00,M,29.98,M,10.00,16.00,SCT,M,M,M,900.00,M,M,M,M,KEWB 031710Z AUTO 23011G16KT 10SM SCT009 A2998 RMK MADISHF
PVC,2017-11-03 17:15,-70.2200,42.0700,M,M,M,200.00,10.00,M,29.98,M,10.00,M,M,M,M,M,M,M,M,M,M,KPVC 031715Z AUTO 20010KT 10SM A2998 RMK MADISHF
CQX,2017-11-03 17:15,-69.9933,41.6875,M,M,M,220.00,9.00,M,30.00,M,10.00,M,OVC,M,M,M,300.00,M,M,M,M,KCQX 031715Z AUTO 22009KT 10SM OVC003 A3000 RMK MADISHF
ORE,2017-11-03 17:15,-72.2886,42.5701,M,M,M,170.00,7.00,M,29.94,M,10.00,M,FEW,BKN,M,M,2900.00,8500.00,M,M,M,KORE 031715Z AUTO 17007KT 10SM FEW029 BKN085 A2994 RMK MADISHF
OWD,2017-11-03 17:15,-71.1733,42.1912,M,M,M,200.00,11.00,M,29.93,M,10.00,M,FEW,M,M,M,3900.00,M,M,M,M,KOWD 031715Z AUTO 20011KT 10SM FEW039 A2993 RMK MADISHF
EWB,2017-11-03 17:15,-70.9583,41.6764,M,M,M,210.00,9.00,M,29.98,M,10.00,M,FEW,M,M,M,900.00,M,M,M,M,KEWB 031715Z AUTO 21009KT 10SM FEW009 A2998 RMK MADISHF
BED,2017-11-03 17:15,-71.2890,42.4699,M,M,M,220.00,8.00,M,29.91,M,10.00,M,CLR,M,M,M,M,M,M,M,M,KBED 031715Z AUTO 22008KT 10SM CLR A2991 RMK MADISHF
BOS,2017-11-03 17:15,-71.0097,42.3606,M,M,M,M,M,M,29.92,M,10.00,M,FEW,M,M,M,3600.00,M,M,M,M,KBOS 031715Z AUTO /////KT 10SM FEW036 A2992 RMK MADISHF
PYM,2017-11-03 17:15,-70.7288,41.9090,M,M,M,210.00,8.00,M,29.97,M,10.00,M,CLR,M,M,M,M,M,M,M,M,KPYM 031715Z AUTO 21008KT 10SM CLR A2997 RMK MADISHF
HYA,2017-11-03 17:15,-70.2800,41.6700,M,M,M,210.00,14.00,M,29.98,M,10.00,M,CLR,M,M,M,M,M,M,M,M,KHYA 031715Z AUTO 21014KT 10SM CLR A2998 RMK MADISHF
ORH,2017-11-03 17:15,-71.8757,42.2673,M,M,M,220.00,12.00,M,29.95,M,10.00,M,CLR,M,M,M,M,M,M,M,M,KORH 031715Z AUTO 22012KT 10SM CLR A2995 RMK MADISHF
TAN,2017-11-03 17:15,-71.0211,41.8756,M,M,M,210.00,9.00,M,29.97,M,10.00,M,CLR,M,M,M,M,M,M,M,M,KTAN 031715Z AUTO 21009KT 10SM CLR A2997 RMK MADISHF
FMH,2017-11-03 17:15,-70.5215,41.6585,68.00,60.80,77.75,230.00,15.00,0.00,30.00,M,10.00,M,CLR,M,M,M,M,M,M,M,M,KFMH 031715Z AUTO 23015KT 10SM CLR 20/16 A3000 RMK AO2
GHG,2017-11-03 17:15,-70.6721,42.0982,73.40,60.80,64.69,220.00,11.00,0.00,29.94,M,10.00,20.00,CLR,M,M,M,M,M,M,M,M,KGHG 031715Z AUTO 22011G20KT 200V260 10SM CLR 23/16 A2994 RMK AO2
TAN,2017-11-03 17:20,-71.0211,41.8756,M,M,M,200.00,8.00,M,29.96,M,10.00,M,CLR,M,M,M,M,M,M,M,M,KTAN 031720Z AUTO 20008KT 10SM CLR A2996 RMK MADISHF
ORH,2017-11-03 17:20,-71.8757,42.2673,M,M,M,M,M,M,29.95,M,10.00,M,CLR,M,M,M,M,M,M,M,M,KORH 031720Z AUTO /////KT 10SM CLR A2995 RMK MADISHF
BED,2017-11-03 17:20,-71.2890,42.4699,M,M,M,210.00,13.00,M,29.91,M,10.00,M,CLR,M,M,M,M,M,M,M,M,KBED 031720Z AUTO 21013KT 10SM CLR A2991 RMK MADISHF
BOS,2017-11-03 17:20,-71.0097,42.3606,M,M,M,M,M,M,29.92,M,10.00,M,FEW,M,M,M,3500.00,M,M,M,M,KBOS 031720Z AUTO /////KT 10SM FEW035 A2992 RMK MADISHF
EWB,2017-11-03 17:20,-70.9583,41.6764,M,M,M,210.00,12.00,M,29.97,M,10.00,M,FEW,M,M,M,900.00,M,M,M,M,KEWB 031720Z AUTO 21012KT 10SM FEW009 A2997 RMK MADISHF
FIT,2017-11-03 17:20,-71.7558,42.5519,M,M,M,M,M,M,29.92,M,10.00,18.00,FEW,M,M,M,8500.00,M,M,M,M,KFIT 031720Z AUTO /////G18KT 10SM FEW085 A2992 RMK MADISHF
PYM,2017-11-03 17:20,-70.7288,41.9090,M,M,M,M,M,M,29.97,M,10.00,M,CLR,M,M,M,M,M,M,M,M,KPYM 031720Z AUTO /////KT 10SM CLR A2997 RMK MADISHF
PVC,2017-11-03 17:20,-70.2200,42.0700,M,M,M,200.00,11.00,M,29.98,M,10.00,M,M,M,M,M,M,M,M,M,M,KPVC 031720Z AUTO 20011KT 10SM A2998 RMK MADISHF
HYA,2017-11-03 17:20,-70.2800,41.6700,M,M,M,M,M,M,29.98,M,10.00,M,CLR,M,M,M,M,M,M,M,M,KHYA 031720Z AUTO /////KT 10SM CLR A2998 RMK MADISHF
OWD,2017-11-03 17:20,-71.1733,42.1912,M,M,M,210.00,14.00,M,29.93,M,10.00,M,FEW,M,M,M,3900.00,M,M,M,M,KOWD 031720Z AUTO 21014KT 10SM FEW039 A2993 RMK MADISHF
CQX,2017-11-03 17:20,-69.9933,41.6875,M,M,M,230.00,6.00,M,30.00,M,10.00,M,OVC,M,M,M,300.00,M,M,M,M,KCQX 031720Z AUTO 23006KT 10SM OVC003 A3000 RMK MADISHF
ORE,2017-11-03 17:20,-72.2886,42.5701,M,M,M,180.00,6.00,M,29.94,M,10.00,M,FEW,FEW,BKN,M,2700.00,7000.00,9000.00,M,M,KORE 031720Z AUTO 18006KT 10SM FEW027 FEW070 BKN090 A2994 RMK MADISHF
ORE,2017-11-03 17:25,-72.2886,42.5701,M,M,M,170.00,6.00,M,29.94,M,10.00,M,FEW,OVC,M,M,2700.00,9000.00,M,M,-RA,KORE 031725Z AUTO 17006KT 10SM -RA FEW027 OVC090 A2994 RMK MADISHF
PVC,2017-11-03 17:25,-70.2200,42.0700,M,M,M,220.00,14.00,M,29.98,M,10.00,M,M,M,M,M,M,M,M,M,M,KPVC 031725Z AUTO 22014KT 10SM A2998 RMK MADISHF
FIT,2017-11-03 17:25,-71.7558,42.5519,M,M,M,190.00,12.00,M,29.92,M,10.00,M,FEW,SCT,M,M,9000.00,10000.00,M,M,M,KFIT 031725Z AUTO 19012KT 10SM FEW090 SCT100 A2992 RMK MADISHF
EWB,2017-11-03 17:25,-70.9583,41.6764,M,M,M,210.00,10.00,M,29.97,M,10.00,M,FEW,M,M,M,900.00,M,M,M,M,KEWB 031725Z AUTO 21010KT 10SM FEW009 A2997 RMK MADISHF
BOS,2017-11-03 17:25,-71.0097,42.3606,M,M,M,M,M,M,29.92,M,10.00,M,FEW,M,M,M,3500.00,M,M,M,M,KBOS 031725Z AUTO /////KT 10SM FEW035 A2992 RMK MADISHF
CQX,2017-11-03 17:25,-69.9933,41.6875,M,M,M,220.00,8.00,M,30.00,M,10.00,M,OVC,M,M,M,300.00,M,M,M,M,KCQX 031725Z AUTO 22008KT 10SM OVC003 A3000 RMK MADISHF
TAN,2017-11-03 17:25,-71.0211,41.8756,M,M,M,210.00,10.00,M,29.96,M,10.00,M,CLR,M,M,M,M,M,M,M,M,KTAN 031725Z AUTO 21010KT 10SM CLR A2996 RMK MADISHF
OWD,2017-11-03 17:25,-71.1733,42.1912,M,M,M,220.00,10.00,M,29.93,M,10.00,M,FEW,M,M,M,3700.00,M,M,M,M,KOWD 031725Z AUTO 22010KT 10SM FEW037 A2993 RMK MADISHF
ORH,2017-11-03 17:25,-71.8757,42.2673,M,M,M,M,M,M,29.95,M,10.00,M,CLR,M,M,M,M,M,M,M,M,KORH 031725Z AUTO /////KT 10SM CLR A2995 RMK MADISHF
PYM,2017-11-03 17:25,-70.7288,41.9090,M,M,M,190.00,9.00,M,29.96,M,10.00,M,CLR,M,M,M,M,M,M,M,M,KPYM 031725Z AUTO 19009KT 10SM CLR A2996 RMK MADISHF
HYA,2017-11-03 17:25,-70.2800,41.6700,M,M,M,M,M,M,29.97,M,10.00,M,CLR,M,M,M,M,M,M,M,M,KHYA 031725Z AUTO /////KT 10SM CLR A2997 RMK MADISHF
BED,2017-11-03 17:25,-71.2890,42.4699,M,M,M,210.00,14.00,M,29.91,M,10.00,M,CLR,M,M,M,M,M,M,M,M,KBED 031725Z AUTO 21014KT 10SM CLR A2991 RMK MADISHF
PVC,2017-11-03 17:30,-70.2200,42.0700,M,M,M,210.00,12.00,M,29.97,M,10.00,M,M,M,M,M,M,M,M,M,M,KPVC 031730Z AUTO 21012KT 10SM A2997 RMK MADISHF
HYA,2017-11-03 17:30,-70.2800,41.6700,M,M,M,210.00,15.00,M,29.97,M,10.00,M,CLR,M,M,M,M,M,M,M,M,KHYA 031730Z AUTO 21015KT 10SM CLR A2997 RMK MADISHF
OWD,2017-11-03 17:30,-71.1733,42.1912,M,M,M,210.00,10.00,M,29.92,M,10.00,M,CLR,M,M,M,M,M,M,M,M,KOWD 031730Z AUTO 21010KT 10SM CLR A2992 RMK MADISHF
BED,2017-11-03 17:30,-71.2890,42.4699,M,M,M,220.00,12.00,M,29.91,M,10.00,17.00,FEW,M,M,M,10000.00,M,M,M,M,KBED 031730Z AUTO 22012G17KT 10SM FEW100 A2991 RMK MADISHF
ORH,2017-11-03 17:30,-71.8757,42.2673,M,M,M,M,M,M,29.94,M,10.00,M,CLR,M,M,M,M,M,M,M,M,KORH 031730Z AUTO /////KT 10SM CLR A2994 RMK MADISHF
CQX,2017-11-03 17:30,-69.9933,41.6875,M,M,M,220.00,6.00,M,30.00,M,10.00,M,OVC,M,M,M,300.00,M,M,M,M,KCQX 031730Z AUTO 22006KT 10SM OVC003 A3000 RMK MADISHF
FIT,2017-11-03 17:30,-71.7558,42.5519,M,M,M,210.00,10.00,M,29.92,M,10.00,M,FEW,SCT,M,M,8500.00,11000.00,M,M,M,KFIT 031730Z AUTO 21010KT 10SM FEW085 SCT110 A2992 RMK MADISHF
EWB,2017-11-03 17:30,-70.9583,41.6764,M,M,M,200.00,12.00,M,29.97,M,10.00,M,FEW,M,M,M,999.00,M,M,M,M,KEWB 031730Z AUTO 20012KT 10SM FEW009 A2997 RMK MADISHF
BOS,2017-11-03 17:30,-71.0097,42.3606,M,M,M,220.00,16.00,M,29.92,M,10.00,M,FEW,M,M,M,3500.00,M,M,M,M,KBOS 031730Z AUTO 22016KT 10SM FEW035 A2992 RMK MADISHF
ORE,2017-11-03 17:30,-72.2886,42.5701,M,M,M,180.00,4.00,M,29.93,M,10.00,M,FEW,OVC,M,M,2700.00,9000.00,M,M,-RA,KORE 031730Z AUTO 18004KT 10SM -RA FEW027 OVC090 A2993 RMK MADISHF
PVC,2017-11-03 17:35,-70.2200,42.0700,M,M,M,220.00,14.00,M,29.97,M,10.00,M,M,M,M,M,M,M,M,M,M,KPVC 031735Z AUTO 22014KT 10SM A2997 RMK MADISHF
CQX,2017-11-03 17:35,-69.9933,41.6875,M,M,M,220.00,10.00,M,30.00,M,10.00,M,OVC,M,M,M,300.00,M,M,M,M,KCQX 031735Z AUTO 22010KT 10SM OVC003 A3000 RMK MADISHF
ORE,2017-11-03 17:35,-72.2886,42.5701,M,M,M,170.00,6.00,M,29.93,M,10.00,M,OVC,M,M,M,8500.00,M,M,M,-RA,KORE 031735Z AUTO 17006KT 10SM -RA OVC085 A2993 RMK MADISHF
PYM,2017-11-03 17:35,-70.7288,41.9090,M,M,M,210.00,9.00,M,29.96,M,10.00,M,CLR,M,M,M,M,M,M,M,M,KPYM 031735Z AUTO 21009KT 10SM CLR A2996 RMK MADISHF
EWB,2017-11-03 17:35,-70.9583,41.6764,M,M,M,210.00,11.00,M,29.97,M,10.00,M,FEW,M,M,M,999.00,M,M,M,M,KEWB 031735Z AUTO 21011KT 10SM FEW009 A2997 RMK MADISHF
ORH,2017-11-03 17:35,-71.8757,42.2673,M,M,M,M,M,M,29.94,M,10.00,20.00,CLR,M,M,M,M,M,M,M,M,KORH 031735Z AUTO /////G20KT 10SM CLR A2994 RMK MADISHF
TAN,2017-11-03 17:35,-71.0211,41.8756,M,M,M,210.00,9.00,M,29.95,M,10.00,M,CLR,M,M,M,M,M,M,M,M,KTAN 031735Z AUTO 21009KT 10SM CLR A2995 RMK WND 19V25  MADISHF
BOS,2017-11-03 17:35,-71.0097,42.3606,M,M,M,220.00,15.00,M,29.92,M,10.00,M,FEW,M,M,M,3500.00,M,M,M,M,KBOS 031735Z AUTO 22015KT 10SM FEW035 A2992 RMK MADISHF
HYA,2017-11-03 17:35,-70.2800,41.6700,M,M,M,210.00,12.00,M,29.97,M,10.00,M,CLR,M,M,M,M,M,M,M,M,KHYA 031735Z AUTO 21012KT 10SM CLR A2997 RMK MADISHF
OWD,2017-11-03 17:35,-71.1733,42.1912,M,M,M,220.00,11.00,M,29.93,M,10.00,M,CLR,M,M,M,M,M,M,M,M,KOWD 031735Z AUTO 22011KT 10SM CLR A2993 RMK MADISHF
BED,2017-11-03 17:35,-71.2890,42.4699,M,M,M,210.00,15.00,M,29.91,M,10.00,20.00,FEW,M,M,M,10000.00,M,M,M,M,KBED 031735Z AUTO 21015G20KT 10SM FEW100 A2991 RMK MADISHF
GHG,2017-11-03 17:35,-70.6721,42.0982,73.40,60.80,64.69,240.00,10.00,0.00,29.93,M,10.00,20.00,CLR,M,M,M,M,M,M,M,M,KGHG 031735Z AUTO 24010G20KT 10SM CLR 23/16 A2993 RMK AO2
FMH,2017-11-03 17:35,-70.5215,41.6585,68.00,60.80,77.75,230.00,12.00,0.00,29.99,M,10.00,18.00,FEW,M,M,M,1500.00,M,M,M,M,KFMH 031735Z AUTO 23012G18KT 10SM FEW015 20/16 A2999 RMK AO2
PVC,2017-11-03 17:40,-70.2200,42.0700,M,M,M,210.00,13.00,M,29.97,M,10.00,M,M,M,M,M,M,M,M,M,M,KPVC 031740Z AUTO 21013KT 10SM A2997 RMK MADISHF
CQX,2017-11-03 17:40,-69.9933,41.6875,M,M,M,230.00,6.00,M,30.00,M,10.00,M,OVC,M,M,M,300.00,M,M,M,M,KCQX 031740Z AUTO 23006KT 10SM OVC003 A3000 RMK MADISHF
ORH,2017-11-03 17:40,-71.8757,42.2673,M,M,M,M,M,M,29.94,M,10.00,M,FEW,M,M,M,3399.00,M,M,M,M,KORH 031740Z AUTO /////KT 10SM FEW033 A2994 RMK MADISHF
BOS,2017-11-03 17:40,-71.0097,42.3606,M,M,M,220.00,17.00,M,29.91,M,10.00,M,FEW,M,M,M,3500.00,M,M,M,M,KBOS 031740Z AUTO 22017KT 10SM FEW035 A2991 RMK MADISHF
EWB,2017-11-03 17:40,-70.9583,41.6764,M,M,M,210.00,11.00,M,29.96,M,10.00,M,CLR,M,M,M,M,M,M,M,M,KEWB 031740Z AUTO 21011KT 10SM CLR A2996 RMK MADISHF
ORE,2017-11-03 17:40,-72.2886,42.5701,M,M,M,170.00,5.00,M,29.93,M,10.00,M,BKN,OVC,M,M,7500.00,9000.00,M,M,-RA,KORE 031740Z AUTO 17005KT 10SM -RA BKN075 OVC090 A2993 RMK MADISHF
FIT,2017-11-03 17:40,-71.7558,42.5519,M,M,M,230.00,7.00,M,29.92,M,10.00,M,FEW,BKN,M,M,8500.00,10000.00,M,M,M,KFIT 031740Z AUTO 23007KT 10SM FEW085 BKN100 A2992 RMK MADISHF
PYM,2017-11-03 17:40,-70.7288,41.9090,M,M,M,210.00,12.00,M,29.96,M,10.00,M,CLR,M,M,M,M,M,M,M,M,KPYM 031740Z AUTO 21012KT 10SM CLR A2996 RMK MADISHF
TAN,2017-11-03 17:40,-71.0211,41.8756,M,M,M,200.00,7.00,M,29.95,M,10.00,M,CLR,M,M,M,M,M,M,M,M,KTAN 031740Z AUTO 20007KT 10SM CLR A2995 RMK WND 18V24  MADISHF
HYA,2017-11-03 17:40,-70.2800,41.6700,M,M,M,210.00,15.00,M,29.97,M,10.00,M,CLR,M,M,M,M,M,M,M,M,KHYA 031740Z AUTO 21015KT 10SM CLR A2997 RMK MADISHF
OWD,2017-11-03 17:40,-71.1733,42.1912,M,M,M,220.00,11.00,M,29.92,M,10.00,M,CLR,M,M,M,M,M,M,M,M,KOWD 031740Z AUTO 22011KT 10SM CLR A2992 RMK WND 19V26  MADISHF
BED,2017-11-03 17:40,-71.2890,42.4699,M,M,M,220.00,10.00,M,29.90,M,10.00,M,CLR,M,M,M,M,M,M,M,M,KBED 031740Z AUTO 22010KT 10SM CLR A2990 RMK MADISHF
HYA,2017-11-03 17:45,-70.2800,41.6700,M,M,M,230.00,15.00,M,29.97,M,10.00,M,CLR,M,M,M,M,M,M,M,M,KHYA 031745Z AUTO 23015KT 10SM CLR A2997 RMK MADISHF
ORH,2017-11-03 17:45,-71.8757,42.2673,M,M,M,M,M,M,29.94,M,10.00,M,FEW,M,M,M,3399.00,M,M,M,M,KORH 031745Z AUTO /////KT 10SM FEW033 A2994 RMK MADISHF
BED,2017-11-03 17:45,-71.2890,42.4699,M,M,M,220.00,14.00,M,29.90,M,10.00,M,FEW,M,M,M,3900.00,M,M,M,M,KBED 031745Z AUTO 22014KT 10SM FEW039 A2990 RMK MADISHF
OWD,2017-11-03 17:45,-71.1733,42.1912,M,M,M,210.00,9.00,M,29.92,M,10.00,M,CLR,M,M,M,M,M,M,M,M,KOWD 031745Z AUTO 21009KT 10SM CLR A2992 RMK MADISHF
BOS,2017-11-03 17:45,-71.0097,42.3606,M,M,M,220.00,18.00,M,29.91,M,10.00,M,FEW,M,M,M,3500.00,M,M,M,M,KBOS 031745Z AUTO 22018KT 10SM FEW035 A2991 RMK MADISHF
PYM,2017-11-03 17:45,-70.7288,41.9090,M,M,M,210.00,8.00,M,29.96,M,10.00,M,CLR,M,M,M,M,M,M,M,M,KPYM 031745Z AUTO 21008KT 10SM CLR A2996 RMK MADISHF
CQX,2017-11-03 17:45,-69.9933,41.6875,M,M,M,220.00,8.00,M,30.00,M,9.00,M,OVC,M,M,M,300.00,M,M,M,M,KCQX 031745Z AUTO 22008KT 9SM OVC003 A3000 RMK MADISHF
PVC,2017-11-03 17:45,-70.2200,42.0700,M,M,M,220.00,14.00,M,29.97,M,10.00,M,M,M,M,M,M,M,M,M,M,KPVC 031745Z AUTO 22014KT 10SM A2997 RMK MADISHF
FIT,2017-11-03 17:45,-71.7558,42.5519,M,M,M,M,M,M,29.92,M,10.00,M,FEW,BKN,M,M,8500.00,10000.00,M,M,M,KFIT 031745Z AUTO /////KT 10SM FEW085 BKN100 A2992 RMK MADISHF
EWB,2017-11-03 17:45,-70.9583,41.6764,M,M,M,210.00,11.00,M,29.96,M,10.00,M,CLR,M,M,M,M,M,M,M,M,KEWB 031745Z AUTO 21011KT 10SM CLR A2996 RMK MADISHF
ORE,2017-11-03 17:45,-72.2886,42.5701,M,M,M,170.00,7.00,M,29.92,M,10.00,M,BKN,OVC,M,M,7000.00,9500.00,M,M,-RA,KORE 031745Z AUTO 17007KT 10SM -RA BKN070 OVC095 A2992 RMK MADISHF
TAN,2017-11-03 17:45,-71.0211,41.8756,M,M,M,200.00,8.00,M,29.95,M,10.00,M,CLR,M,M,M,M,M,M,M,M,KTAN 031745Z AUTO 20008KT 10SM CLR A2995 RMK MADISHF
ORE,2017-11-03 17:50,-72.2886,42.5701,M,M,M,180.00,6.00,M,29.92,M,10.00,M,BKN,OVC,M,M,7000.00,9000.00,M,M,-RA,KORE 031750Z AUTO 18006KT 10SM -RA BKN070 OVC090 A2992 RMK MADISHF
PYM,2017-11-03 17:50,-70.7288,41.9090,M,M,M,210.00,10.00,M,29.95,M,10.00,M,CLR,M,M,M,M,M,M,M,M,KPYM 031750Z AUTO 21010KT 10SM CLR A2995 RMK MADISHF
CQX,2017-11-03 17:50,-69.9933,41.6875,M,M,M,220.00,8.00,M,29.99,M,6.00,M,OVC,M,M,M,300.00,M,M,M,BR,KCQX 031750Z AUTO 22008KT 6SM BR OVC003 A2999 RMK MADISHF
PVC,2017-11-03 17:50,-70.2200,42.0700,M,M,M,210.00,15.00,M,29.96,M,10.00,M,M,M,M,M,M,M,M,M,M,KPVC 031750Z AUTO 21015KT 10SM A2996 RMK MADISHF
FIT,2017-11-03 17:50,-71.7558,42.5519,M,M,M,220.00,13.00,M,29.92,M,10.00,M,SCT,BKN,M,M,8500.00,10000.00,M,M,M,KFIT 031750Z AUTO 22013KT 10SM SCT085 BKN100 A2992 RMK MADISHF
BOS,2017-11-03 17:50,-71.0097,42.3606,M,M,M,220.00,16.00,M,29.91,M,10.00,M,FEW,M,M,M,3500.00,M,M,M,M,KBOS 031750Z AUTO 22016KT 10SM FEW035 A2991 RMK MADISHF
EWB,2017-11-03 17:50,-70.9583,41.6764,M,M,M,200.00,11.00,M,29.96,M,10.00,M,CLR,M,M,M,M,M,M,M,M,KEWB 031750Z AUTO 20011KT 10SM CLR A2996 RMK MADISHF
HYA,2017-11-03 17:50,-70.2800,41.6700,M,M,M,220.00,15.00,M,29.96,M,10.00,M,CLR,M,M,M,M,M,M,M,M,KHYA 031750Z AUTO 22015KT 10SM CLR A2996 RMK MADISHF
ORH,2017-11-03 17:50,-71.8757,42.2673,M,M,M,210.00,12.00,M,29.94,M,10.00,M,FEW,M,M,M,3399.00,M,M,M,M,KORH 031750Z AUTO 21012KT 10SM FEW033 A2994 RMK MADISHF
OWD,2017-11-03 17:50,-71.1733,42.1912,M,M,M,210.00,8.00,M,29.92,M,10.00,M,CLR,M,M,M,M,M,M,M,M,KOWD 031750Z AUTO 21008KT 10SM CLR A2992 RMK MADISHF
BED,2017-11-03 17:50,-71.2890,42.4699,M,M,M,200.00,15.00,M,29.90,M,10.00,M,FEW,M,M,M,3900.00,M,M,M,M,KBED 031750Z AUTO 20015KT 10SM FEW039 A2990 RMK MADISHF
TAN,2017-11-03 17:50,-71.0211,41.8756,M,M,M,200.00,6.00,M,29.95,M,10.00,M,CLR,M,M,M,M,M,M,M,M,KTAN 031750Z AUTO 20006KT 10SM CLR A2995 RMK MADISHF
CQX,2017-11-03 17:52,-69.9933,41.6875,62.10,61.00,96.18,220.00,9.00,0.00,29.99,1015.70,4.00,17.00,OVC,M,M,M,300.00,M,M,M,BR,KCQX 031752Z AUTO 22009G17KT 4SM BR OVC003 17/16 A2999 RMK AO2 SLP157 T01670161 10167 20144 58024
TAN,2017-11-03 17:52,-71.0211,41.8756,73.00,59.00,61.50,200.00,9.00,0.00,29.95,1014.20,10.00,M,CLR,M,M,M,M,M,M,M,M,KTAN 031752Z AUTO 20009KT 160V220 10SM CLR 23/15 A2995 RMK AO2 SLP142 T02280150 10228 20100 58024
ORE,2017-11-03 17:52,-72.2886,42.5701,66.00,60.10,81.27,180.00,5.00,0.00,29.92,1013.20,10.00,M,BKN,OVC,M,M,7000.00,9000.00,M,M,M,KORE 031752Z AUTO 18005KT 10SM BKN070 OVC090 19/16 A2992 RMK AO2 RAB23E52 SLP132 P0000 60000 T01890156 10200 20156 56021 TSNO
PYM,2017-11-03 17:52,-70.7288,41.9090,71.10,60.10,68.21,210.00,9.00,0.00,29.96,1014.30,10.00,M,CLR,M,M,M,M,M,M,M,M,KPYM 031752Z AUTO 21009KT 10SM CLR 22/16 A2996 RMK AO2 SLP143 T02170156 10217 20150 58019 $
FIT,2017-11-03 17:52,-71.7558,42.5519,75.90,59.00,55.80,240.00,14.00,0.00,29.91,1012.90,10.00,20.00,SCT,BKN,M,M,8500.00,10000.00,M,M,M,KFIT 031752Z AUTO 24014G20KT 10SM SCT085 BKN100 24/15 A2991 RMK AO2 SLP129 T02440150 10250 20183 56026
EWB,2017-11-03 17:53,-70.9583,41.6764,66.90,61.00,81.33,200.00,10.00,0.00,29.96,1014.40,10.00,M,CLR,M,M,M,M,M,M,M,M,KEWB 031753Z 20010KT 10SM CLR 19/16 A2996 RMK AO2 SLP144 T01940161 10194 20122 58027
OWD,2017-11-03 17:53,-71.1733,42.1912,77.00,60.10,55.95,230.00,11.00,0.00,29.92,1013.00,10.00,17.00,CLR,M,M,M,M,M,M,M,M,KOWD 031753Z 23011G17KT 170V250 10SM CLR 25/16 A2992 RMK AO2 SLP130 T02500156 10250 20133 58030
ORH,2017-11-03 17:54,-71.8757,42.2673,70.00,54.00,56.82,210.00,16.00,0.00,29.94,1013.60,10.00,20.00,FEW,M,M,M,3400.00,M,M,M,M,KORH 031754Z 21016G20KT 10SM FEW034 21/12 A2994 RMK AO2 SLP136 T02110122 10211 20150 58021
BOS,2017-11-03 17:54,-71.0097,42.3606,73.90,57.90,57.36,230.00,17.00,0.00,29.91,1012.70,10.00,M,FEW,SCT,BKN,M,3500.00,20000.00,25000.00,M,M,KBOS 031754Z 23017KT 10SM FEW035 SCT200 BKN250 23/14 A2991 RMK AO2 SLP127 T02330144 10233 20156 58031
ORH,2017-11-03 17:55,-71.8757,42.2673,M,M,M,M,M,M,29.94,M,10.00,M,FEW,M,M,M,3399.00,M,M,M,M,KORH 031755Z AUTO /////KT 10SM FEW033 A2994 RMK MADISHF
OWD,2017-11-03 17:55,-71.1733,42.1912,M,M,M,210.00,11.00,M,29.91,M,10.00,M,CLR,M,M,M,M,M,M,M,M,KOWD 031755Z AUTO 21011KT 10SM CLR A2991 RMK MADISHF
HYA,2017-11-03 17:55,-70.2800,41.6700,M,M,M,M,M,M,29.96,M,10.00,M,FEW,M,M,M,700.00,M,M,M,M,KHYA 031755Z AUTO /////KT 10SM FEW007 A2996 RMK MADISHF
BED,2017-11-03 17:55,-71.2890,42.4699,M,M,M,230.00,11.00,M,29.90,M,10.00,M,CLR,M,M,M,M,M,M,M,M,KBED 031755Z AUTO 23011KT 10SM CLR A2990 RMK MADISHF
ORE,2017-11-03 17:55,-72.2886,42.5701,M,M,M,200.00,5.00,M,29.92,M,10.00,M,BKN,OVC,M,M,7000.00,9000.00,M,M,M,KORE 031755Z AUTO 20005KT 10SM BKN070 OVC090 A2992 RMK MADISHF
TAN,2017-11-03 17:55,-71.0211,41.8756,M,M,M,220.00,11.00,M,29.95,M,10.00,M,CLR,M,M,M,M,M,M,M,M,KTAN 031755Z AUTO 22011KT 10SM CLR A2995 RMK MADISHF
PVC,2017-11-03 17:55,-70.2200,42.0700,M,M,M,210.00,14.00,M,29.96,M,10.00,20.00,M,M,M,M,M,M,M,M,M,KPVC 031755Z AUTO 21014G20KT 10SM A2996 RMK MADISHF
CQX,2017-11-03 17:55,-69.9933,41.6875,M,M,M,210.00,6.00,M,29.99,M,4.00,M,OVC,M,M,M,300.00,M,M,M,BR,KCQX 031755Z AUTO 21006KT 4SM BR OVC003 A2999 RMK VRB06G17KT  MADISHF
EWB,2017-11-03 17:55,-70.9583,41.6764,M,M,M,190.00,10.00,M,29.96,M,10.00,M,CLR,M,M,M,M,M,M,M,M,KEWB 031755Z AUTO 19010KT 10SM CLR A2996 RMK MADISHF
BOS,2017-11-03 17:55,-71.0097,42.3606,M,M,M,M,M,M,29.91,M,10.00,M,CLR,M,M,M,M,M,M,M,M,KBOS 031755Z AUTO /////KT 10SM CLR A2991 RMK MADISHF
FMH,2017-11-03 17:55,-70.5215,41.6585,68.00,60.80,77.75,230.00,13.00,0.00,29.99,M,10.00,M,SCT,BKN,M,M,1100.00,1600.00,M,M,M,KFMH 031755Z AUTO 23013KT 10SM SCT011 BKN016 20/16 A2999 RMK AO2
GHG,2017-11-03 17:55,-70.6721,42.0982,73.40,60.80,64.69,230.00,12.00,0.00,29.92,M,10.00,18.00,CLR,M,M,M,M,M,M,M,M,KGHG 031755Z AUTO 23012G18KT 170V260 10SM CLR 23/16 A2992 RMK AO2
MQE,2017-11-03 17:56,-71.1142,42.2121,72.00,55.90,56.89,210.00,14.00,0.00,29.92,1014.10,M,23.00,M,M,M,M,M,M,M,M,M,KMQE 031756Z AUTO 21014G23KT 22/13 A2992 RMK AO1 PK WND 22027/1711 SLP141 T02220133 10222 20144 58028
BED,2017-11-03 17:56,-71.2890,42.4699,73.00,57.90,59.12,230.00,11.00,0.00,29.90,1013.60,10.00,21.00,CLR,M,M,M,M,M,M,M,M,KBED 031756Z 23011G21KT 10SM CLR 23/14 A2990 RMK AO2 SLP136 T02280144 10233 20156 56027
HYA,2017-11-03 17:56,-70.2800,41.6700,64.00,60.10,87.14,210.00,16.00,0.00,29.96,1014.70,10.00,M,FEW,M,M,M,700.00,M,M,M,M,KHYA 031756Z 21016KT 10SM FEW007 18/16 A2996 RMK AO2 SLP147 T01780156 10189 20150 56024
PVC,2017-11-03 17:56,-70.2200,42.0700,64.00,59.00,83.78,210.00,15.00,0.00,29.96,1014.40,10.00,21.00,M,M,M,M,M,M,M,M,M,KPVC 031756Z AUTO 21015G21KT 10SM 18/15 A2996 RMK AO2 SLP144 60000 T01780150 10183 20133 56027 $
BED,2017-11-03 18:00,-71.2890,42.4699,M,M,M,220.00,11.00,M,29.90,M,10.00,M,CLR,M,M,M,M,M,M,M,M,KBED 031800Z AUTO 22011KT 10SM CLR A2990 RMK MADISHF
FIT,2017-11-03 18:00,-71.7558,42.5519,M,M,M,220.00,9.00,M,29.91,M,10.00,M,FEW,SCT,BKN,M,3900.00,9000.00,10000.00,M,M,KFIT 031800Z AUTO 22009KT 10SM FEW039 SCT090 BKN100 A2991 RMK MADISHF
ORE,2017-11-03 18:00,-72.2886,42.5701,M,M,M,0.00,0.00,M,29.92,M,10.00,M,OVC,M,M,M,7000.00,M,M,M,M,KORE 031800Z AUTO 00000KT 10SM OVC070 A2992 RMK MADISHF
CQX,2017-11-03 18:00,-69.9933,41.6875,M,M,M,220.00,6.00,M,29.99,M,3.50,M,OVC,M,M,M,200.00,M,M,M,BR,KCQX 031800Z AUTO 22006KT 3SM BR OVC002 A2999 RMK MADISHF
HYA,2017-11-03 18:00,-70.2800,41.6700,M,M,M,210.00,13.00,M,29.96,M,10.00,M,BKN,M,M,M,700.00,M,M,M,M,KHYA 031800Z AUTO 21013KT 10SM BKN007 A2996 RMK MADISHF
ORH,2017-11-03 18:00,-71.8757,42.2673,M,M,M,M,M,M,29.94,M,10.00,M,FEW,M,M,M,3399.00,M,M,M,M,KORH 031800Z AUTO /////KT 10SM FEW033 A2994 RMK MADISHF
OWD,2017-11-03 18:00,-71.1733,42.1912,M,M,M,220.00,9.00,M,29.91,M,10.00,16.00,CLR,M,M,M,M,M,M,M,M,KOWD 031800Z AUTO 22009G16KT 10SM CLR A2991 RMK MADISHF
PYM,2017-11-03 18:00,-70.7288,41.9090,M,M,M,200.00,11.00,M,29.95,M,10.00,M,CLR,M,M,M,M,M,M,M,M,KPYM 031800Z AUTO 20011KT 10SM CLR A2995 RMK MADISHF
EWB,2017-11-03 18:00,-70.9583,41.6764,M,M,M,190.00,11.00,M,29.96,M,10.00,M,CLR,M,M,M,M,M,M,M,M,KEWB 031800Z AUTO 19011KT 10SM CLR A2996 RMK MADISHF
BOS,2017-11-03 18:00,-71.0097,42.3606,M,M,M,M,M,M,29.91,M,10.00,M,CLR,M,M,M,M,M,M,M,M,KBOS 031800Z AUTO /////KT 10SM CLR A2991 RMK MADISHF
PVC,2017-11-03 18:00,-70.2200,42.0700,M,M,M,210.00,16.00,M,29.96,M,10.00,M,M,M,M,M,M,M,M,M,M,KPVC 031800Z AUTO 21016KT 10SM A2996 RMK MADISHF
TAN,2017-11-03 18:00,-71.0211,41.8756,M,M,M,230.00,8.00,M,29.94,M,10.00,M,CLR,M,M,M,M,M,M,M,M,KTAN 031800Z AUTO 23008KT 10SM CLR A2994 RMK MADISHF
HYA,2017-11-03 18:01,-70.2800,41.6700,64.00,60.10,87.14,210.00,12.00,0.00,29.96,M,10.00,M,BKN,M,M,M,700.00,M,M,M,M,KHYA 031801Z 21012KT 10SM BKN007 18/16 A2996 RMK AO2 T01780156
TAN,2017-11-03 18:05,-71.0211,41.8756,M,M,M,220.00,11.00,M,29.94,M,10.00,17.00,CLR,M,M,M,M,M,M,M,M,KTAN 031805Z AUTO 22011G17KT 10SM CLR A2994 RMK MADISHF
PVC,2017-11-03 18:05,-70.2200,42.0700,M,M,M,210.00,14.00,M,29.96,M,10.00,M,M,M,M,M,M,M,M,M,M,KPVC 031805Z AUTO 21014KT 10SM A2996 RMK MADISHF
ORH,2017-11-03 18:05,-71.8757,42.2673,M,M,M,M,M,M,29.93,M,10.00,M,FEW,M,M,M,3399.00,M,M,M,M,KORH 031805Z AUTO /////KT 10SM FEW033 A2993 RMK MADISHF
FIT,2017-11-03 18:05,-71.7558,42.5519,M,M,M,220.00,10.00,M,29.92,M,10.00,M,FEW,BKN,M,M,4200.00,9500.00,M,M,M,KFIT 031805Z AUTO 22010KT 10SM FEW042 BKN095 A2992 RMK WND 19V25  MADISHF
EWB,2017-11-03 18:05,-70.9583,41.6764,M,M,M,190.00,10.00,M,29.96,M,10.00,M,CLR,M,M,M,M,M,M,M,M,KEWB 031805Z AUTO 19010KT 10SM CLR A2996 RMK MADISHF
CQX,2017-11-03 18:05,-69.9933,41.6875,M,M,M,210.00,6.00,M,29.99,M,3.00,M,OVC,M,M,M,200.00,M,M,M,BR,KCQX 031805Z AUTO 21006KT 3SM BR OVC002 A2999 RMK MADISHF
ORE,2017-11-03 18:05,-72.2886,42.5701,M,M,M,0.00,0.00,M,29.92,M,10.00,M,BKN,OVC,M,M,7000.00,7999.00,M,M,M,KORE 031805Z AUTO 00000KT 10SM BKN070 OVC079 A2992 RMK MADISHF
PYM,2017-11-03 18:05,-70.7288,41.9090,M,M,M,200.00,9.00,M,29.95,M,10.00,M,CLR,M,M,M,M,M,M,M,M,KPYM 031805Z AUTO 20009KT 10SM CLR A2995 RMK MADISHF
HYA,2017-11-03 18:05,-70.2800,41.6700,M,M,M,210.00,16.00,M,29.96,M,10.00,M,BKN,M,M,M,700.00,M,M,M,M,KHYA 031805Z AUTO 21016KT 10SM BKN007 A2996 RMK MADISHF
OWD,2017-11-03 18:05,-71.1733,42.1912,M,M,M,210.00,14.00,M,29.91,M,10.00,M,CLR,M,M,M,M,M,M,M,M,KOWD 031805Z AUTO 21014KT 10SM CLR A2991 RMK MADISHF
BED,2017-11-03 18:05,-71.2890,42.4699,M,M,M,210.00,13.00,M,29.89,M,10.00,M,CLR,M,M,M,M,M,M,M,M,KBED 031805Z AUTO 21013KT 10SM CLR A2989 RMK MADISHF
BOS,2017-11-03 18:05,-71.0097,42.3606,M,M,M,M,M,M,29.90,M,10.00,M,CLR,M,M,M,M,M,M,M,M,KBOS 031805Z AUTO /////KT 10SM CLR A2990 RMK MADISHF
TAN,2017-11-03 18:10,-71.0211,41.8756,M,M,M,210.00,10.00,M,29.94,M,10.00,M,CLR,M,M,M,M,M,M,M,M,KTAN 031810Z AUTO 21010KT 10SM CLR A2994 RMK MADISHF
FIT,2017-11-03 18:10,-71.7558,42.5519,M,M,M,260.00,10.00,M,29.92,M,10.00,16.00,SCT,BKN,M,M,4200.00,9000.00,M,M,M,KFIT 031810Z AUTO 26010G16KT 10SM SCT042 BKN090 A2992 RMK MADISHF
EWB,2017-11-03 18:10,-70.9583,41.6764,M,M,M,200.00,9.00,M,29.95,M,10.00,M,CLR,M,M,M,M,M,M,M,M,KEWB 031810Z AUTO 20009KT 10SM CLR A2995 RMK MADISHF
BED,2017-11-03 18:10,-71.2890,42.4699,M,M,M,210.00,12.00,M,29.89,M,10.00,M,CLR,M,M,M,M,M,M,M,M,KBED 031810Z AUTO 21012KT 10SM CLR A2989 RMK MADISHF
PYM,2017-11-03 18:10,-70.7288,41.9090,M,M,M,190.00,7.00,M,29.95,M,10.00,M,CLR,M,M,M,M,M,M,M,M,KPYM 031810Z AUTO 19007KT 10SM CLR A2995 RMK MADISHF
ORE,2017-11-03 18:10,-72.2886,42.5701,M,M,M,240.00,4.00,M,29.93,M,10.00,M,FEW,BKN,OVC,M,3500.00,6500.00,7999.00,M,M,KORE 031810Z AUTO 24004KT 10SM FEW035 BKN065 OVC079 A2993 RMK MADISHF
BOS,2017-11-03 18:10,-71.0097,42.3606,M,M,M,M,M,M,29.90,M,10.00,M,CLR,M,M,M,M,M,M,M,M,KBOS 031810Z AUTO /////KT 10SM CLR A2990 RMK MADISHF
CQX,2017-11-03 18:10,-69.9933,41.6875,M,M,M,210.00,7.00,M,29.99,M,3.00,M,OVC,M,M,M,200.00,M,M,M,BR,KCQX 031810Z AUTO 21007KT 3SM BR OVC002 A2999 RMK MADISHF
HYA,2017-11-03 18:10,-70.2800,41.6700,M,M,M,210.00,12.00,M,29.95,M,10.00,M,BKN,M,M,M,700.00,M,M,M,M,KHYA 031810Z AUTO 21012KT 10SM BKN007 A2995 RMK MADISHF
ORH,2017-11-03 18:10,-71.8757,42.2673,M,M,M,M,M,M,29.93,M,10.00,M,CLR,M,M,M,M,M,M,M,M,KORH 031810Z AUTO /////KT 10SM CLR A2993 RMK MADISHF
OWD,2017-11-03 18:10,-71.1733,42.1912,M,M,M,200.00,13.00,M,29.91,M,10.00,M,CLR,M,M,M,M,M,M,M,M,KOWD 031810Z AUTO 20013KT 10SM CLR A2991 RMK MADISHF
PVC,2017-11-03 18:10,-70.2200,42.0700,M,M,M,210.00,15.00,M,29.95,M,10.00,M,M,M,M,M,M,M,M,M,M,KPVC 031810Z AUTO 21015KT 10SM A2995 RMK MADISHF
CQX,2017-11-03 18:15,-69.9933,41.6875,M,M,M,210.00,8.00,M,29.98,M,6.00,M,OVC,M,M,M,200.00,M,M,M,BR,KCQX 031815Z AUTO 21008KT 6SM BR OVC002 A2998 RMK MADISHF
OWD,2017-11-03 18:15,-71.1733,42.1912,M,M,M,200.00,13.00,M,29.91,M,10.00,M,CLR,M,M,M,M,M,M,M,M,KOWD 031815Z AUTO 20013KT 10SM CLR A2991 RMK MADISHF
EWB,2017-11-03 18:15,-70.9583,41.6764,M,M,M,210.00,7.00,M,29.95,M,10.00,M,CLR,M,M,M,M,M,M,M,M,KEWB 031815Z AUTO 21007KT 10SM CLR A2995 RMK MADISHF
TAN,2017-11-03 18:15,-71.0211,41.8756,M,M,M,230.00,9.00,M,29.94,M,10.00,14.00,CLR,M,M,M,M,M,M,M,M,KTAN 031815Z AUTO 23009G14KT 10SM CLR A2994 RMK MADISHF
GHG,2017-11-03 18:15,-70.6721,42.0982,73.40,60.80,64.69,230.00,10.00,0.00,29.92,M,10.00,16.00,CLR,M,M,M,M,M,M,M,M,KGHG 031815Z AUTO 23010G16KT 200V260 10SM CLR 23/16 A2992 RMK AO2
FMH,2017-11-03 18:15,-70.5215,41.6585,64.40,60.80,88.09,230.00,11.00,0.00,29.98,M,10.00,19.00,BKN,OVC,M,M,800.00,1300.00,M,M,M,KFMH 031815Z AUTO 23011G19KT 10SM BKN008 OVC013 18/16 A2998 RMK AO2
BED,2017-11-03 18:15,-71.2890,42.4699,M,M,M,210.00,15.00,M,29.89,M,10.00,20.00,CLR,M,M,M,M,M,M,M,M,KBED 031815Z AUTO 21015G20KT 10SM CLR A2989 RMK MADISHF
BOS,2017-11-03 18:15,-71.0097,42.3606,M,M,M,230.00,17.00,M,29.90,M,10.00,M,CLR,M,M,M,M,M,M,M,M,KBOS 031815Z AUTO 23017KT 10SM CLR A2990 RMK MADISHF
HYA,2017-11-03 18:15,-70.2800,41.6700,M,M,M,210.00,14.00,M,29.95,M,10.00,M,BKN,M,M,M,700.00,M,M,M,M,KHYA 031815Z AUTO 21014KT 10SM BKN007 A2995 RMK MADISHF
ORH,2017-11-03 18:15,-71.8757,42.2673,M,M,M,M,M,M,29.93,M,10.00,M,CLR,M,M,M,M,M,M,M,M,KORH 031815Z AUTO /////KT 10SM CLR A2993 RMK MADISHF
PYM,2017-11-03 18:15,-70.7288,41.9090,M,M,M,210.00,10.00,M,29.95,M,10.00,M,CLR,M,M,M,M,M,M,M,M,KPYM 031815Z AUTO 21010KT 10SM CLR A2995 RMK MADISHF
ORE,2017-11-03 18:15,-72.2886,42.5701,M,M,M,240.00,5.00,M,29.93,M,10.00,M,FEW,BKN,OVC,M,3500.00,6500.00,7999.00,M,M,KORE 031815Z AUTO 24005KT 10SM FEW035 BKN065 OVC079 A2993 RMK MADISHF
PVC,2017-11-03 18:15,-70.2200,42.0700,M,M,M,200.00,14.00,M,29.95,M,10.00,M,M,M,M,M,M,M,M,M,M,KPVC 031815Z AUTO 20014KT 10SM A2995 RMK MADISHF
TAN,2017-11-03 18:20,-71.0211,41.8756,M,M,M,210.00,11.00,M,29.94,M,10.00,M,CLR,M,M,M,M,M,M,M,M,KTAN 031820Z AUTO 21011KT 10SM CLR A2994 RMK MADISHF
BOS,2017-11-03 18:20,-71.0097,42.3606,M,M,M,M,M,M,29.90,M,10.00,M,CLR,M,M,M,M,M,M,M,M,KBOS 031820Z AUTO /////KT 10SM CLR A2990 RMK MADISHF
BED,2017-11-03 18:20,-71.2890,42.4699,M,M,M,220.00,13.00,M,29.89,M,10.00,M,CLR,M,M,M,M,M,M,M,M,KBED 031820Z AUTO 22013KT 10SM CLR A2989 RMK MADISHF
FIT,2017-11-03 18:20,-71.7558,42.5519,M,M,M,240.00,7.00,M,29.91,M,10.00,M,SCT,BKN,BKN,M,4200.00,5000.00,9500.00,M,M,KFIT 031820Z AUTO 24007KT 10SM SCT042 BKN050 BKN095 A2991 RMK WND 21V27  MADISHF
EWB,2017-11-03 18:20,-70.9583,41.6764,M,M,M,200.00,9.00,M,29.95,M,10.00,M,CLR,M,M,M,M,M,M,M,M,KEWB 031820Z AUTO 20009KT 10SM CLR A2995 RMK MADISHF
PVC,2017-11-03 18:20,-70.2200,42.0700,M,M,M,200.00,13.00,M,29.95,M,10.00,M,M,M,M,M,M,M,M,M,M,KPVC 031820Z AUTO 20013KT 10SM A2995 RMK MADISHF
CQX,2017-11-03 18:20,-69.9933,41.6875,M,M,M,210.00,8.00,M,29.98,M,9.00,M,OVC,M,M,M,200.00,M,M,M,M,KCQX 031820Z AUTO 21008KT 9SM OVC002 A2998 RMK MADISHF
PYM,2017-11-03 18:20,-70.7288,41.9090,M,M,M,210.00,11.00,M,29.94,M,10.00,M,CLR,M,M,M,M,M,M,M,M,KPYM 031820Z AUTO 21011KT 10SM CLR A2994 RMK MADISHF
ORH,2017-11-03 18:20,-71.8757,42.2673,M,M,M,M,M,M,29.93,M,10.00,M,CLR,M,M,M,M,M,M,M,M,KORH 031820Z AUTO /////KT 10SM CLR A2993 RMK MADISHF
HYA,2017-11-03 18:20,-70.2800,41.6700,M,M,M,210.00,13.00,M,29.95,M,9.00,M,BKN,M,M,M,700.00,M,M,M,M,KHYA 031820Z AUTO 21013KT 9SM BKN007 A2995 RMK MADISHF
ORE,2017-11-03 18:20,-72.2886,42.5701,M,M,M,240.00,5.00,M,29.92,M,10.00,M,SCT,BKN,OVC,M,3300.00,6000.00,7500.00,M,M,KORE 031820Z AUTO 24005KT 10SM SCT033 BKN060 OVC075 A2992 RMK MADISHF
OWD,2017-11-03 18:20,-71.1733,42.1912,M,M,M,210.00,10.00,M,29.90,M,10.00,M,CLR,M,M,M,M,M,M,M,M,KOWD 031820Z AUTO 21010KT 10SM CLR A2990 RMK MADISHF
PVC,2017-11-03 18:25,-70.2200,42.0700,M,M,M,200.00,11.00,M,29.95,M,10.00,16.00,M,M,M,M,M,M,M,M,M,KPVC 031825Z AUTO 20011G16KT 10SM A2995 RMK MADISHF
TAN,2017-11-03 18:25,-71.0211,41.8756,M,M,M,200.00,9.00,M,29.93,M,10.00,M,CLR,M,M,M,M,M,M,M,M,KTAN 031825Z AUTO 20009KT 10SM CLR A2993 RMK MADISHF
PYM,2017-11-03 18:25,-70.7288,41.9090,M,M,M,210.00,8.00,M,29.94,M,10.00,M,CLR,M,M,M,M,M,M,M,M,KPYM 031825Z AUTO 21008KT 10SM CLR A2994 RMK MADISHF
BOS,2017-11-03 18:25,-71.0097,42.3606,M,M,M,M,M,M,29.90,M,10.00,M,CLR,M,M,M,M,M,M,M,M,KBOS 031825Z AUTO /////KT 10SM CLR A2990 RMK MADISHF
BED,2017-11-03 18:25,-71.2890,42.4699,M,M,M,210.00,11.00,M,29.88,M,10.00,M,CLR,M,M,M,M,M,M,M,M,KBED 031825Z AUTO 21011KT 10SM CLR A2988 RMK MADISHF
EWB,2017-11-03 18:25,-70.9583,41.6764,M,M,M,210.00,10.00,M,29.95,M,10.00,M,CLR,M,M,M,M,M,M,M,M,KEWB 031825Z AUTO 21010KT 10SM CLR A2995 RMK MADISHF
ORH,2017-11-03 18:25,-71.8757,42.2673,M,M,M,220.00,12.00,M,29.93,M,10.00,19.00,FEW,FEW,M,M,3900.00,9000.00,M,M,M,KORH 031825Z AUTO 22012G19KT 10SM FEW039 FEW090 A2993 RMK MADISHF
CQX,2017-11-03 18:25,-69.9933,41.6875,M,M,M,220.00,8.00,M,29.98,M,10.00,M,OVC,M,M,M,200.00,M,M,M,M,KCQX 031825Z AUTO 22008KT 10SM OVC002 A2998 RMK MADISHF
ORE,2017-11-03 18:25,-72.2886,42.5701,M,M,M,250.00,5.00,M,29.93,M,10.00,M,FEW,BKN,OVC,M,2800.00,4300.00,7999.00,M,M,KORE 031825Z AUTO 25005KT 10SM FEW028 BKN043 OVC079 A2993 RMK MADISHF
FIT,2017-11-03 18:25,-71.7558,42.5519,M,M,M,M,M,M,29.91,M,10.00,18.00,FEW,BKN,OVC,M,4200.00,4800.00,9500.00,M,M,KFIT 031825Z AUTO /////G18KT 10SM FEW042 BKN048 OVC095 A2991 RMK MADISHF
HYA,2017-11-03 18:25,-70.2800,41.6700,M,M,M,210.00,13.00,M,29.95,M,9.00,M,BKN,M,M,M,700.00,M,M,M,M,KHYA 031825Z AUTO 21013KT 9SM BKN007 A2995 RMK MADISHF
OWD,2017-11-03 18:25,-71.1733,42.1912,M,M,M,210.00,12.00,M,29.90,M,10.00,M,CLR,M,M,M,M,M,M,M,M,KOWD 031825Z AUTO 21012KT 10SM CLR A2990 RMK MADISHF
FIT,2017-11-03 18:30,-71.7558,42.5519,M,M,M,240.00,10.00,M,29.91,M,10.00,15.00,BKN,OVC,M,M,4600.00,9000.00,M,M,M,KFIT 031830Z AUTO 24010G15KT 10SM BKN046 OVC090 A2991 RMK MADISHF
BOS,2017-11-03 18:30,-71.0097,42.3606,M,M,M,220.00,17.00,M,29.90,M,10.00,M,CLR,M,M,M,M,M,M,M,M,KBOS 031830Z AUTO 22017KT 10SM CLR A2990 RMK MADISHF
PYM,2017-11-03 18:30,-70.7288,41.9090,M,M,M,200.00,7.00,M,29.94,M,10.00,M,CLR,M,M,M,M,M,M,M,M,KPYM 031830Z AUTO 20007KT 10SM CLR A2994 RMK MADISHF
ORH,2017-11-03 18:30,-71.8757,42.2673,M,M,M,M,M,M,29.93,M,10.00,M,FEW,SCT,M,M,3700.00,9000.00,M,M,M,KORH 031830Z AUTO /////KT 10SM FEW037 SCT090 A2993 RMK MADISHF
PVC,2017-11-03 18:30,-70.2200,42.0700,M,M,M,200.00,14.00,M,29.95,M,10.00,M,M,M,M,M,M,M,M,M,M,KPVC 031830Z AUTO 20014KT 10SM A2995 RMK MADISHF
BED,2017-11-03 18:30,-71.2890,42.4699,M,M,M,220.00,12.00,M,29.88,M,10.00,M,CLR,M,M,M,M,M,M,M,M,KBED 031830Z AUTO 22012KT 10SM CLR A2988 RMK MADISHF
HYA,2017-11-03 18:30,-70.2800,41.6700,M,M,M,220.00,16.00,M,29.95,M,8.00,M,BKN,M,M,M,700.00,M,M,M,M,KHYA 031830Z AUTO 22016KT 8SM BKN007 A2995 RMK MADISHF
OWD,2017-11-03 18:30,-71.1733,42.1912,M,M,M,200.00,8.00,M,29.90,M,10.00,M,CLR,M,M,M,M,M,M,M,M,KOWD 031830Z AUTO 20008KT 10SM CLR A2990 RMK MADISHF
EWB,2017-11-03 18:30,-70.9583,41.6764,M,M,M,210.00,9.00,M,29.95,M,10.00,M,CLR,M,M,M,M,M,M,M,M,KEWB 031830Z AUTO 21009KT 10SM CLR A2995 RMK MADISHF
CQX,2017-11-03 18:30,-69.9933,41.6875,M,M,M,220.00,8.00,M,29.98,M,9.00,M,OVC,M,M,M,200.00,M,M,M,M,KCQX 031830Z AUTO 22008KT 9SM OVC002 A2998 RMK MADISHF
ORE,2017-11-03 18:30,-72.2886,42.5701,M,M,M,240.00,5.00,M,29.93,M,10.00,M,SCT,BKN,OVC,M,3300.00,4200.00,6000.00,M,M,KORE 031830Z AUTO 24005KT 10SM SCT033 BKN042 OVC060 A2993 RMK MADISHF
BED,2017-11-03 18:34,-71.2890,42.4699,75.00,57.00,53.52,220.00,16.00,0.00,29.88,M,10.00,21.00,SCT,SCT,M,M,2000.00,20000.00,M,M,M,KBED 031834Z 22016G21KT 10SM SCT020 SCT200 24/14 A2988 RMK AO2 T02390139
GHG,2017-11-03 18:35,-70.6721,42.0982,75.20,60.80,60.90,230.00,10.00,0.00,29.91,M,10.00,18.00,CLR,M,M,M,M,M,M,M,M,KGHG 031835Z AUTO 23010G18KT 10SM CLR 24/16 A2991 RMK AO2
PYM,2017-11-03 18:35,-70.7288,41.9090,M,M,M,210.00,8.00,M,29.94,M,10.00,M,CLR,M,M,M,M,M,M,M,M,KPYM 031835Z AUTO 21008KT 10SM CLR A2994 RMK MADISHF
ORE,2017-11-03 18:35,-72.2886,42.5701,M,M,M,240.00,7.00,M,29.93,M,10.00,M,FEW,BKN,OVC,M,2800.00,3700.00,5500.00,M,M,KORE 031835Z AUTO 24007KT 10SM FEW028 BKN037 OVC055 A2993 RMK MADISHF
FMH,2017-11-03 18:35,-70.5215,41.6585,64.40,60.80,88.09,230.00,13.00,0.00,29.97,M,10.00,19.00,BKN,M,M,M,600.00,M,M,M,M,KFMH 031835Z AUTO 23013G19KT 10SM BKN006 18/16 A2997 RMK AO2
BED,2017-11-03 18:35,-71.2890,42.4699,M,M,M,M,M,M,29.88,M,10.00,M,SCT,M,M,M,1999.00,M,M,M,M,KBED 031835Z AUTO /////KT 10SM SCT019 A2988 RMK MADISHF
OWD,2017-11-03 18:35,-71.1733,42.1912,M,M,M,220.00,14.00,M,29.90,M,10.00,M,CLR,M,M,M,M,M,M,M,M,KOWD 031835Z AUTO 22014KT 10SM CLR A2990 RMK MADISHF
BOS,2017-11-03 18:35,-71.0097,42.3606,M,M,M,220.00,18.00,M,29.90,M,10.00,M,CLR,M,M,M,M,M,M,M,M,KBOS 031835Z AUTO 22018KT 10SM CLR A2990 RMK MADISHF
EWB,2017-11-03 18:35,-70.9583,41.6764,M,M,M,200.00,10.00,M,29.95,M,10.00,M,CLR,M,M,M,M,M,M,M,M,KEWB 031835Z AUTO 20010KT 10SM CLR A2995 RMK MADISHF
CQX,2017-11-03 18:35,-69.9933,41.6875,M,M,M,210.00,7.00,M,29.98,M,7.00,M,OVC,M,M,M,200.00,M,M,M,M,KCQX 031835Z AUTO 21007KT 7SM OVC002 A2998 RMK MADISHF
ORH,2017-11-03 18:35,-71.8757,42.2673,M,M,M,M,M,M,29.93,M,10.00,M,SCT,SCT,M,M,3700.00,9000.00,M,M,M,KORH 031835Z AUTO /////KT 10SM SCT037 SCT090 A2993 RMK MADISHF
HYA,2017-11-03 18:35,-70.2800,41.6700,M,M,M,210.00,12.00,M,29.95,M,8.00,M,BKN,M,M,M,700.00,M,M,M,M,KHYA 031835Z AUTO 21012KT 8SM BKN007 A2995 RMK MADISHF
PVC,2017-11-03 18:35,-70.2200,42.0700,M,M,M,210.00,13.00,M,29.95,M,10.00,M,M,M,M,M,M,M,M,M,M,KPVC 031835Z AUTO 21013KT 10SM A2995 RMK MADISHF
TAN,2017-11-03 18:35,-71.0211,41.8756,M,M,M,220.00,8.00,M,29.93,M,10.00,M,CLR,M,M,M,M,M,M,M,M,KTAN 031835Z AUTO 22008KT 10SM CLR A2993 RMK MADISHF
CQX,2017-11-03 18:40,-69.9933,41.6875,M,M,M,220.00,7.00,M,29.98,M,5.00,M,OVC,M,M,M,200.00,M,M,M,BR,KCQX 031840Z AUTO 22007KT 5SM BR OVC002 A2998 RMK MADISHF
EWB,2017-11-03 18:40,-70.9583,41.6764,M,M,M,M,M,M,29.95,M,9.00,M,CLR,M,M,M,M,M,M,M,M,KEWB 031840Z AUTO /////KT 9SM CLR A2995 RMK MADISHF
BED,2017-11-03 18:40,-71.2890,42.4699,M,M,M,220.00,10.00,M,29.88,M,10.00,M,SCT,M,M,M,1999.00,M,M,M,M,KBED 031840Z AUTO 22010KT 10SM SCT019 A2988 RMK MADISHF
ORH,2017-11-03 18:40,-71.8757,42.2673,M,M,M,M,M,M,29.93,M,10.00,M,BKN,BKN,M,M,3700.00,9000.00,M,M,M,KORH 031840Z AUTO /////KT 10SM BKN037 BKN090 A2993 RMK MADISHF
HYA,2017-11-03 18:40,-70.2800,41.6700,M,M,M,210.00,12.00,M,29.95,M,8.00,M,BKN,M,M,M,700.00,M,M,M,M,KHYA 031840Z AUTO 21012KT 8SM BKN007 A2995 RMK MADISHF
PVC,2017-11-03 18:40,-70.2200,42.0700,M,M,M,200.00,15.00,M,29.95,M,10.00,M,M,M,M,M,M,M,M,M,M,KPVC 031840Z AUTO 20015KT 10SM A2995 RMK MADISHF
TAN,2017-11-03 18:40,-71.0211,41.8756,M,M,M,210.00,10.00,M,29.93,M,10.00,M,CLR,M,M,M,M,M,M,M,M,KTAN 031840Z AUTO 21010KT 10SM CLR A2993 RMK MADISHF
PYM,2017-11-03 18:40,-70.7288,41.9090,M,M,M,210.00,8.00,M,29.93,M,10.00,M,CLR,M,M,M,M,M,M,M,M,KPYM 031840Z AUTO 21008KT 10SM CLR A2993 RMK MADISHF
ORE,2017-11-03 18:40,-72.2886,42.5701,M,M,M,230.00,4.00,M,29.93,M,10.00,M,FEW,OVC,M,M,2800.00,3700.00,M,M,M,KORE 031840Z AUTO 23004KT 10SM FEW028 OVC037 A2993 RMK MADISHF
OWD,2017-11-03 18:40,-71.1733,42.1912,M,M,M,190.00,11.00,M,29.90,M,10.00,16.00,CLR,M,M,M,M,M,M,M,M,KOWD 031840Z AUTO 19011G16KT 10SM CLR A2990 RMK MADISHF
BOS,2017-11-03 18:40,-71.0097,42.3606,M,M,M,220.00,17.00,M,29.89,M,10.00,M,CLR,M,M,M,M,M,M,M,M,KBOS 031840Z AUTO 22017KT 10SM CLR A2989 RMK MADISHF
FIT,2017-11-03 18:40,-71.7558,42.5519,M,M,M,230.00,7.00,M,29.91,M,10.00,M,SCT,BKN,OVC,M,4100.00,5000.00,9000.00,M,M,KFIT 031840Z AUTO 23007KT 10SM SCT041 BKN050 OVC090 A2991 RMK MADISHF
PVC,2017-11-03 18:45,-70.2200,42.0700,M,M,M,210.00,14.00,M,29.94,M,10.00,M,M,M,M,M,M,M,M,M,M,KPVC 031845Z AUTO 21014KT 10SM A2994 RMK MADISHF
FIT,2017-11-03 18:45,-71.7558,42.5519,M,M,M,240.00,6.00,M,29.91,M,10.00,M,FEW,BKN,OVC,M,4100.00,7999.00,9000.00,M,M,KFIT 031845Z AUTO 24006KT 10SM FEW041 BKN079 OVC090 A2991 RMK MADISHF
BED,2017-11-03 18:45,-71.2890,42.4699,M,M,M,230.00,11.00,M,29.88,M,10.00,M,SCT,M,M,M,2500.00,M,M,M,M,KBED 031845Z AUTO 23011KT 10SM SCT025 A2988 RMK MADISHF
HYA,2017-11-03 18:45,-70.2800,41.6700,M,M,M,210.00,11.00,M,29.95,M,8.00,M,BKN,M,M,M,700.00,M,M,M,M,KHYA 031845Z AUTO 21011KT 8SM BKN007 A2995 RMK MADISHF
OWD,2017-11-03 18:45,-71.1733,42.1912,M,M,M,210.00,12.00,M,29.89,M,10.00,17.00,CLR,M,M,M,M,M,M,M,M,KOWD 031845Z AUTO 21012G17KT 10SM CLR A2989 RMK MADISHF
CQX,2017-11-03 18:45,-69.9933,41.6875,M,M,M,230.00,7.00,M,29.98,M,5.00,M,OVC,M,M,M,200.00,M,M,M,BR,KCQX 031845Z AUTO 23007KT 5SM BR OVC002 A2998 RMK MADISHF
TAN,2017-11-03 18:45,-71.0211,41.8756,M,M,M,210.00,11.00,M,29.93,M,10.00,M,CLR,M,M,M,M,M,M,M,M,KTAN 031845Z AUTO 21011KT 10SM CLR A2993 RMK WND 15V24  MADISHF
ORE,2017-11-03 18:45,-72.2886,42.5701,M,M,M,230.00,4.00,M,29.93,M,10.00,M,FEW,OVC,M,M,2800.00,3700.00,M,M,M,KORE 031845Z AUTO 23004KT 10SM FEW028 OVC037 A2993 RMK MADISHF
BOS,2017-11-03 18:45,-71.0097,42.3606,M,M,M,220.00,14.00,M,29.89,M,10.00,M,FEW,M,M,M,3500.00,M,M,M,M,KBOS 031845Z AUTO 22014KT 10SM FEW035 A2989 RMK MADISHF
EWB,2017-11-03 18:45,-70.9583,41.6764,M,M,M,M,M,M,29.94,M,8.00,M,CLR,M,M,M,M,M,M,M,M,KEWB 031845Z AUTO /////KT 8SM CLR A2994 RMK MADISHF
ORH,2017-11-03 18:45,-71.8757,42.2673,M,M,M,M,M,M,29.93,M,10.00,M,BKN,BKN,BKN,M,3500.00,5000.00,9000.00,M,M,KORH 031845Z AUTO /////KT 10SM BKN035 BKN050 BKN090 A2993 RMK MADISHF
PYM,2017-11-03 18:45,-70.7288,41.9090,M,M,M,210.00,9.00,M,29.93,M,10.00,M,CLR,M,M,M,M,M,M,M,M,KPYM 031845Z AUTO 21009KT 10SM CLR A2993 RMK MADISHF
ORE,2017-11-03 18:50,-72.2886,42.5701,M,M,M,220.00,6.00,M,29.93,M,10.00,M,OVC,M,M,M,3600.00,M,M,M,M,KORE 031850Z AUTO 22006KT 10SM OVC036 A2993 RMK MADISHF
BOS,2017-11-03 18:50,-71.0097,42.3606,M,M,M,210.00,14.00,M,29.89,M,10.00,M,FEW,M,M,M,3500.00,M,M,M,M,KBOS 031850Z AUTO 21014KT 10SM FEW035 A2989 RMK MADISHF
ORH,2017-11-03 18:50,-71.8757,42.2673,M,M,M,240.00,12.00,M,29.93,M,10.00,18.00,BKN,BKN,BKN,M,3700.00,5000.00,9000.00,M,M,KORH 031850Z AUTO 24012G18KT 10SM BKN037 BKN050 BKN090 A2993 RMK MADISHF
FIT,2017-11-03 18:50,-71.7558,42.5519,M,M,M,250.00,5.00,M,29.91,M,10.00,M,SCT,BKN,OVC,M,4100.00,5500.00,9000.00,M,M,KFIT 031850Z AUTO 25005KT 10SM SCT041 BKN055 OVC090 A2991 RMK MADISHF
PVC,2017-11-03 18:50,-70.2200,42.0700,M,M,M,200.00,13.00,M,29.94,M,10.00,M,M,M,M,M,M,M,M,M,M,KPVC 031850Z AUTO 20013KT 10SM A2994 RMK MADISHF
BED,2017-11-03 18:50,-71.2890,42.4699,M,M,M,220.00,12.00,M,29.88,M,10.00,M,SCT,M,M,M,2500.00,M,M,M,M,KBED 031850Z AUTO 22012KT 10SM SCT025 A2988 RMK MADISHF
HYA,2017-11-03 18:50,-70.2800,41.6700,M,M,M,210.00,12.00,M,29.95,M,9.00,M,BKN,M,M,M,700.00,M,M,M,M,KHYA 031850Z AUTO 21012KT 9SM BKN007 A2995 RMK MADISHF
OWD,2017-11-03 18:50,-71.1733,42.1912,M,M,M,200.00,11.00,M,29.89,M,10.00,M,FEW,M,M,M,4700.00,M,M,M,M,KOWD 031850Z AUTO 20011KT 10SM FEW047 A2989 RMK MADISHF
EWB,2017-11-03 18:50,-70.9583,41.6764,M,M,M,210.00,12.00,M,29.94,M,8.00,M,CLR,M,M,M,M,M,M,M,M,KEWB 031850Z AUTO 21012KT 8SM CLR A2994 RMK MADISHF
CQX,2017-11-03 18:50,-69.9933,41.6875,M,M,M,230.00,6.00,M,29.98,M,6.00,M,OVC,M,M,M,200.00,M,M,M,BR,KCQX 031850Z AUTO 23006KT 6SM BR OVC002 A2998 RMK VRB06G16KT  MADISHF
TAN,2017-11-03 18:50,-71.0211,41.8756,M,M,M,190.00,7.00,M,29.92,M,10.00,M,CLR,M,M,M,M,M,M,M,M,KTAN 031850Z AUTO 19007KT 10SM CLR A2992 RMK WND 16V24  MADISHF
CQX,2017-11-03 18:52,-69.9933,41.6875,62.10,61.00,96.18,230.00,7.00,0.00,29.98,1015.20,6.00,16.00,OVC,M,M,M,200.00,M,M,M,BR,KCQX 031852Z AUTO 23007G16KT 6SM BR OVC002 17/16 A2998 RMK AO2 SLP152 T01670161
TAN,2017-11-03 18:52,-71.0211,41.8756,73.00,59.00,61.50,M,6.00,0.00,29.92,1013.30,10.00,15.00,CLR,M,M,M,M,M,M,M,M,KTAN 031852Z AUTO VRB06G15KT 10SM CLR 23/15 A2992 RMK AO2 SLP133 T02280150
PYM,2017-11-03 18:52,-70.7288,41.9090,71.10,61.00,70.42,220.00,8.00,0.00,29.93,1013.60,10.00,M,CLR,M,M,M,M,M,M,M,M,KPYM 031852Z AUTO 22008KT 10SM CLR 22/16 A2993 RMK AO2 SLP136 T02170161
ORE,2017-11-03 18:52,-72.2886,42.5701,66.00,60.10,81.27,240.00,5.00,0.00,29.93,1013.40,10.00,M,OVC,M,M,M,3600.00,M,M,M,M,KORE 031852Z AUTO 24005KT 10SM OVC036 19/16 A2993 RMK AO2 SLP134 T01890156 TSNO
FIT,2017-11-03 18:52,-71.7558,42.5519,73.90,59.00,59.66,250.00,4.00,0.00,29.91,1012.70,10.00,M,SCT,BKN,OVC,M,4100.00,5500.00,9000.00,M,M,KFIT 031852Z AUTO 25004KT 10SM SCT041 BKN055 OVC090 23/15 A2991 RMK AO2 SLP127 T02330150
EWB,2017-11-03 18:53,-70.9583,41.6764,68.00,60.10,75.84,210.00,10.00,0.00,29.94,1013.80,9.00,M,CLR,M,M,M,M,M,M,M,M,KEWB 031853Z 21010KT 9SM CLR 20/16 A2994 RMK AO2 SLP138 T02000156
OWD,2017-11-03 18:53,-71.1733,42.1912,78.10,59.00,51.88,210.00,14.00,0.00,29.89,1012.20,10.00,20.00,FEW,M,M,M,4700.00,M,M,M,M,KOWD 031853Z 21014G20KT 10SM FEW047 26/15 A2989 RMK AO2 SLP122 T02560150
ORH,2017-11-03 18:54,-71.8757,42.2673,69.10,55.00,60.78,240.00,10.00,0.00,29.93,1013.20,10.00,18.00,BKN,OVC,M,M,3500.00,4800.00,M,M,M,KORH 031854Z 24010G18KT 10SM BKN035 OVC048 21/13 A2993 RMK AO2 SLP132 T02060128
BOS,2017-11-03 18:54,-71.0097,42.3606,73.90,57.90,57.36,230.00,14.00,0.00,29.89,1012.00,10.00,21.00,FEW,FEW,BKN,BKN,3200.00,13000.00,20000.00,32000.00,M,KBOS 031854Z 23014G21KT 10SM FEW032 FEW130 BKN200 BKN320 23/14 A2989 RMK AO2 SLP120 T02330144
FMH,2017-11-03 18:55,-70.5215,41.6585,62.60,60.80,93.83,230.00,14.00,0.00,29.97,M,10.00,19.00,OVC,M,M,M,600.00,M,M,M,M,KFMH 031855Z AUTO 23014G19KT 10SM OVC006 17/16 A2997 RMK AO2
GHG,2017-11-03 18:55,-70.6721,42.0982,75.20,60.80,60.90,230.00,9.00,0.00,29.91,M,10.00,18.00,CLR,M,M,M,M,M,M,M,M,KGHG 031855Z AUTO 23009G18KT 10SM CLR 24/16 A2991 RMK AO2
TAN,2017-11-03 18:55,-71.0211,41.8756,M,M,M,210.00,10.00,M,29.92,M,10.00,15.00,CLR,M,M,M,M,M,M,M,M,KTAN 031855Z AUTO 21010G15KT 10SM CLR A2992 RMK MADISHF
PVC,2017-11-03 18:55,-70.2200,42.0700,M,M,M,200.00,13.00,M,29.94,M,10.00,M,M,M,M,M,M,M,M,M,M,KPVC 031855Z AUTO 20013KT 10SM A2994 RMK MADISHF
CQX,2017-11-03 18:55,-69.9933,41.6875,M,M,M,220.00,9.00,M,29.98,M,6.00,M,OVC,M,M,M,200.00,M,M,M,BR,KCQX 031855Z AUTO 22009KT 6SM BR OVC002 A2998 RMK MADISHF
PYM,2017-11-03 18:55,-70.7288,41.9090,M,M,M,190.00,8.00,M,29.93,M,10.00,M,CLR,M,M,M,M,M,M,M,M,KPYM 031855Z AUTO 19008KT 10SM CLR A2993 RMK MADISHF
BOS,2017-11-03 18:55,-71.0097,42.3606,M,M,M,220.00,12.00,M,29.89,M,10.00,M,CLR,M,M,M,M,M,M,M,M,KBOS 031855Z AUTO 22012KT 10SM CLR A2989 RMK MADISHF
ORH,2017-11-03 18:55,-71.8757,42.2673,M,M,M,250.00,10.00,M,29.93,M,10.00,M,BKN,OVC,M,M,3500.00,4800.00,M,M,M,KORH 031855Z AUTO 25010KT 10SM BKN035 OVC048 A2993 RMK MADISHF
BED,2017-11-03 18:55,-71.2890,42.4699,M,M,M,230.00,11.00,M,29.88,M,10.00,M,BKN,M,M,M,2500.00,M,M,M,M,KBED 031855Z AUTO 23011KT 10SM BKN025 A2988 RMK MADISHF
OWD,2017-11-03 18:55,-71.1733,42.1912,M,M,M,200.00,10.00,M,29.89,M,10.00,M,FEW,M,M,M,4700.00,M,M,M,M,KOWD 031855Z AUTO 20010KT 10SM FEW047 A2989 RMK MADISHF
EWB,2017-11-03 18:55,-70.9583,41.6764,M,M,M,210.00,11.00,M,29.94,M,10.00,M,CLR,M,M,M,M,M,M,M,M,KEWB 031855Z AUTO 21011KT 10SM CLR A2994 RMK MADISHF
HYA,2017-11-03 18:55,-70.2800,41.6700,M,M,M,220.00,12.00,M,29.95,M,10.00,M,BKN,M,M,M,700.00,M,M,M,M,KHYA 031855Z AUTO 22012KT 10SM BKN007 A2995 RMK MADISHF
PVC,2017-11-03 18:56,-70.2200,42.0700,63.00,59.00,86.77,200.00,13.00,0.00,29.94,1013.90,10.00,M,M,M,M,M,M,M,M,M,M,KPVC 031856Z AUTO 20013KT 10SM 17/15 A2994 RMK AO2 SLP139 T01720150 $
HYA,2017-11-03 18:56,-70.2800,41.6700,64.90,61.00,87.18,220.00,12.00,0.00,29.94,1014.10,10.00,M,BKN,M,M,M,700.00,M,M,M,M,KHYA 031856Z 22012KT 10SM BKN007 18/16 A2994 RMK AO2 SLP141 T01830161
MQE,2017-11-03 18:56,-71.1142,42.2121,73.00,55.90,55.00,220.00,13.00,0.00,29.91,1013.50,M,21.00,M,M,M,M,M,M,M,M,M,KMQE 031856Z AUTO 22013G21KT 23/13 A2991 RMK AO1 PK WND 20028/1757 SLP135 T02280133
BED,2017-11-03 18:56,-71.2890,42.4699,75.90,57.00,51.93,230.00,11.00,0.00,29.88,1013.10,10.00,17.00,BKN,BKN,M,M,2500.00,20000.00,M,M,M,KBED 031856Z 23011G17KT 10SM BKN025 BKN200 24/14 A2988 RMK AO2 SLP131 T02440139
EWB,2017-11-03 19:00,-70.9583,41.6764,M,M,M,200.00,11.00,M,29.94,M,10.00,M,CLR,M,M,M,M,M,M,M,M,KEWB 031900Z AUTO 20011KT 10SM CLR A2994 RMK MADISHF
OWD,2017-11-03 19:00,-71.1733,42.1912,M,M,M,210.00,10.00,M,29.89,M,10.00,M,FEW,M,M,M,4700.00,M,M,M,M,KOWD 031900Z AUTO 21010KT 10SM FEW047 A2989 RMK MADISHF
CQX,2017-11-03 19:00,-69.9933,41.6875,M,M,M,220.00,9.00,M,29.98,M,5.00,M,OVC,M,M,M,200.00,M,M,M,BR,KCQX 031900Z AUTO 22009KT 5SM BR OVC002 A2998 RMK MADISHF
PYM,2017-11-03 19:00,-70.7288,41.9090,M,M,M,200.00,10.00,M,29.93,M,10.00,M,CLR,M,M,M,M,M,M,M,M,KPYM 031900Z AUTO 20010KT 10SM CLR A2993 RMK MADISHF
HYA,2017-11-03 19:00,-70.2800,41.6700,M,M,M,220.00,12.00,M,29.95,M,10.00,M,BKN,M,M,M,600.00,M,M,M,M,KHYA 031900Z AUTO 22012KT 10SM BKN006 A2995 RMK MADISHF
FIT,2017-11-03 19:00,-71.7558,42.5519,M,M,M,230.00,10.00,M,29.92,M,10.00,M,FEW,BKN,OVC,M,4100.00,5500.00,11000.00,M,M,KFIT 031900Z AUTO 23010KT 10SM FEW041 BKN055 OVC110 A2992 RMK MADISHF
PVC,2017-11-03 19:00,-70.2200,42.0700,M,M,M,200.00,12.00,M,29.94,M,10.00,M,M,M,M,M,M,M,M,M,M,KPVC 031900Z AUTO 20012KT 10SM A2994 RMK MADISHF
TAN,2017-11-03 19:00,-71.0211,41.8756,M,M,M,210.00,10.00,M,29.92,M,10.00,M,CLR,M,M,M,M,M,M,M,M,KTAN 031900Z AUTO 21010KT 10SM CLR A2992 RMK MADISHF
ORE,2017-11-03 19:00,-72.2886,42.5701,M,M,M,230.00,4.00,M,29.93,M,10.00,M,OVC,M,M,M,3600.00,M,M,M,M,KORE 031900Z AUTO 23004KT 10SM OVC036 A2993 RMK MADISHF
BOS,2017-11-03 19:00,-71.0097,42.3606,M,M,M,M,M,M,29.89,M,10.00,M,FEW,M,M,M,3200.00,M,M,M,M,KBOS 031900Z AUTO /////KT 10SM FEW032 A2989 RMK MADISHF
BED,2017-11-03 19:00,-71.2890,42.4699,M,M,M,210.00,11.00,M,29.88,M,10.00,M,BKN,M,M,M,2500.00,M,M,M,M,KBED 031900Z AUTO 21011KT 10SM BKN025 A2988 RMK MADISHF
ORH,2017-11-03 19:00,-71.8757,42.2673,M,M,M,260.00,10.00,M,29.93,M,10.00,M,BKN,OVC,M,M,3500.00,4700.00,M,M,-RA,KORH 031900Z AUTO 26010KT 10SM -RA BKN035 OVC047 A2993 RMK MADISHF
FIT,2017-11-03 19:05,-71.7558,42.5519,M,M,M,240.00,6.00,M,29.92,M,10.00,M,FEW,BKN,OVC,M,3900.00,6000.00,11000.00,M,M,KFIT 031905Z AUTO 24006KT 10SM FEW039 BKN060 OVC110 A2992 RMK MADISHF
BED,2017-11-03 19:05,-71.2890,42.4699,M,M,M,230.00,9.00,M,29.88,M,10.00,M,BKN,M,M,M,2500.00,M,M,M,M,KBED 031905Z AUTO 23009KT 10SM BKN025 A2988 RMK MADISHF
PYM,2017-11-03 19:05,-70.7288,41.9090,M,M,M,210.00,10.00,M,29.93,M,10.00,M,CLR,M,M,M,M,M,M,M,M,KPYM 031905Z AUTO 21010KT 10SM CLR A2993 RMK MADISHF
TAN,2017-11-03 19:05,-71.0211,41.8756,M,M,M,210.00,9.00,M,29.92,M,10.00,M,CLR,M,M,M,M,M,M,M,M,KTAN 031905Z AUTO 21009KT 10SM CLR A2992 RMK MADISHF
PVC,2017-11-03 19:05,-70.2200,42.0700,M,M,M,200.00,12.00,M,29.94,M,10.00,M,M,M,M,M,M,M,M,M,M,KPVC 031905Z AUTO 20012KT 10SM A2994 RMK MADISHF
EWB,2017-11-03 19:05,-70.9583,41.6764,M,M,M,210.00,10.00,M,29.94,M,10.00,M,CLR,M,M,M,M,M,M,M,M,KEWB 031905Z AUTO 21010KT 10SM CLR A2994 RMK MADISHF
ORE,2017-11-03 19:05,-72.2886,42.5701,M,M,M,240.00,4.00,M,29.93,M,10.00,M,OVC,M,M,M,3399.00,M,M,M,M,KORE 031905Z AUTO 24004KT 10SM OVC033 A2993 RMK MADISHF
HYA,2017-11-03 19:05,-70.2800,41.6700,M,M,M,220.00,13.00,M,29.94,M,10.00,M,BKN,M,M,M,600.00,M,M,M,M,KHYA 031905Z AUTO 22013KT 10SM BKN006 A2994 RMK MADISHF
OWD,2017-11-03 19:05,-71.1733,42.1912,M,M,M,190.00,14.00,M,29.89,M,10.00,M,FEW,M,M,M,4700.00,M,M,M,M,KOWD 031905Z AUTO 19014KT 10SM FEW047 A2989 RMK MADISHF
BOS,2017-11-03 19:05,-71.0097,42.3606,M,M,M,230.00,14.00,M,29.89,M,10.00,M,FEW,M,M,M,3200.00,M,M,M,M,KBOS 031905Z AUTO 23014KT 10SM FEW032 A2989 RMK MADISHF
ORH,2017-11-03 19:05,-71.8757,42.2673,M,M,M,M,M,M,29.94,M,10.00,M,BKN,OVC,M,M,3500.00,4500.00,M,M,-RA,KORH 031905Z AUTO /////KT 10SM -RA BKN035 OVC045 A2994 RMK MADISHF
OWD,2017-11-03 19:10,-71.1733,42.1912,M,M,M,180.00,12.00,M,29.89,M,10.00,M,FEW,M,M,M,4700.00,M,M,M,M,KOWD 031910Z AUTO 18012KT 10SM FEW047 A2989 RMK MADISHF
PVC,2017-11-03 19:10,-70.2200,42.0700,M,M,M,200.00,15.00,M,29.94,M,10.00,M,M,M,M,M,M,M,M,M,M,KPVC 031910Z AUTO 20015KT 10SM A2994 RMK MADISHF
CQX,2017-11-03 19:10,-69.9933,41.6875,M,M,M,220.00,8.00,M,29.97,M,5.00,M,OVC,M,M,M,200.00,M,M,M,BR,KCQX 031910Z AUTO 22008KT 5SM BR OVC002 A2997 RMK MADISHF
ORH,2017-11-03 19:10,-71.8757,42.2673,M,M,M,250.00,11.00,M,29.93,M,10.00,M,BKN,BKN,OVC,M,3500.00,4100.00,5000.00,M,-RA,KORH 031910Z AUTO 25011KT 10SM -RA BKN035 BKN041 OVC050 A2993 RMK MADISHF
HYA,2017-11-03 19:10,-70.2800,41.6700,M,M,M,220.00,13.00,M,29.94,M,10.00,M,BKN,M,M,M,600.00,M,M,M,M,KHYA 031910Z AUTO 22013KT 10SM BKN006 A2994 RMK MADISHF
PYM,2017-11-03 19:10,-70.7288,41.9090,M,M,M,210.00,12.00,M,29.93,M,10.00,M,CLR,M,M,M,M,M,M,M,M,KPYM 031910Z AUTO 21012KT 10SM CLR A2993 RMK MADISHF
ORE,2017-11-03 19:10,-72.2886,42.5701,M,M,M,250.00,5.00,M,29.93,M,10.00,M,OVC,M,M,M,3399.00,M,M,M,M,KORE 031910Z AUTO 25005KT 10SM OVC033 A2993 RMK MADISHF
FIT,2017-11-03 19:10,-71.7558,42.5519,M,M,M,270.00,9.00,M,29.92,M,10.00,M,SCT,BKN,OVC,M,4800.00,6000.00,10000.00,M,M,KFIT 031910Z AUTO 27009KT 10SM SCT048 BKN060 OVC100 A2992 RMK MADISHF
EWB,2017-11-03 19:10,-70.9583,41.6764,M,M,M,200.00,9.00,M,29.94,M,10.00,M,CLR,M,M,M,M,M,M,M,M,KEWB 031910Z AUTO 20009KT 10SM CLR A2994 RMK MADISHF
BED,2017-11-03 19:10,-71.2890,42.4699,M,M,M,230.00,12.00,M,29.88,M,10.00,17.00,BKN,M,M,M,2500.00,M,M,M,M,KBED 031910Z AUTO 23012G17KT 10SM BKN025 A2988 RMK MADISHF
BOS,2017-11-03 19:10,-71.0097,42.3606,M,M,M,M,M,M,29.89,M,10.00,M,FEW,M,M,M,3200.00,M,M,M,M,KBOS 031910Z AUTO /////KT 10SM FEW032 A2989 RMK MADISHF
ORE,2017-11-03 19:15,-72.2886,42.5701,M,M,M,240.00,5.00,M,29.93,M,10.00,M,OVC,M,M,M,3399.00,M,M,M,M,KORE 031915Z AUTO 24005KT 10SM OVC033 A2993 RMK MADISHF
PVC,2017-11-03 19:15,-70.2200,42.0700,M,M,M,200.00,15.00,M,29.94,M,10.00,M,M,M,M,M,M,M,M,M,M,KPVC 031915Z AUTO 20015KT 10SM A2994 RMK MADISHF
EWB,2017-11-03 19:15,-70.9583,41.6764,M,M,M,200.00,9.00,M,29.93,M,10.00,M,CLR,M,M,M,M,M,M,M,M,KEWB 031915Z AUTO 20009KT 10SM CLR A2993 RMK MADISHF
ORH,2017-11-03 19:15,-71.8757,42.2673,M,M,M,250.00,13.00,M,29.93,M,10.00,M,BKN,BKN,OVC,M,3399.00,4100.00,5000.00,M,-RA,KORH 031915Z AUTO 25013KT 10SM -RA BKN033 BKN041 OVC050 A2993 RMK MADISHF
OWD,2017-11-03 19:15,-71.1733,42.1912,M,M,M,210.00,11.00,M,29.89,M,10.00,M,FEW,M,M,M,4600.00,M,M,M,M,KOWD 031915Z AUTO 21011KT 10SM FEW046 A2989 RMK MADISHF
GHG,2017-11-03 19:15,-70.6721,42.0982,75.20,60.80,60.90,220.00,8.00,0.00,29.90,M,10.00,15.00,CLR,M,M,M,M,M,M,M,M,KGHG 031915Z AUTO 22008G15KT 190V260 10SM CLR 24/16 A2990 RMK AO2
HYA,2017-11-03 19:15,-70.2800,41.6700,M,M,M,220.00,11.00,M,29.94,M,10.00,M,FEW,M,M,M,600.00,M,M,M,M,KHYA 031915Z AUTO 22011KT 10SM FEW006 A2994 RMK MADISHF
BOS,2017-11-03 19:15,-71.0097,42.3606,M,M,M,M,M,M,29.89,M,10.00,M,FEW,M,M,M,3200.00,M,M,M,M,KBOS 031915Z AUTO /////KT 10SM FEW032 A2989 RMK MADISHF
FMH,2017-11-03 19:15,-70.5215,41.6585,62.60,60.80,93.83,230.00,13.00,0.00,29.97,M,10.00,M,OVC,M,M,M,500.00,M,M,M,M,KFMH 031915Z AUTO 23013KT 10SM OVC005 17/16 A2997 RMK AO2
CQX,2017-11-03 19:15,-69.9933,41.6875,M,M,M,220.00,11.00,M,29.97,M,3.00,M,OVC,M,M,M,200.00,M,M,M,BR,KCQX 031915Z AUTO 22011KT 3SM BR OVC002 A2997 RMK MADISHF
PYM,2017-11-03 19:15,-70.7288,41.9090,M,M,M,210.00,9.00,M,29.93,M,10.00,M,CLR,M,M,M,M,M,M,M,M,KPYM 031915Z AUTO 21009KT 10SM CLR A2993 RMK MADISHF
BED,2017-11-03 19:15,-71.2890,42.4699,M,M,M,230.00,12.00,M,29.88,M,10.00,M,BKN,M,M,M,2500.00,M,M,M,M,KBED 031915Z AUTO 23012KT 10SM BKN025 A2988 RMK MADISHF
TAN,2017-11-03 19:15,-71.0211,41.8756,M,M,M,200.00,8.00,M,29.92,M,10.00,M,CLR,M,M,M,M,M,M,M,M,KTAN 031915Z AUTO 20008KT 10SM CLR A2992 RMK MADISHF
HYA,2017-11-03 19:18,-70.2800,41.6700,64.90,61.00,87.18,230.00,14.00,0.00,29.94,M,10.00,M,FEW,M,M,M,600.00,M,M,M,M,KHYA 031918Z 23014KT 10SM FEW006 18/16 A2994 RMK AO2 T01830161
HYA,2017-11-03 19:20,-70.2800,41.6700,M,M,M,220.00,13.00,M,29.94,M,10.00,M,SCT,M,M,M,600.00,M,M,M,M,KHYA 031920Z AUTO 22013KT 10SM SCT006 A2994 RMK MADISHF
ORE,2017-11-03 19:20,-72.2886,42.5701,M,M,M,250.00,4.00,M,29.93,M,10.00,M,BKN,OVC,M,M,3399.00,4600.00,M,M,M,KORE 031920Z AUTO 25004KT 10SM BKN033 OVC046 A2993 RMK MADISHF
FIT,2017-11-03 19:20,-71.7558,42.5519,M,M,M,250.00,8.00,M,29.92,M,10.00,M,SCT,SCT,OVC,M,4800.00,6000.00,9500.00,M,M,KFIT 031920Z AUTO 25008KT 10SM SCT048 SCT060 OVC095 A2992 RMK MADISHF
PYM,2017-11-03 19:20,-70.7288,41.9090,M,M,M,200.00,8.00,M,29.93,M,10.00,M,CLR,M,M,M,M,M,M,M,M,KPYM 031920Z AUTO 20008KT 10SM CLR A2993 RMK MADISHF
CQX,2017-11-03 19:20,-69.9933,41.6875,M,M,M,220.00,9.00,M,29.97,M,2.00,M,OVC,M,M,M,200.00,M,M,M,BR,KCQX 031920Z AUTO 22009KT 2SM BR OVC002 A2997 RMK MADISHF
OWD,2017-11-03 19:20,-71.1733,42.1912,M,M,M,200.00,9.00,M,29.89,M,10.00,16.00,FEW,M,M,M,4600.00,M,M,M,M,KOWD 031920Z AUTO 20009G16KT 10SM FEW046 A2989 RMK MADISHF
BOS,2017-11-03 19:20,-71.0097,42.3606,M,M,M,M,M,M,29.89,M,10.00,M,FEW,M,M,M,3200.00,M,M,M,M,KBOS 031920Z AUTO /////KT 10SM FEW032 A2989 RMK MADISHF
PVC,2017-11-03 19:20,-70.2200,42.0700,M,M,M,200.00,13.00,M,29.94,M,10.00,M,M,M,M,M,M,M,M,M,M,KPVC 031920Z AUTO 20013KT 10SM A2994 RMK MADISHF
TAN,2017-11-03 19:20,-71.0211,41.8756,M,M,M,210.00,9.00,M,29.92,M,10.00,14.00,CLR,M,M,M,M,M,M,M,M,KTAN 031920Z AUTO 21009G14KT 10SM CLR A2992 RMK WND 17V23  MADISHF
EWB,2017-11-03 19:20,-70.9583,41.6764,M,M,M,210.00,10.00,M,29.94,M,10.00,M,CLR,M,M,M,M,M,M,M,M,KEWB 031920Z AUTO 21010KT 10SM CLR A2994 RMK MADISHF
BED,2017-11-03 19:20,-71.2890,42.4699,M,M,M,230.00,11.00,M,29.88,M,10.00,M,BKN,M,M,M,2500.00,M,M,M,M,KBED 031920Z AUTO 23011KT 10SM BKN025 A2988 RMK MADISHF
ORH,2017-11-03 19:20,-71.8757,42.2673,M,M,M,260.00,9.00,M,29.93,M,10.00,M,SCT,BKN,OVC,M,3399.00,4200.00,7000.00,M,-RA,KORH 031920Z AUTO 26009KT 10SM -RA SCT033 BKN042 OVC070 A2993 RMK MADISHF
CQX,2017-11-03 19:22,-69.9933,41.6875,62.10,61.00,96.18,220.00,10.00,0.00,29.97,M,2.00,16.00,OVC,M,M,M,200.00,M,M,M,BR,KCQX 031922Z AUTO 22010G16KT 2SM BR OVC002 17/16 A2997 RMK AO2 T01670161
FIT,2017-11-03 19:25,-71.7558,42.5519,M,M,M,260.00,7.00,M,29.92,M,10.00,M,SCT,BKN,OVC,M,4800.00,9000.00,11000.00,M,M,KFIT 031925Z AUTO 26007KT 10SM SCT048 BKN090 OVC110 A2992 RMK MADISHF
ORH,2017-11-03 19:25,-71.8757,42.2673,M,M,M,270.00,10.00,M,29.94,M,10.00,16.00,FEW,BKN,OVC,M,2300.00,5000.00,7000.00,M,-RA,KORH 031925Z AUTO 27010G16KT 10SM -RA FEW023 BKN050 OVC070 A2994 RMK MADISHF
EWB,2017-11-03 19:25,-70.9583,41.6764,M,M,M,220.00,10.00,M,29.93,M,10.00,M,CLR,M,M,M,M,M,M,M,M,KEWB 031925Z AUTO 22010KT 10SM CLR A2993 RMK MADISHF
BED,2017-11-03 19:25,-71.2890,42.4699,M,M,M,240.00,9.00,M,29.88,M,10.00,M,BKN,M,M,M,2500.00,M,M,M,M,KBED 031925Z AUTO 24009KT 10SM BKN025 A2988 RMK MADISHF
TAN,2017-11-03 19:25,-71.0211,41.8756,M,M,M,200.00,10.00,M,29.92,M,10.00,M,CLR,M,M,M,M,M,M,M,M,KTAN 031925Z AUTO 20010KT 10SM CLR A2992 RMK WND 16V23  MADISHF
PVC,2017-11-03 19:25,-70.2200,42.0700,M,M,M,200.00,12.00,M,29.94,M,10.00,M,M,M,M,M,M,M,M,M,M,KPVC 031925Z AUTO 20012KT 10SM A2994 RMK MADISHF
ORE,2017-11-03 19:25,-72.2886,42.5701,M,M,M,250.00,6.00,M,29.93,M,10.00,M,BKN,OVC,M,M,3399.00,4600.00,M,M,M,KORE 031925Z AUTO 25006KT 10SM BKN033 OVC046 A2993 RMK MADISHF
HYA,2017-11-03 19:25,-70.2800,41.6700,M,M,M,220.00,12.00,M,29.94,M,10.00,M,SCT,M,M,M,600.00,M,M,M,M,KHYA 031925Z AUTO 22012KT 10SM SCT006 A2994 RMK MADISHF
OWD,2017-11-03 19:25,-71.1733,42.1912,M,M,M,210.00,10.00,M,29.89,M,10.00,M,FEW,M,M,M,4600.00,M,M,M,M,KOWD 031925Z AUTO 21010KT 10SM FEW046 A2989 RMK MADISHF
BOS,2017-11-03 19:25,-71.0097,42.3606,M,M,M,M,M,M,29.89,M,10.00,M,FEW,M,M,M,3200.00,M,M,M,M,KBOS 031925Z AUTO /////KT 10SM FEW032 A2989 RMK MADISHF
PYM,2017-11-03 19:25,-70.7288,41.9090,M,M,M,210.00,8.00,M,29.93,M,10.00,M,CLR,M,M,M,M,M,M,M,M,KPYM 031925Z AUTO 21008KT 10SM CLR A2993 RMK MADISHF
CQX,2017-11-03 19:25,-69.9933,41.6875,M,M,M,220.00,8.00,M,29.97,M,2.50,M,OVC,M,M,M,200.00,M,M,M,BR,KCQX 031925Z AUTO 22008KT 2 1/2SM BR OVC002 A2997 RMK MADISHF
CQX,2017-11-03 19:30,-69.9933,41.6875,M,M,M,220.00,7.00,M,29.97,M,4.00,M,OVC,M,M,M,200.00,M,M,M,BR,KCQX 031930Z AUTO 22007KT 4SM BR OVC002 A2997 RMK MADISHF
PVC,2017-11-03 19:30,-70.2200,42.0700,M,M,M,210.00,12.00,M,29.94,M,10.00,M,M,M,M,M,M,M,M,M,M,KPVC 031930Z AUTO 21012KT 10SM A2994 RMK MADISHF
OWD,2017-11-03 19:30,-71.1733,42.1912,M,M,M,220.00,10.00,M,29.89,M,10.00,M,FEW,M,M,M,4600.00,M,M,M,M,KOWD 031930Z AUTO 22010KT 10SM FEW046 A2989 RMK WND 19V26  MADISHF
EWB,2017-11-03 19:30,-70.9583,41.6764,M,M,M,210.00,11.00,M,29.94,M,10.00,M,CLR,M,M,M,M,M,M,M,M,KEWB 031930Z AUTO 21011KT 10SM CLR A2994 RMK MADISHF
BED,2017-11-03 19:30,-71.2890,42.4699,M,M,M,220.00,6.00,M,29.88,M,10.00,M,BKN,M,M,M,2500.00,M,M,M,M,KBED 031930Z AUTO 22006KT 10SM BKN025 A2988 RMK MADISHF
PYM,2017-11-03 19:30,-70.7288,41.9090,M,M,M,200.00,11.00,M,29.93,M,10.00,M,CLR,M,M,M,M,M,M,M,M,KPYM 031930Z AUTO 20011KT 10SM CLR A2993 RMK MADISHF
ORH,2017-11-03 19:30,-71.8757,42.2673,M,M,M,250.00,11.00,M,29.94,M,10.00,M,FEW,SCT,OVC,M,3000.00,4400.00,7000.00,M,-RA,KORH 031930Z AUTO 25011KT 10SM -RA FEW030 SCT044 OVC070 A2994 RMK MADISHF
HYA,2017-11-03 19:30,-70.2800,41.6700,M,M,M,220.00,13.00,M,29.94,M,10.00,M,SCT,M,M,M,600.00,M,M,M,M,KHYA 031930Z AUTO 22013KT 10SM SCT006 A2994 RMK MADISHF
BOS,2017-11-03 19:30,-71.0097,42.3606,M,M,M,230.00,13.00,M,29.89,M,10.00,M,FEW,M,M,M,3200.00,M,M,M,M,KBOS 031930Z AUTO 23013KT 10SM FEW032 A2989 RMK MADISHF
TAN,2017-11-03 19:30,-71.0211,41.8756,M,M,M,200.00,8.00,M,29.92,M,10.00,M,CLR,M,M,M,M,M,M,M,M,KTAN 031930Z AUTO 20008KT 10SM CLR A2992 RMK WND 16V22  MADISHF
ORE,2017-11-03 19:30,-72.2886,42.5701,M,M,M,280.00,6.00,M,29.94,M,10.00,M,SCT,OVC,M,M,3399.00,4800.00,M,M,M,KORE 031930Z AUTO 28006KT 10SM SCT033 OVC048 A2994 RMK MADISHF
FIT,2017-11-03 19:30,-71.7558,42.5519,M,M,M,270.00,6.00,M,29.92,M,10.00,M,SCT,OVC,M,M,4600.00,9000.00,M,M,M,KFIT 031930Z AUTO 27006KT 10SM SCT046 OVC090 A2992 RMK MADISHF
CQX,2017-11-03 19:33,-69.9933,41.6875,62.10,61.00,96.18,230.00,9.00,0.00,29.97,M,4.00,18.00,OVC,M,M,M,200.00,M,M,M,BR,KCQX 031933Z AUTO 23009G18KT 4SM BR OVC002 17/16 A2997 RMK AO2 T01670161
ORE,2017-11-03 19:35,-72.2886,42.5701,M,M,M,270.00,7.00,M,29.94,M,10.00,M,SCT,OVC,M,M,3500.00,4600.00,M,M,M,KORE 031935Z AUTO 27007KT 10SM SCT035 OVC046 A2994 RMK WND 23V29  MADISHF
CQX,2017-11-03 19:35,-69.9933,41.6875,M,M,M,230.00,9.00,M,29.97,M,5.00,14.00,OVC,M,M,M,200.00,M,M,M,BR,KCQX 031935Z AUTO 23009G14KT 5SM BR OVC002 A2997 RMK MADISHF
TAN,2017-11-03 19:35,-71.0211,41.8756,M,M,M,200.00,5.00,M,29.92,M,10.00,M,CLR,M,M,M,M,M,M,M,M,KTAN 031935Z AUTO 20005KT 10SM CLR A2992 RMK MADISHF
HYA,2017-11-03 19:35,-70.2800,41.6700,M,M,M,220.00,14.00,M,29.94,M,10.00,M,SCT,M,M,M,600.00,M,M,M,M,KHYA 031935Z AUTO 22014KT 10SM SCT006 A2994 RMK MADISHF
OWD,2017-11-03 19:35,-71.1733,42.1912,M,M,M,210.00,11.00,M,29.89,M,10.00,M,SCT,M,M,M,10000.00,M,M,M,M,KOWD 031935Z AUTO 21011KT 10SM SCT100 A2989 RMK MADISHF
BOS,2017-11-03 19:35,-71.0097,42.3606,M,M,M,230.00,12.00,M,29.89,M,10.00,M,FEW,M,M,M,3200.00,M,M,M,M,KBOS 031935Z AUTO 23012KT 10SM FEW032 A2989 RMK MADISHF
EWB,2017-11-03 19:35,-70.9583,41.6764,M,M,M,220.00,11.00,M,29.93,M,10.00,M,CLR,M,M,M,M,M,M,M,M,KEWB 031935Z AUTO 22011KT 10SM CLR A2993 RMK WND 20V26  MADISHF
FMH,2017-11-03 19:35,-70.5215,41.6585,64.40,60.80,88.09,230.00,9.00,0.00,29.96,M,10.00,16.00,OVC,M,M,M,500.00,M,M,M,M,KFMH 031935Z AUTO 23009G16KT 10SM OVC005 18/16 A2996 RMK AO2
PVC,2017-11-03 19:35,-70.2200,42.0700,M,M,M,210.00,13.00,M,29.94,M,10.00,M,M,M,M,M,M,M,M,M,M,KPVC 031935Z AUTO 21013KT 10SM A2994 RMK MADISHF
PYM,2017-11-03 19:35,-70.7288,41.9090,M,M,M,200.00,8.00,M,29.93,M,10.00,M,CLR,M,M,M,M,M,M,M,M,KPYM 031935Z AUTO 20008KT 10SM CLR A2993 RMK MADISHF
GHG,2017-11-03 19:35,-70.6721,42.0982,75.20,60.80,60.90,220.00,11.00,0.00,29.90,M,10.00,M,CLR,M,M,M,M,M,M,M,M,KGHG 031935Z AUTO 22011KT 10SM CLR 24/16 A2990 RMK AO2
BED,2017-11-03 19:35,-71.2890,42.4699,M,M,M,230.00,8.00,M,29.88,M,10.00,M,FEW,BKN,OVC,M,4900.00,6000.00,8500.00,M,M,KBED 031935Z AUTO 23008KT 10SM FEW049 BKN060 OVC085 A2988 RMK MADISHF
ORH,2017-11-03 19:35,-71.8757,42.2673,M,M,M,250.00,13.00,M,29.94,M,10.00,M,FEW,SCT,OVC,M,2900.00,5000.00,7500.00,M,M,KORH 031935Z AUTO 25013KT 10SM FEW029 SCT050 OVC075 A2994 RMK MADISHF
BED,2017-11-03 19:39,-71.2890,42.4699,73.00,57.00,57.23,240.00,6.00,0.00,29.88,M,10.00,M,SCT,OVC,M,M,4900.00,6000.00,M,M,M,KBED 031939Z 24006KT 10SM SCT049 OVC060 23/14 A2988 RMK AO2 T02280139
TAN,2017-11-03 19:40,-71.0211,41.8756,M,M,M,190.00,7.00,M,29.92,M,10.00,M,CLR,M,M,M,M,M,M,M,M,KTAN 031940Z AUTO 19007KT 10SM CLR A2992 RMK MADISHF
FIT,2017-11-03 19:40,-71.7558,42.5519,M,M,M,280.00,9.00,M,29.92,M,10.00,M,SCT,SCT,OVC,M,4400.00,6000.00,9000.00,M,M,KFIT 031940Z AUTO 28009KT 10SM SCT044 SCT060 OVC090 A2992 RMK MADISHF
PYM,2017-11-03 19:40,-70.7288,41.9090,M,M,M,200.00,9.00,M,29.93,M,10.00,M,CLR,M,M,M,M,M,M,M,M,KPYM 031940Z AUTO 20009KT 10SM CLR A2993 RMK MADISHF
ORE,2017-11-03 19:40,-72.2886,42.5701,M,M,M,270.00,5.00,M,29.94,M,10.00,M,BKN,OVC,M,M,3800.00,4800.00,M,M,M,KORE 031940Z AUTO 27005KT 10SM BKN038 OVC048 A2994 RMK MADISHF
BED,2017-11-03 19:40,-71.2890,42.4699,M,M,M,240.00,6.00,M,29.88,M,10.00,M,SCT,OVC,M,M,4900.00,6000.00,M,M,M,KBED 031940Z AUTO 24006KT 10SM SCT049 OVC060 A2988 RMK MADISHF
ORH,2017-11-03 19:40,-71.8757,42.2673,M,M,M,260.00,9.00,M,29.94,M,10.00,M,FEW,BKN,OVC,M,2900.00,7000.00,9000.00,M,-RA,KORH 031940Z AUTO 26009KT 10SM -RA FEW029 BKN070 OVC090 A2994 RMK MADISHF
PVC,2017-11-03 19:40,-70.2200,42.0700,M,M,M,210.00,14.00,M,29.94,M,10.00,M,M,M,M,M,M,M,M,M,M,KPVC 031940Z AUTO 21014KT 10SM A2994 RMK MADISHF
HYA,2017-11-03 19:40,-70.2800,41.6700,M,M,M,210.00,12.00,M,29.94,M,10.00,M,SCT,M,M,M,600.00,M,M,M,M,KHYA 031940Z AUTO 21012KT 10SM SCT006 A2994 RMK MADISHF
EWB,2017-11-03 19:40,-70.9583,41.6764,M,M,M,210.00,7.00,M,29.93,M,10.00,M,CLR,M,M,M,M,M,M,M,M,KEWB 031940Z AUTO 21007KT 10SM CLR A2993 RMK MADISHF
OWD,2017-11-03 19:40,-71.1733,42.1912,M,M,M,210.00,10.00,M,29.89,M,10.00,M,SCT,M,M,M,10000.00,M,M,M,M,KOWD 031940Z AUTO 21010KT 10SM SCT100 A2989 RMK MADISHF
BOS,2017-11-03 19:40,-71.0097,42.3606,M,M,M,240.00,15.00,M,29.89,M,10.00,M,FEW,M,M,M,3200.00,M,M,M,M,KBOS 031940Z AUTO 24015KT 10SM FEW032 A2989 RMK MADISHF
CQX,2017-11-03 19:40,-69.9933,41.6875,M,M,M,220.00,8.00,M,29.97,M,5.00,M,OVC,M,M,M,200.00,M,M,M,BR,KCQX 031940Z AUTO 22008KT 5SM BR OVC002 A2997 RMK MADISHF
TAN,2017-11-03 19:45,-71.0211,41.8756,M,M,M,190.00,8.00,M,29.92,M,10.00,M,CLR,M,M,M,M,M,M,M,M,KTAN 031945Z AUTO 19008KT 10SM CLR A2992 RMK MADISHF
FIT,2017-11-03 19:45,-71.7558,42.5519,M,M,M,M,M,M,29.93,M,10.00,M,FEW,BKN,OVC,M,3000.00,4400.00,9000.00,M,M,KFIT 031945Z AUTO /////KT 10SM FEW030 BKN044 OVC090 A2993 RMK MADISHF
BED,2017-11-03 19:45,-71.2890,42.4699,M,M,M,250.00,5.00,M,29.89,M,10.00,M,BKN,OVC,M,M,4700.00,6000.00,M,M,-RA,KBED 031945Z AUTO 25005KT 10SM -RA BKN047 OVC060 A2989 RMK MADISHF
HYA,2017-11-03 19:45,-70.2800,41.6700,M,M,M,220.00,12.00,M,29.94,M,10.00,M,SCT,M,M,M,600.00,M,M,M,M,KHYA 031945Z AUTO 22012KT 10SM SCT006 A2994 RMK MADISHF
OWD,2017-11-03 19:45,-71.1733,42.1912,M,M,M,210.00,10.00,M,29.89,M,10.00,M,BKN,M,M,M,9500.00,M,M,M,M,KOWD 031945Z AUTO 21010KT 10SM BKN095 A2989 RMK MADISHF
BOS,2017-11-03 19:45,-71.0097,42.3606,M,M,M,230.00,15.00,M,29.89,M,10.00,M,FEW,M,M,M,3200.00,M,M,M,M,KBOS 031945Z AUTO 23015KT 10SM FEW032 A2989 RMK MADISHF
PVC,2017-11-03 19:45,-70.2200,42.0700,M,M,M,200.00,12.00,M,29.94,M,10.00,M,M,M,M,M,M,M,M,M,M,KPVC 031945Z AUTO 20012KT 10SM A2994 RMK MADISHF
ORE,2017-11-03 19:45,-72.2886,42.5701,M,M,M,260.00,8.00,M,29.94,M,10.00,M,BKN,OVC,M,M,3600.00,4800.00,M,M,M,KORE 031945Z AUTO 26008KT 10SM BKN036 OVC048 A2994 RMK MADISHF
ORH,2017-11-03 19:45,-71.8757,42.2673,M,M,M,270.00,10.00,M,29.94,M,10.00,M,FEW,BKN,OVC,M,2700.00,7000.00,11000.00,M,-RA,KORH 031945Z AUTO 27010KT 10SM -RA FEW027 BKN070 OVC110 A2994 RMK MADISHF
EWB,2017-11-03 19:45,-70.9583,41.6764,M,M,M,200.00,12.00,M,29.93,M,10.00,M,CLR,M,M,M,M,M,M,M,M,KEWB 031945Z AUTO 20012KT 10SM CLR A2993 RMK MADISHF
PYM,2017-11-03 19:45,-70.7288,41.9090,M,M,M,200.00,8.00,M,29.92,M,10.00,M,CLR,M,M,M,M,M,M,M,M,KPYM 031945Z AUTO 20008KT 10SM CLR A2992 RMK MADISHF
CQX,2017-11-03 19:45,-69.9933,41.6875,M,M,M,220.00,9.00,M,29.97,M,7.00,16.00,OVC,M,M,M,200.00,M,M,M,M,KCQX 031945Z AUTO 22009G16KT 7SM OVC002 A2997 RMK MADISHF
PVC,2017-11-03 19:50,-70.2200,42.0700,M,M,M,200.00,12.00,M,29.93,M,10.00,M,M,M,M,M,M,M,M,M,M,KPVC 031950Z AUTO 20012KT 10SM A2993 RMK MADISHF
BED,2017-11-03 19:50,-71.2890,42.4699,M,M,M,240.00,5.00,M,29.89,M,10.00,M,BKN,OVC,M,M,4700.00,6000.00,M,M,-RA,KBED 031950Z AUTO 24005KT 10SM -RA BKN047 OVC060 A2989 RMK MADISHF
ORH,2017-11-03 19:50,-71.8757,42.2673,M,M,M,260.00,10.00,M,29.94,M,10.00,M,FEW,BKN,OVC,M,2200.00,7000.00,11000.00,M,-RA,KORH 031950Z AUTO 26010KT 10SM -RA FEW022 BKN070 OVC110 A2994 RMK MADISHF
EWB,2017-11-03 19:50,-70.9583,41.6764,M,M,M,210.00,10.00,M,29.93,M,10.00,M,CLR,M,M,M,M,M,M,M,M,KEWB 031950Z AUTO 21010KT 10SM CLR A2993 RMK MADISHF
HYA,2017-11-03 19:50,-70.2800,41.6700,M,M,M,210.00,14.00,M,29.94,M,10.00,M,SCT,M,M,M,600.00,M,M,M,M,KHYA 031950Z AUTO 21014KT 10SM SCT006 A2994 RMK MADISHF
ORE,2017-11-03 19:50,-72.2886,42.5701,M,M,M,250.00,8.00,M,29.94,M,10.00,M,BKN,OVC,M,M,3399.00,4800.00,M,M,M,KORE 031950Z AUTO 25008KT 10SM BKN033 OVC048 A2994 RMK MADISHF
OWD,2017-11-03 19:50,-71.1733,42.1912,M,M,M,210.00,9.00,M,29.89,M,10.00,M,BKN,M,M,M,9500.00,M,M,M,M,KOWD 031950Z AUTO 21009KT 10SM BKN095 A2989 RMK MADISHF
FIT,2017-11-03 19:50,-71.7558,42.5519,M,M,M,280.00,9.00,M,29.92,M,10.00,M,FEW,BKN,OVC,M,3000.00,4400.00,9000.00,M,M,KFIT 031950Z AUTO 28009KT 10SM FEW030 BKN044 OVC090 A2992 RMK WND 26V32  MADISHF
PYM,2017-11-03 19:50,-70.7288,41.9090,M,M,M,M,M,M,29.93,M,10.00,M,CLR,M,M,M,M,M,M,M,M,KPYM 031950Z AUTO /////KT 10SM CLR A2993 RMK MADISHF
CQX,2017-11-03 19:50,-69.9933,41.6875,M,M,M,220.00,8.00,M,29.97,M,9.00,M,OVC,M,M,M,200.00,M,M,M,M,KCQX 031950Z AUTO 22008KT 9SM OVC002 A2997 RMK MADISHF
BOS,2017-11-03 19:50,-71.0097,42.3606,M,M,M,230.00,15.00,M,29.88,M,10.00,M,FEW,M,M,M,3200.00,M,M,M,M,KBOS 031950Z AUTO 23015KT 10SM FEW032 A2988 RMK MADISHF
TAN,2017-11-03 19:50,-71.0211,41.8756,M,M,M,200.00,8.00,M,29.92,M,10.00,M,CLR,M,M,M,M,M,M,M,M,KTAN 031950Z AUTO 20008KT 10SM CLR A2992 RMK MADISHF
ORE,2017-11-03 19:52,-72.2886,42.5701,66.00,59.00,78.14,250.00,5.00,0.00,29.94,1013.90,10.00,M,BKN,OVC,M,M,3400.00,4600.00,M,M,M,KORE 031952Z AUTO 25005KT 10SM BKN034 OVC046 19/15 A2994 RMK AO2 SLP139 T01890150 TSNO
TAN,2017-11-03 19:52,-71.0211,41.8756,72.00,59.00,63.61,210.00,9.00,0.00,29.92,1013.00,10.00,M,CLR,M,M,M,M,M,M,M,M,KTAN 031952Z AUTO 21009KT 10SM CLR 22/15 A2992 RMK AO2 SLP130 T02220150
CQX,2017-11-03 19:52,-69.9933,41.6875,62.10,61.00,96.18,210.00,8.00,0.00,29.97,1014.80,9.00,17.00,OVC,M,M,M,200.00,M,M,M,M,KCQX 031952Z AUTO 21008G17KT 9SM OVC002 17/16 A2997 RMK AO2 SLP148 T01670161
PYM,2017-11-03 19:52,-70.7288,41.9090,71.10,60.10,68.21,M,M,0.00,29.92,1013.30,10.00,M,CLR,M,M,M,M,M,M,M,M,KPYM 031952Z AUTO 10SM CLR 22/16 A2992 RMK AO2 SLP133 T02170156 $
FIT,2017-11-03 19:52,-71.7558,42.5519,72.00,61.00,68.31,310.00,10.00,0.00,29.92,1013.20,10.00,M,SCT,BKN,OVC,M,4400.00,6000.00,9000.00,M,M,KFIT 031952Z AUTO 31010KT 10SM SCT044 BKN060 OVC090 22/16 A2992 RMK AO2 SLP132 T02220161
EWB,2017-11-03 19:53,-70.9583,41.6764,68.00,60.10,75.84,220.00,11.00,0.00,29.94,1013.70,10.00,16.00,CLR,M,M,M,M,M,M,M,M,KEWB 031953Z 22011G16KT 10SM CLR 20/16 A2994 RMK AO2 SLP137 T02000156
OWD,2017-11-03 19:53,-71.1733,42.1912,77.00,57.90,51.72,210.00,7.00,0.00,29.89,1012.00,10.00,M,BKN,M,M,M,9500.00,M,M,M,M,KOWD 031953Z 21007KT 10SM BKN095 25/14 A2989 RMK AO2 SLP120 T02500144
ORH,2017-11-03 19:54,-71.8757,42.2673,64.00,57.90,80.54,270.00,11.00,0.00,29.94,1013.80,10.00,M,SCT,SCT,BKN,M,7000.00,8500.00,11000.00,M,M,KORH 031954Z 27011KT 10SM SCT070 SCT085 BKN110 18/14 A2994 RMK AO2 RAB00E52 SLP138 P0000 T01780144
BOS,2017-11-03 19:54,-71.0097,42.3606,73.90,57.00,55.53,220.00,14.00,0.00,29.88,1011.90,10.00,M,FEW,SCT,BKN,BKN,3200.00,5000.00,11000.00,20000.00,M,KBOS 031954Z 22014KT 10SM FEW032 SCT050 BKN110 BKN200 BKN320 23/14 A2988 RMK AO2 SLP119 T02330139
GHG,2017-11-03 19:55,-70.6721,42.0982,73.40,60.80,64.69,210.00,7.00,0.00,29.90,M,10.00,13.00,CLR,M,M,M,M,M,M,M,M,KGHG 031955Z AUTO 21007G13KT 10SM CLR 23/16 A2990 RMK AO2
PVC,2017-11-03 19:55,-70.2200,42.0700,M,M,M,200.00,11.00,M,29.93,M,10.00,M,M,M,M,M,M,M,M,M,M,KPVC 031955Z AUTO 20011KT 10SM A2993 RMK MADISHF
CQX,2017-11-03 19:55,-69.9933,41.6875,M,M,M,220.00,8.00,M,29.97,M,10.00,M,OVC,M,M,M,200.00,M,M,M,M,KCQX 031955Z AUTO 22008KT 10SM OVC002 A2997 RMK MADISHF
OWD,2017-11-03 19:55,-71.1733,42.1912,M,M,M,210.00,12.00,M,29.89,M,10.00,17.00,BKN,M,M,M,9500.00,M,M,M,M,KOWD 031955Z AUTO 21012G17KT 10SM BKN095 A2989 RMK MADISHF
BOS,2017-11-03 19:55,-71.0097,42.3606,M,M,M,220.00,15.00,M,29.88,M,10.00,M,FEW,SCT,OVC,M,5000.00,6000.00,10000.00,M,M,KBOS 031955Z AUTO 22015KT 10SM FEW050 SCT060 OVC100 A2988 RMK MADISHF
ORE,2017-11-03 19:55,-72.2886,42.5701,M,M,M,260.00,7.00,M,29.94,M,10.00,M,BKN,OVC,M,M,3600.00,4600.00,M,M,M,KORE 031955Z AUTO 26007KT 10SM BKN036 OVC046 A2994 RMK MADISHF
BED,2017-11-03 19:55,-71.2890,42.4699,M,M,M,240.00,9.00,M,29.89,M,10.00,M,BKN,BKN,OVC,M,4700.00,6500.00,8500.00,M,-RA,KBED 031955Z AUTO 24009KT 10SM -RA BKN047 BKN065 OVC085 A2989 RMK MADISHF
EWB,2017-11-03 19:55,-70.9583,41.6764,M,M,M,230.00,7.00,M,29.93,M,10.00,M,CLR,M,M,M,M,M,M,M,M,KEWB 031955Z AUTO 23007KT 10SM CLR A2993 RMK MADISHF
ORH,2017-11-03 19:55,-71.8757,42.2673,M,M,M,270.00,11.00,M,29.94,M,10.00,M,SCT,SCT,BKN,M,7000.00,8500.00,11000.00,M,M,KORH 031955Z AUTO 27011KT 10SM SCT070 SCT085 BKN110 A2994 RMK MADISHF
HYA,2017-11-03 19:55,-70.2800,41.6700,M,M,M,210.00,15.00,M,29.94,M,10.00,M,SCT,M,M,M,600.00,M,M,M,M,KHYA 031955Z AUTO 21015KT 10SM SCT006 A2994 RMK MADISHF
TAN,2017-11-03 19:55,-71.0211,41.8756,M,M,M,210.00,5.00,M,29.92,M,10.00,M,CLR,M,M,M,M,M,M,M,M,KTAN 031955Z AUTO 21005KT 10SM CLR A2992 RMK VRB05KT  MADISHF
PYM,2017-11-03 19:55,-70.7288,41.9090,M,M,M,190.00,8.00,M,29.92,M,10.00,M,CLR,M,M,M,M,M,M,M,M,KPYM 031955Z AUTO 19008KT 10SM CLR A2992 RMK MADISHF
FMH,2017-11-03 19:55,-70.5215,41.6585,64.40,60.80,88.09,220.00,10.00,0.00,29.96,M,10.00,M,BKN,BKN,M,M,700.00,1100.00,M,M,M,KFMH 031955Z AUTO 22010KT 10SM BKN007 BKN011 18/16 A2996 RMK AO2
PVC,2017-11-03 19:56,-70.2200,42.0700,63.00,59.00,86.77,200.00,12.00,0.00,29.93,1013.50,10.00,M,M,M,M,M,M,M,M,M,M,KPVC 031956Z AUTO 20012KT 10SM 17/15 A2993 RMK AO2 SLP135 T01720150 $
HYA,2017-11-03 19:56,-70.2800,41.6700,63.00,60.10,90.25,220.00,14.00,0.00,29.94,1013.80,10.00,M,SCT,M,M,M,600.00,M,M,M,M,KHYA 031956Z 22014KT 10SM SCT006 17/16 A2994 RMK AO2 SLP138 T01720156
BED,2017-11-03 19:56,-71.2890,42.4699,71.10,57.90,63.05,240.00,10.00,0.00,29.89,1013.20,10.00,16.00,BKN,BKN,OVC,M,4700.00,6000.00,7500.00,M,-RA,KBED 031956Z 24010G16KT 10SM -RA BKN047 BKN060 OVC075 22/14 A2989 RMK AO2 RAB41 SLP132 P0000 T02170144
MQE,2017-11-03 19:56,-71.1142,42.2121,72.00,55.00,55.06,220.00,13.00,0.00,29.90,1013.40,M,20.00,M,M,M,M,M,M,M,M,M,KMQE 031956Z AUTO 22013G20KT 22/13 A2990 RMK AO1 SLP134 T02220128
CQX,2017-11-03 20:00,-69.9933,41.6875,M,M,M,220.00,5.00,M,29.96,M,10.00,M,OVC,M,M,M,300.00,M,M,M,M,KCQX 032000Z AUTO 22005KT 10SM OVC003 A2996 RMK MADISHF
PYM,2017-11-03 20:00,-70.7288,41.9090,M,M,M,200.00,9.00,M,29.92,M,10.00,M,CLR,M,M,M,M,M,M,M,M,KPYM 032000Z AUTO 20009KT 10SM CLR A2992 RMK MADISHF
PVC,2017-11-03 20:00,-70.2200,42.0700,M,M,M,200.00,12.00,M,29.93,M,10.00,M,M,M,M,M,M,M,M,M,M,KPVC 032000Z AUTO 20012KT 10SM A2993 RMK MADISHF
TAN,2017-11-03 20:00,-71.0211,41.8756,M,M,M,210.00,6.00,M,29.92,M,10.00,M,CLR,M,M,M,M,M,M,M,M,KTAN 032000Z AUTO 21006KT 10SM CLR A2992 RMK MADISHF
ORE,2017-11-03 20:00,-72.2886,42.5701,M,M,M,260.00,8.00,M,29.95,M,10.00,M,BKN,OVC,M,M,3600.00,4800.00,M,M,M,KORE 032000Z AUTO 26008KT 10SM BKN036 OVC048 A2995 RMK MADISHF
FIT,2017-11-03 20:00,-71.7558,42.5519,M,M,M,290.00,9.00,M,29.93,M,10.00,M,FEW,SCT,OVC,M,4400.00,6000.00,9000.00,M,M,KFIT 032000Z AUTO 29009KT 10SM FEW044 SCT060 OVC090 A2993 RMK MADISHF
BOS,2017-11-03 20:00,-71.0097,42.3606,M,M,M,220.00,15.00,M,29.88,M,10.00,M,FEW,SCT,BKN,M,3200.00,5000.00,10000.00,M,M,KBOS 032000Z AUTO 22015KT 10SM FEW032 SCT050 BKN100 A2988 RMK MADISHF
OWD,2017-11-03 20:00,-71.1733,42.1912,M,M,M,220.00,13.00,M,29.89,M,10.00,M,BKN,M,M,M,9500.00,M,M,M,M,KOWD 032000Z AUTO 22013KT 10SM BKN095 A2989 RMK MADISHF
BED,2017-11-03 20:00,-71.2890,42.4699,M,M,M,270.00,9.00,M,29.89,M,10.00,M,BKN,BKN,OVC,M,4900.00,6000.00,8500.00,M,M,KBED 032000Z AUTO 27009KT 10SM BKN049 BKN060 OVC085 A2989 RMK MADISHF
EWB,2017-11-03 20:00,-70.9583,41.6764,M,M,M,M,M,M,29.93,M,10.00,M,CLR,M,M,M,M,M,M,M,M,KEWB 032000Z AUTO /////KT 10SM CLR A2993 RMK MADISHF
ORH,2017-11-03 20:00,-71.8757,42.2673,M,M,M,270.00,10.00,M,29.95,M,10.00,15.00,FEW,SCT,BKN,M,6500.00,7999.00,10000.00,M,M,KORH 032000Z AUTO 27010G15KT 10SM FEW065 SCT079 BKN100 A2995 RMK MADISHF
HYA,2017-11-03 20:00,-70.2800,41.6700,M,M,M,220.00,16.00,M,29.94,M,10.00,M,SCT,M,M,M,600.00,M,M,M,M,KHYA 032000Z AUTO 22016KT 10SM SCT006 A2994 RMK MADISHF
PYM,2017-11-03 20:05,-70.7288,41.9090,M,M,M,200.00,7.00,M,29.93,M,10.00,M,CLR,M,M,M,M,M,M,M,M,KPYM 032005Z AUTO 20007KT 10SM CLR A2993 RMK MADISHF
PVC,2017-11-03 20:05,-70.2200,42.0700,M,M,M,190.00,12.00,M,29.93,M,10.00,M,M,M,M,M,M,M,M,M,M,KPVC 032005Z AUTO 19012KT 10SM A2993 RMK MADISHF
BOS,2017-11-03 20:05,-71.0097,42.3606,M,M,M,230.00,15.00,M,29.88,M,10.00,M,FEW,SCT,BKN,M,3200.00,5000.00,10000.00,M,M,KBOS 032005Z AUTO 23015KT 10SM FEW032 SCT050 BKN100 A2988 RMK MADISHF
ORE,2017-11-03 20:05,-72.2886,42.5701,M,M,M,260.00,7.00,M,29.95,M,10.00,M,BKN,BKN,OVC,M,3600.00,4600.00,5500.00,M,M,KORE 032005Z AUTO 26007KT 10SM BKN036 BKN046 OVC055 A2995 RMK MADISHF
BED,2017-11-03 20:05,-71.2890,42.4699,M,M,M,260.00,8.00,M,29.89,M,10.00,M,BKN,OVC,M,M,4900.00,7999.00,M,M,M,KBED 032005Z AUTO 26008KT 10SM BKN049 OVC079 A2989 RMK MADISHF
ORH,2017-11-03 20:05,-71.8757,42.2673,M,M,M,270.00,11.00,M,29.95,M,10.00,16.00,FEW,BKN,M,M,7000.00,10000.00,M,M,M,KORH 032005Z AUTO 27011G16KT 10SM FEW070 BKN100 A2995 RMK MADISHF
TAN,2017-11-03 20:05,-71.0211,41.8756,M,M,M,210.00,10.00,M,29.92,M,10.00,M,CLR,M,M,M,M,M,M,M,M,KTAN 032005Z AUTO 21010KT 10SM CLR A2992 RMK MADISHF
FIT,2017-11-03 20:05,-71.7558,42.5519,M,M,M,300.00,9.00,M,29.93,M,10.00,M,FEW,BKN,OVC,M,4400.00,6000.00,9000.00,M,M,KFIT 032005Z AUTO 30009KT 10SM FEW044 BKN060 OVC090 A2993 RMK MADISHF
OWD,2017-11-03 20:05,-71.1733,42.1912,M,M,M,230.00,12.00,M,29.89,M,10.00,M,OVC,M,M,M,9000.00,M,M,M,M,KOWD 032005Z AUTO 23012KT 10SM OVC090 A2989 RMK MADISHF
CQX,2017-11-03 20:05,-69.9933,41.6875,M,M,M,220.00,9.00,M,29.96,M,10.00,M,OVC,M,M,M,300.00,M,M,M,M,KCQX 032005Z AUTO 22009KT 10SM OVC003 A2996 RMK MADISHF
EWB,2017-11-03 20:05,-70.9583,41.6764,M,M,M,210.00,7.00,M,29.93,M,10.00,M,CLR,M,M,M,M,M,M,M,M,KEWB 032005Z AUTO 21007KT 10SM CLR A2993 RMK MADISHF
HYA,2017-11-03 20:05,-70.2800,41.6700,M,M,M,210.00,13.00,M,29.93,M,10.00,M,SCT,M,M,M,600.00,M,M,M,M,KHYA 032005Z AUTO 21013KT 10SM SCT006 A2993 RMK MADISHF
OWD,2017-11-03 20:10,-71.1733,42.1912,M,M,M,240.00,9.00,M,29.89,M,10.00,M,OVC,M,M,M,9000.00,M,M,M,M,KOWD 032010Z AUTO 24009KT 10SM OVC090 A2989 RMK MADISHF
ORE,2017-11-03 20:10,-72.2886,42.5701,M,M,M,260.00,8.00,M,29.95,M,10.00,M,SCT,BKN,OVC,M,3399.00,4200.00,6000.00,M,M,KORE 032010Z AUTO 26008KT 10SM SCT033 BKN042 OVC060 A2995 RMK MADISHF
PVC,2017-11-03 20:10,-70.2200,42.0700,M,M,M,200.00,13.00,M,29.93,M,10.00,M,M,M,M,M,M,M,M,M,M,KPVC 032010Z AUTO 20013KT 10SM A2993 RMK MADISHF
PYM,2017-11-03 20:10,-70.7288,41.9090,M,M,M,200.00,8.00,M,29.92,M,10.00,M,CLR,M,M,M,M,M,M,M,M,KPYM 032010Z AUTO 20008KT 10SM CLR A2992 RMK MADISHF
CQX,2017-11-03 20:10,-69.9933,41.6875,M,M,M,220.00,10.00,M,29.96,M,10.00,16.00,OVC,M,M,M,300.00,M,M,M,M,KCQX 032010Z AUTO 22010G16KT 10SM OVC003 A2996 RMK MADISHF
EWB,2017-11-03 20:10,-70.9583,41.6764,M,M,M,210.00,7.00,M,29.93,M,10.00,M,CLR,M,M,M,M,M,M,M,M,KEWB 032010Z AUTO 21007KT 10SM CLR A2993 RMK MADISHF
BOS,2017-11-03 20:10,-71.0097,42.3606,M,M,M,M,M,M,29.88,M,10.00,M,FEW,SCT,BKN,M,3200.00,5000.00,10000.00,M,M,KBOS 032010Z AUTO /////KT 10SM FEW032 SCT050 BKN100 A2988 RMK MADISHF
BED,2017-11-03 20:10,-71.2890,42.4699,M,M,M,270.00,7.00,M,29.89,M,10.00,M,BKN,OVC,M,M,4700.00,7999.00,M,M,M,KBED 032010Z AUTO 27007KT 10SM BKN047 OVC079 A2989 RMK MADISHF
ORH,2017-11-03 20:10,-71.8757,42.2673,M,M,M,260.00,11.00,M,29.95,M,10.00,M,FEW,BKN,M,M,7000.00,10000.00,M,M,M,KORH 032010Z AUTO 26011KT 10SM FEW070 BKN100 A2995 RMK MADISHF
TAN,2017-11-03 20:10,-71.0211,41.8756,M,M,M,210.00,6.00,M,29.92,M,10.00,M,CLR,M,M,M,M,M,M,M,M,KTAN 032010Z AUTO 21006KT 10SM CLR A2992 RMK MADISHF
HYA,2017-11-03 20:10,-70.2800,41.6700,M,M,M,210.00,14.00,M,29.93,M,10.00,M,BKN,M,M,M,600.00,M,M,M,M,KHYA 032010Z AUTO 21014KT 10SM BKN006 A2993 RMK MADISHF
HYA,2017-11-03 20:13,-70.2800,41.6700,63.00,60.10,90.25,210.00,12.00,0.00,29.93,M,10.00,M,BKN,M,M,M,600.00,M,M,M,M,KHYA 032013Z 21012KT 10SM BKN006 17/16 A2993 RMK AO2 T01720156
GHG,2017-11-03 20:15,-70.6721,42.0982,73.40,60.80,64.69,210.00,9.00,0.00,29.90,M,10.00,M,CLR,M,M,M,M,M,M,M,M,KGHG 032015Z AUTO 21009KT 10SM CLR 23/16 A2990 RMK AO2
FMH,2017-11-03 20:15,-70.5215,41.6585,64.40,60.80,88.09,220.00,11.00,0.00,29.96,M,10.00,M,BKN,M,M,M,1200.00,M,M,M,M,KFMH 032015Z AUTO 22011KT 10SM BKN012 18/16 A2996 RMK AO2
FIT,2017-11-03 20:15,-71.7558,42.5519,M,M,M,290.00,10.00,M,29.94,M,10.00,M,FEW,BKN,OVC,M,4200.00,6000.00,9000.00,M,-RA,KFIT 032015Z AUTO 29010KT 10SM -RA FEW042 BKN060 OVC090 A2994 RMK WND 25V31  MADISHF
PYM,2017-11-03 20:15,-70.7288,41.9090,M,M,M,200.00,8.00,M,29.92,M,10.00,M,CLR,M,M,M,M,M,M,M,M,KPYM 032015Z AUTO 20008KT 10SM CLR A2992 RMK MADISHF
PVC,2017-11-03 20:15,-70.2200,42.0700,M,M,M,200.00,13.00,M,29.93,M,10.00,M,M,M,M,M,M,M,M,M,M,KPVC 032015Z AUTO 20013KT 10SM A2993 RMK MADISHF
CQX,2017-11-03 20:15,-69.9933,41.6875,M,M,M,220.00,9.00,M,29.96,M,10.00,14.00,OVC,M,M,M,300.00,M,M,M,M,KCQX 032015Z AUTO 22009G14KT 10SM OVC003 A2996 RMK MADISHF
TAN,2017-11-03 20:15,-71.0211,41.8756,M,M,M,200.00,9.00,M,29.92,M,10.00,14.00,CLR,M,M,M,M,M,M,M,M,KTAN 032015Z AUTO 20009G14KT 10SM CLR A2992 RMK MADISHF
BOS,2017-11-03 20:15,-71.0097,42.3606,M,M,M,230.00,13.00,M,29.89,M,10.00,M,FEW,SCT,BKN,M,3200.00,5000.00,10000.00,M,M,KBOS 032015Z AUTO 23013KT 10SM FEW032 SCT050 BKN100 A2989 RMK MADISHF
EWB,2017-11-03 20:15,-70.9583,41.6764,M,M,M,M,M,M,29.93,M,10.00,M,CLR,M,M,M,M,M,M,M,M,KEWB 032015Z AUTO /////KT 10SM CLR A2993 RMK MADISHF
BED,2017-11-03 20:15,-71.2890,42.4699,M,M,M,260.00,10.00,M,29.89,M,10.00,M,BKN,BKN,OVC,M,4900.00,7000.00,8500.00,M,M,KBED 032015Z AUTO 26010KT 10SM BKN049 BKN070 OVC085 A2989 RMK MADISHF
ORH,2017-11-03 20:15,-71.8757,42.2673,M,M,M,270.00,12.00,M,29.95,M,10.00,M,FEW,BKN,M,M,3999.00,9500.00,M,M,M,KORH 032015Z AUTO 27012KT 10SM FEW039 BKN095 A2995 RMK MADISHF
HYA,2017-11-03 20:15,-70.2800,41.6700,M,M,M,210.00,13.00,M,29.93,M,10.00,M,BKN,M,M,M,600.00,M,M,M,M,KHYA 032015Z AUTO 21013KT 10SM BKN006 A2993 RMK MADISHF
OWD,2017-11-03 20:15,-71.1733,42.1912,M,M,M,230.00,6.00,M,29.89,M,10.00,M,BKN,OVC,M,M,7999.00,9000.00,M,M,M,KOWD 032015Z AUTO 23006KT 10SM BKN079 OVC090 A2989 RMK MADISHF
ORE,2017-11-03 20:15,-72.2886,42.5701,M,M,M,260.00,11.00,M,29.95,M,10.00,M,SCT,SCT,OVC,M,3600.00,5000.00,6500.00,M,-RA,KORE 032015Z AUTO 26011KT 10SM -RA SCT036 SCT050 OVC065 A2995 RMK MADISHF
CQX,2017-11-03 20:20,-69.9933,41.6875,M,M,M,220.00,9.00,M,29.96,M,10.00,M,OVC,M,M,M,300.00,M,M,M,M,KCQX 032020Z AUTO 22009KT 10SM OVC003 A2996 RMK MADISHF
ORE,2017-11-03 20:20,-72.2886,42.5701,M,M,M,270.00,6.00,M,29.95,M,10.00,M,FEW,BKN,OVC,M,3900.00,6000.00,7500.00,M,-RA,KORE 032020Z AUTO 27006KT 10SM -RA FEW039 BKN060 OVC075 A2995 RMK MADISHF
BOS,2017-11-03 20:20,-71.0097,42.3606,M,M,M,240.00,12.00,M,29.89,M,10.00,M,FEW,SCT,BKN,M,3200.00,5000.00,10000.00,M,M,KBOS 032020Z AUTO 24012KT 10SM FEW032 SCT050 BKN100 A2989 RMK MADISHF
OWD,2017-11-03 20:20,-71.1733,42.1912,M,M,M,230.00,10.00,M,29.89,M,10.00,M,SCT,OVC,M,M,7000.00,8500.00,M,M,M,KOWD 032020Z AUTO 23010KT 10SM SCT070 OVC085 A2989 RMK MADISHF
PVC,2017-11-03 20:20,-70.2200,42.0700,M,M,M,200.00,10.00,M,29.93,M,10.00,M,M,M,M,M,M,M,M,M,M,KPVC 032020Z AUTO 20010KT 10SM A2993 RMK MADISHF
HYA,2017-11-03 20:20,-70.2800,41.6700,M,M,M,220.00,12.00,M,29.93,M,10.00,M,BKN,M,M,M,499.00,M,M,M,M,KHYA 032020Z AUTO 22012KT 10SM BKN004 A2993 RMK MADISHF
EWB,2017-11-03 20:20,-70.9583,41.6764,M,M,M,220.00,10.00,M,29.93,M,10.00,M,CLR,M,M,M,M,M,M,M,M,KEWB 032020Z AUTO 22010KT 10SM CLR A2993 RMK MADISHF
TAN,2017-11-03 20:20,-71.0211,41.8756,M,M,M,220.00,8.00,M,29.92,M,10.00,M,CLR,M,M,M,M,M,M,M,M,KTAN 032020Z AUTO 22008KT 10SM CLR A2992 RMK MADISHF
FIT,2017-11-03 20:20,-71.7558,42.5519,M,M,M,290.00,7.00,M,29.94,M,10.00,M,BKN,OVC,M,M,5500.00,9000.00,M,M,-RA,KFIT 032020Z AUTO 29007KT 10SM -RA BKN055 OVC090 A2994 RMK MADISHF
BED,2017-11-03 20:20,-71.2890,42.4699,M,M,M,270.00,10.00,M,29.90,M,10.00,M,SCT,BKN,OVC,M,4900.00,6000.00,7999.00,M,M,KBED 032020Z AUTO 27010KT 10SM SCT049 BKN060 OVC079 A2990 RMK MADISHF
ORH,2017-11-03 20:20,-71.8757,42.2673,M,M,M,M,M,M,29.95,M,10.00,M,FEW,BKN,M,M,3700.00,9000.00,M,M,M,KORH 032020Z AUTO /////KT 10SM FEW037 BKN090 A2995 RMK MADISHF
PYM,2017-11-03 20:20,-70.7288,41.9090,M,M,M,200.00,8.00,M,29.92,M,10.00,M,CLR,M,M,M,M,M,M,M,M,KPYM 032020Z AUTO 20008KT 10SM CLR A2992 RMK MADISHF
TAN,2017-11-03 20:25,-71.0211,41.8756,M,M,M,210.00,13.00,M,29.92,M,10.00,M,CLR,M,M,M,M,M,M,M,M,KTAN 032025Z AUTO 21013KT 10SM CLR A2992 RMK MADISHF
ORE,2017-11-03 20:25,-72.2886,42.5701,M,M,M,270.00,8.00,M,29.96,M,10.00,M,FEW,SCT,OVC,M,3900.00,5000.00,7500.00,M,M,KORE 032025Z AUTO 27008KT 10SM FEW039 SCT050 OVC075 A2996 RMK WND 24V30  MADISHF
OWD,2017-11-03 20:25,-71.1733,42.1912,M,M,M,230.00,5.00,M,29.89,M,10.00,M,BKN,OVC,M,M,7000.00,8500.00,M,M,M,KOWD 032025Z AUTO 23005KT 10SM BKN070 OVC085 A2989 RMK MADISHF
BED,2017-11-03 20:25,-71.2890,42.4699,M,M,M,270.00,11.00,M,29.90,M,10.00,M,BKN,OVC,M,M,4900.00,7999.00,M,M,M,KBED 032025Z AUTO 27011KT 10SM BKN049 OVC079 A2990 RMK MADISHF
ORH,2017-11-03 20:25,-71.8757,42.2673,M,M,M,M,M,M,29.95,M,10.00,M,FEW,SCT,OVC,M,3700.00,6000.00,9000.00,M,M,KORH 032025Z AUTO /////KT 10SM FEW037 SCT060 OVC090 A2995 RMK MADISHF
BOS,2017-11-03 20:25,-71.0097,42.3606,M,M,M,260.00,13.00,M,29.90,M,10.00,18.00,FEW,SCT,BKN,M,3200.00,5000.00,10000.00,M,M,KBOS 032025Z AUTO 26013G18KT 10SM FEW032 SCT050 BKN100 A2990 RMK MADISHF
PVC,2017-11-03 20:25,-70.2200,42.0700,M,M,M,190.00,12.00,M,29.93,M,10.00,M,M,M,M,M,M,M,M,M,M,KPVC 032025Z AUTO 19012KT 10SM A2993 RMK MADISHF
FIT,2017-11-03 20:25,-71.7558,42.5519,M,M,M,270.00,7.00,M,29.94,M,10.00,M,BKN,OVC,M,M,5500.00,8500.00,M,M,M,KFIT 032025Z AUTO 27007KT 10SM BKN055 OVC085 A2994 RMK MADISHF
PYM,2017-11-03 20:25,-70.7288,41.9090,M,M,M,200.00,8.00,M,29.92,M,10.00,M,CLR,M,M,M,M,M,M,M,M,KPYM 032025Z AUTO 20008KT 10SM CLR A2992 RMK MADISHF
EWB,2017-11-03 20:25,-70.9583,41.6764,M,M,M,210.00,11.00,M,29.93,M,10.00,M,CLR,M,M,M,M,M,M,M,M,KEWB 032025Z AUTO 21011KT 10SM CLR A2993 RMK MADISHF
HYA,2017-11-03 20:25,-70.2800,41.6700,M,M,M,220.00,13.00,M,29.94,M,9.00,M,BKN,M,M,M,499.00,M,M,M,M,KHYA 032025Z AUTO 22013KT 9SM BKN004 A2994 RMK MADISHF
PVC,2017-11-03 20:30,-70.2200,42.0700,M,M,M,190.00,12.00,M,29.93,M,10.00,M,M,M,M,M,M,M,M,M,M,KPVC 032030Z AUTO 19012KT 10SM A2993 RMK MADISHF
HYA,2017-11-03 20:30,-70.2800,41.6700,M,M,M,220.00,14.00,M,29.93,M,9.00,M,OVC,M,M,M,499.00,M,M,M,M,KHYA 032030Z AUTO 22014KT 9SM OVC004 A2993 RMK MADISHF
OWD,2017-11-03 20:30,-71.1733,42.1912,M,M,M,230.00,5.00,M,29.89,M,10.00,M,BKN,OVC,M,M,6500.00,8500.00,M,M,M,KOWD 032030Z AUTO 23005KT 10SM BKN065 OVC085 A2989 RMK MADISHF
ORH,2017-11-03 20:30,-71.8757,42.2673,M,M,M,270.00,10.00,M,29.95,M,10.00,16.00,FEW,BKN,OVC,M,3700.00,6000.00,9000.00,M,M,KORH 032030Z AUTO 27010G16KT 10SM FEW037 BKN060 OVC090 A2995 RMK MADISHF
BOS,2017-11-03 20:30,-71.0097,42.3606,M,M,M,M,M,M,29.90,M,6.00,M,FEW,SCT,BKN,M,3200.00,5000.00,10000.00,M,-RA,KBOS 032030Z AUTO /////KT 6SM -RA FEW032 SCT050 BKN100 A2990 RMK MADISHF
PYM,2017-11-03 20:30,-70.7288,41.9090,M,M,M,210.00,9.00,M,29.92,M,10.00,M,CLR,M,M,M,M,M,M,M,M,KPYM 032030Z AUTO 21009KT 10SM CLR A2992 RMK MADISHF
CQX,2017-11-03 20:30,-69.9933,41.6875,M,M,M,220.00,8.00,M,29.96,M,9.00,M,OVC,M,M,M,300.00,M,M,M,M,KCQX 032030Z AUTO 22008KT 9SM OVC003 A2996 RMK MADISHF
FIT,2017-11-03 20:30,-71.7558,42.5519,M,M,M,270.00,10.00,M,29.94,M,9.00,M,FEW,OVC,M,M,4400.00,5500.00,M,M,-RA,KFIT 032030Z AUTO 27010KT 9SM -RA FEW044 OVC055 A2994 RMK MADISHF
EWB,2017-11-03 20:30,-70.9583,41.6764,M,M,M,220.00,10.00,M,29.93,M,10.00,M,CLR,M,M,M,M,M,M,M,M,KEWB 032030Z AUTO 22010KT 10SM CLR A2993 RMK MADISHF
BED,2017-11-03 20:30,-71.2890,42.4699,M,M,M,260.00,9.00,M,29.90,M,10.00,M,BKN,OVC,M,M,4900.00,7999.00,M,M,M,KBED 032030Z AUTO 26009KT 10SM BKN049 OVC079 A2990 RMK MADISHF
ORE,2017-11-03 20:30,-72.2886,42.5701,M,M,M,280.00,6.00,M,29.96,M,10.00,M,SCT,OVC,M,M,6000.00,7999.00,M,M,M,KORE 032030Z AUTO 28006KT 10SM SCT060 OVC079 A2996 RMK MADISHF
GHG,2017-11-03 20:35,-70.6721,42.0982,73.40,60.80,64.69,230.00,9.00,0.00,29.90,M,10.00,16.00,CLR,M,M,M,M,M,M,M,M,KGHG 032035Z AUTO 23009G16KT 10SM CLR 23/16 A2990 RMK AO2
FMH,2017-11-03 20:35,-70.5215,41.6585,64.40,60.80,88.09,220.00,10.00,0.00,29.96,M,10.00,M,FEW,M,M,M,1300.00,M,M,M,M,KFMH 032035Z AUTO 22010KT 10SM FEW013 18/16 A2996 RMK AO2
PVC,2017-11-03 20:35,-70.2200,42.0700,M,M,M,190.00,11.00,M,29.93,M,10.00,M,M,M,M,M,M,M,M,M,M,KPVC 032035Z AUTO 19011KT 10SM A2993 RMK MADISHF
CQX,2017-11-03 20:35,-69.9933,41.6875,M,M,M,220.00,10.00,M,29.96,M,9.00,16.00,OVC,M,M,M,300.00,M,M,M,M,KCQX 032035Z AUTO 22010G16KT 9SM OVC003 A2996 RMK MADISHF
EWB,2017-11-03 20:35,-70.9583,41.6764,M,M,M,210.00,9.00,M,29.93,M,10.00,M,CLR,M,M,M,M,M,M,M,M,KEWB 032035Z AUTO 21009KT 10SM CLR A2993 RMK MADISHF
ORE,2017-11-03 20:35,-72.2886,42.5701,M,M,M,290.00,7.00,M,29.96,M,10.00,M,FEW,BKN,OVC,M,2900.00,7000.00,8500.00,M,M,KORE 032035Z AUTO 29007KT 10SM FEW029 BKN070 OVC085 A2996 RMK MADISHF
OWD,2017-11-03 20:35,-71.1733,42.1912,M,M,M,240.00,7.00,M,29.90,M,10.00,M,BKN,OVC,M,M,6000.00,7500.00,M,M,M,KOWD 032035Z AUTO 24007KT 10SM BKN060 OVC075 A2990 RMK MADISHF
TAN,2017-11-03 20:35,-71.0211,41.8756,M,M,M,230.00,8.00,M,29.92,M,10.00,M,CLR,M,M,M,M,M,M,M,M,KTAN 032035Z AUTO 23008KT 10SM CLR A2992 RMK MADISHF
ORH,2017-11-03 20:35,-71.8757,42.2673,M,M,M,270.00,11.00,M,29.96,M,10.00,M,FEW,BKN,OVC,M,3700.00,6000.00,9000.00,M,M,KORH 032035Z AUTO 27011KT 10SM FEW037 BKN060 OVC090 A2996 RMK MADISHF
BOS,2017-11-03 20:35,-71.0097,42.3606,M,M,M,250.00,12.00,0.01,29.90,M,9.00,M,FEW,BKN,M,M,3200.00,6500.00,M,M,-RA,KBOS 032035Z AUTO 25012KT 9SM -RA FEW032 BKN065 A2990 RMK P0001 MADISHF
HYA,2017-11-03 20:35,-70.2800,41.6700,M,M,M,210.00,14.00,M,29.93,M,9.00,M,OVC,M,M,M,400.00,M,M,M,M,KHYA 032035Z AUTO 21014KT 9SM OVC004 A2993 RMK MADISHF
BED,2017-11-03 20:35,-71.2890,42.4699,M,M,M,260.00,14.00,M,29.90,M,10.00,M,BKN,OVC,M,M,4900.00,7999.00,M,M,M,KBED 032035Z AUTO 26014KT 10SM BKN049 OVC079 A2990 RMK MADISHF
PYM,2017-11-03 20:35,-70.7288,41.9090,M,M,M,210.00,8.00,M,29.93,M,10.00,M,CLR,M,M,M,M,M,M,M,M,KPYM 032035Z AUTO 21008KT 10SM CLR A2993 RMK MADISHF
HYA,2017-11-03 20:38,-70.2800,41.6700,63.00,60.10,90.25,220.00,14.00,0.00,29.93,M,9.00,M,OVC,M,M,M,400.00,M,M,M,M,KHYA 032038Z 22014KT 9SM OVC004 17/16 A2993 RMK AO2 T01720156
FIT,2017-11-03 20:40,-71.7558,42.5519,M,M,M,280.00,7.00,M,29.94,M,9.00,M,BKN,OVC,M,M,5500.00,7000.00,M,M,-RA,KFIT 032040Z AUTO 28007KT 9SM -RA BKN055 OVC070 A2994 RMK MADISHF
ORE,2017-11-03 20:40,-72.2886,42.5701,M,M,M,290.00,12.00,M,29.97,M,10.00,17.00,FEW,BKN,OVC,M,2900.00,7999.00,10000.00,M,M,KORE 032040Z AUTO 29012G17KT 10SM FEW029 BKN079 OVC100 A2997 RMK MADISHF
TAN,2017-11-03 20:40,-71.0211,41.8756,M,M,M,220.00,9.00,M,29.92,M,10.00,M,CLR,M,M,M,M,M,M,M,M,KTAN 032040Z AUTO 22009KT 10SM CLR A2992 RMK MADISHF
BED,2017-11-03 20:40,-71.2890,42.4699,M,M,M,250.00,13.00,M,29.90,M,10.00,M,BKN,OVC,M,M,4900.00,7999.00,M,M,M,KBED 032040Z AUTO 25013KT 10SM BKN049 OVC079 A2990 RMK MADISHF
ORH,2017-11-03 20:40,-71.8757,42.2673,M,M,M,280.00,11.00,M,29.96,M,10.00,M,FEW,BKN,OVC,M,3700.00,6000.00,9000.00,M,M,KORH 032040Z AUTO 28011KT 10SM FEW037 BKN060 OVC090 A2996 RMK MADISHF
PYM,2017-11-03 20:40,-70.7288,41.9090,M,M,M,210.00,8.00,M,29.93,M,10.00,M,CLR,M,M,M,M,M,M,M,M,KPYM 032040Z AUTO 21008KT 10SM CLR A2993 RMK MADISHF
BOS,2017-11-03 20:40,-71.0097,42.3606,M,M,M,250.00,9.00,0.01,29.90,M,10.00,M,FEW,BKN,M,M,3200.00,6500.00,M,M,-RA,KBOS 032040Z AUTO 25009KT 10SM -RA FEW032 BKN065 A2990 RMK P0001 MADISHF
CQX,2017-11-03 20:40,-69.9933,41.6875,M,M,M,220.00,8.00,M,29.96,M,8.00,M,OVC,M,M,M,300.00,M,M,M,M,KCQX 032040Z AUTO 22008KT 8SM OVC003 A2996 RMK MADISHF
PVC,2017-11-03 20:40,-70.2200,42.0700,M,M,M,190.00,10.00,M,29.93,M,10.00,M,M,M,M,M,M,M,M,M,M,KPVC 032040Z AUTO 19010KT 10SM A2993 RMK MADISHF
EWB,2017-11-03 20:40,-70.9583,41.6764,M,M,M,210.00,9.00,M,29.93,M,10.00,M,CLR,M,M,M,M,M,M,M,M,KEWB 032040Z AUTO 21009KT 10SM CLR A2993 RMK MADISHF
HYA,2017-11-03 20:40,-70.2800,41.6700,M,M,M,220.00,13.00,M,29.93,M,9.00,18.00,OVC,M,M,M,400.00,M,M,M,M,KHYA 032040Z AUTO 22013G18KT 9SM OVC004 A2993 RMK MADISHF
OWD,2017-11-03 20:40,-71.1733,42.1912,M,M,M,240.00,7.00,M,29.90,M,10.00,M,BKN,OVC,M,M,5500.00,7000.00,M,M,M,KOWD 032040Z AUTO 24007KT 10SM BKN055 OVC070 A2990 RMK MADISHF
FIT,2017-11-03 20:45,-71.7558,42.5519,M,M,M,280.00,7.00,M,29.94,M,10.00,M,FEW,OVC,M,M,5000.00,6500.00,M,M,M,KFIT 032045Z AUTO 28007KT 10SM FEW050 OVC065 A2994 RMK MADISHF
PYM,2017-11-03 20:45,-70.7288,41.9090,M,M,M,200.00,8.00,M,29.93,M,10.00,M,CLR,M,M,M,M,M,M,M,M,KPYM 032045Z AUTO 20008KT 10SM CLR A2993 RMK MADISHF
BED,2017-11-03 20:45,-71.2890,42.4699,M,M,M,240.00,13.00,M,29.90,M,10.00,M,BKN,OVC,M,M,4900.00,7999.00,M,M,M,KBED 032045Z AUTO 24013KT 10SM BKN049 OVC079 A2990 RMK MADISHF
ORH,2017-11-03 20:45,-71.8757,42.2673,M,M,M,270.00,9.00,M,29.96,M,10.00,M,FEW,BKN,OVC,M,5000.00,6000.00,7000.00,M,M,KORH 032045Z AUTO 27009KT 10SM FEW050 BKN060 OVC070 A2996 RMK MADISHF
EWB,2017-11-03 20:45,-70.9583,41.6764,M,M,M,220.00,10.00,M,29.94,M,10.00,M,CLR,M,M,M,M,M,M,M,M,KEWB 032045Z AUTO 22010KT 10SM CLR A2994 RMK MADISHF
BOS,2017-11-03 20:45,-71.0097,42.3606,M,M,M,250.00,8.00,0.01,29.90,M,10.00,M,SCT,BKN,M,M,6500.00,10000.00,M,M,M,KBOS 032045Z AUTO 25008KT 10SM SCT065 BKN100 A2990 RMK P0001 MADISHF
HYA,2017-11-03 20:45,-70.2800,41.6700,M,M,M,210.00,14.00,M,29.93,M,9.00,M,OVC,M,M,M,400.00,M,M,M,M,KHYA 032045Z AUTO 21014KT 9SM OVC004 A2993 RMK MADISHF
TAN,2017-11-03 20:45,-71.0211,41.8756,M,M,M,200.00,7.00,M,29.92,M,10.00,M,CLR,M,M,M,M,M,M,M,M,KTAN 032045Z AUTO 20007KT 10SM CLR A2992 RMK MADISHF
PVC,2017-11-03 20:45,-70.2200,42.0700,M,M,M,190.00,11.00,M,29.93,M,10.00,M,M,M,M,M,M,M,M,M,M,KPVC 032045Z AUTO 19011KT 10SM A2993 RMK MADISHF
OWD,2017-11-03 20:45,-71.1733,42.1912,M,M,M,240.00,7.00,M,29.90,M,10.00,M,BKN,OVC,M,M,5500.00,7000.00,M,M,M,KOWD 032045Z AUTO 24007KT 10SM BKN055 OVC070 A2990 RMK MADISHF
ORE,2017-11-03 20:45,-72.2886,42.5701,M,M,M,300.00,8.00,M,29.97,M,10.00,M,FEW,BKN,OVC,M,3100.00,7999.00,9000.00,M,M,KORE 032045Z AUTO 30008KT 10SM FEW031 BKN079 OVC090 A2997 RMK MADISHF
PVC,2017-11-03 20:50,-70.2200,42.0700,M,M,M,200.00,11.00,M,29.93,M,10.00,M,M,M,M,M,M,M,M,M,M,KPVC 032050Z AUTO 20011KT 10SM A2993 RMK MADISHF
EWB,2017-11-03 20:50,-70.9583,41.6764,M,M,M,210.00,9.00,M,29.93,M,10.00,M,CLR,M,M,M,M,M,M,M,M,KEWB 032050Z AUTO 21009KT 10SM CLR A2993 RMK MADISHF
FIT,2017-11-03 20:50,-71.7558,42.5519,M,M,M,260.00,7.00,M,29.94,M,10.00,M,SCT,OVC,M,M,5500.00,7000.00,M,M,M,KFIT 032050Z AUTO 26007KT 10SM SCT055 OVC070 A2994 RMK MADISHF
BOS,2017-11-03 20:50,-71.0097,42.3606,M,M,M,260.00,9.00,0.01,29.90,M,10.00,M,SCT,BKN,M,M,6500.00,10000.00,M,M,M,KBOS 032050Z AUTO 26009KT 10SM SCT065 BKN100 A2990 RMK P0001 MADISHF
HYA,2017-11-03 20:50,-70.2800,41.6700,M,M,M,220.00,11.00,M,29.94,M,9.00,16.00,OVC,M,M,M,400.00,M,M,M,M,KHYA 032050Z AUTO 22011G16KT 9SM OVC004 A2994 RMK MADISHF
OWD,2017-11-03 20:50,-71.1733,42.1912,M,M,M,230.00,9.00,M,29.91,M,10.00,M,SCT,OVC,M,M,5000.00,6500.00,M,M,-RA,KOWD 032050Z AUTO 23009KT 10SM -RA SCT050 OVC065 A2991 RMK MADISHF
BED,2017-11-03 20:50,-71.2890,42.4699,M,M,M,250.00,9.00,M,29.91,M,10.00,M,FEW,BKN,OVC,M,4900.00,6000.00,8500.00,M,M,KBED 032050Z AUTO 25009KT 10SM FEW049 BKN060 OVC085 A2991 RMK MADISHF
ORH,2017-11-03 20:50,-71.8757,42.2673,M,M,M,270.00,10.00,M,29.96,M,10.00,M,OVC,M,M,M,5500.00,M,M,M,M,KORH 032050Z AUTO 27010KT 10SM OVC055 A2996 RMK MADISHF
CQX,2017-11-03 20:50,-69.9933,41.6875,M,M,M,220.00,10.00,M,29.96,M,7.00,M,OVC,M,M,M,200.00,M,M,M,M,KCQX 032050Z AUTO 22010KT 7SM OVC002 A2996 RMK MADISHF
PYM,2017-11-03 20:50,-70.7288,41.9090,M,M,M,200.00,7.00,M,29.93,M,10.00,M,CLR,M,M,M,M,M,M,M,M,KPYM 032050Z AUTO 20007KT 10SM CLR A2993 RMK MADISHF
FIT,2017-11-03 20:52,-71.7558,42.5519,69.10,62.10,78.39,280.00,9.00,0.00,29.94,1014.00,10.00,M,SCT,OVC,M,M,5500.00,7000.00,M,M,M,KFIT 032052Z AUTO 28009KT 10SM SCT055 OVC070 21/17 A2994 RMK AO2 RAB08E45 SLP140 P0000 60000 T02060167 53010
ORH,2017-11-03 20:54,-71.8757,42.2673,64.00,55.90,74.93,280.00,12.00,0.00,29.96,1014.50,10.00,M,OVC,M,M,M,5500.00,M,M,M,M,KORH 032054Z 28012KT 10SM OVC055 18/13 A2996 RMK AO2 SLP145 60000 T01780133 53008
BOS,2017-11-03 20:54,-71.0097,42.3606,72.00,59.00,63.61,270.00,10.00,0.01,29.90,1012.60,10.00,M,SCT,BKN,BKN,BKN,4500.00,10000.00,20000.00,32000.00,M,KBOS 032054Z 27010KT 10SM SCT045 BKN100 BKN200 BKN320 22/15 A2990 RMK AO2 RAB30E41 SLP126 SHRA NE-S P0001 60001 T02220150 55002 $
TAN,2017-11-03 20:55,-71.0211,41.8756,M,M,M,200.00,5.00,M,29.92,M,10.00,M,BKN,M,M,M,10000.00,M,M,M,M,KTAN 032055Z AUTO 20005KT 10SM BKN100 A2992 RMK MADISHF
PVC,2017-11-03 20:55,-70.2200,42.0700,M,M,M,200.00,10.00,M,29.93,M,10.00,M,M,M,M,M,M,M,M,M,M,KPVC 032055Z AUTO 20010KT 10SM A2993 RMK MADISHF
CQX,2017-11-03 20:55,-69.9933,41.6875,M,M,M,220.00,10.00,M,29.95,M,7.00,M,OVC,M,M,M,200.00,M,M,M,M,KCQX 032055Z AUTO 22010KT 7SM OVC002 A2995 RMK MADISHF
ORE,2017-11-03 20:55,-72.2886,42.5701,M,M,M,280.00,10.00,M,29.98,M,10.00,M,SCT,BKN,OVC,M,3100.00,3800.00,9000.00,M,M,KORE 032055Z AUTO 28010KT 10SM SCT031 BKN038 OVC090 A2998 RMK MADISHF
EWB,2017-11-03 20:55,-70.9583,41.6764,M,M,M,210.00,9.00,M,29.93,M,10.00,M,CLR,M,M,M,M,M,M,M,M,KEWB 032055Z AUTO 21009KT 10SM CLR A2993 RMK MADISHF
BOS,2017-11-03 20:55,-71.0097,42.3606,M,M,M,270.00,9.00,M,29.90,M,10.00,M,FEW,OVC,M,M,5000.00,7000.00,M,M,M,KBOS 032055Z AUTO 27009KT 10SM FEW050 OVC070 A2990 RMK MADISHF
HYA,2017-11-03 20:55,-70.2800,41.6700,M,M,M,220.00,14.00,M,29.94,M,8.00,M,OVC,M,M,M,400.00,M,M,M,M,KHYA 032055Z AUTO 22014KT 8SM OVC004 A2994 RMK MADISHF
PYM,2017-11-03 20:55,-70.7288,41.9090,M,M,M,200.00,7.00,M,29.92,M,10.00,M,CLR,M,M,M,M,M,M,M,M,KPYM 032055Z AUTO 20007KT 10SM CLR A2992 RMK MADISHF
OWD,2017-11-03 20:55,-71.1733,42.1912,M,M,M,230.00,10.00,M,29.91,M,10.00,M,OVC,M,M,M,5500.00,M,M,M,-RA,KOWD 032055Z AUTO 23010KT 10SM -RA OVC055 A2991 RMK MADISHF
ORH,2017-11-03 20:55,-71.8757,42.2673,M,M,M,280.00,12.00,M,29.96,M,10.00,M,BKN,OVC,M,M,6000.00,7000.00,M,M,M,KORH 032055Z AUTO 28012KT 10SM BKN060 OVC070 A2996 RMK MADISHF
BED,2017-11-03 20:55,-71.2890,42.4699,M,M,M,250.00,10.00,M,29.91,M,10.00,M,SCT,BKN,OVC,M,4900.00,6000.00,8500.00,M,M,KBED 032055Z AUTO 25010KT 10SM SCT049 BKN060 OVC085 A2991 RMK MADISHF
GHG,2017-11-03 20:55,-70.6721,42.0982,71.60,60.80,68.75,M,6.00,0.00,29.90,M,10.00,19.00,FEW,M,M,M,9500.00,M,M,M,M,KGHG 032055Z AUTO VRB06G19KT 10SM FEW095 22/16 A2990 RMK AO2
FMH,2017-11-03 20:55,-70.5215,41.6585,62.60,60.80,93.83,210.00,12.00,0.00,29.96,M,10.00,M,FEW,M,M,M,1100.00,M,M,M,M,KFMH 032055Z AUTO 21012KT 10SM FEW011 17/16 A2996 RMK AO2
BED,2017-11-03 20:56,-71.2890,42.4699,70.00,57.90,65.45,260.00,11.00,0.00,29.91,1013.90,10.00,M,SCT,BKN,OVC,M,4900.00,6000.00,8500.00,M,M,KBED 032056Z 26011KT 10SM SCT049 BKN060 OVC085 21/14 A2991 RMK AO2 RAE1958 SLP139 P0000 60000 T02110144 53003
HYA,2017-11-03 20:56,-70.2800,41.6700,62.10,60.10,93.16,220.00,14.00,0.00,29.94,1013.80,8.00,M,OVC,M,M,M,400.00,M,M,M,M,KHYA 032056Z 22014KT 8SM OVC004 17/16 A2994 RMK AO2 SLP138 T01670156 56008
MQE,2017-11-03 20:56,-71.1142,42.2121,70.00,55.90,60.89,250.00,11.00,0.00,29.92,1013.90,M,18.00,M,M,M,M,M,M,M,M,M,KMQE 032056Z AUTO 25011G18KT 21/13 A2992 RMK AO1 SLP139 T02110133 55001
PVC,2017-11-03 20:56,-70.2200,42.0700,61.00,59.00,93.12,200.00,10.00,0.00,29.93,1013.40,10.00,M,M,M,M,M,M,M,M,M,M,KPVC 032056Z AUTO 20010KT 10SM 16/15 A2993 RMK AO2 SLP134 T01610150 56010 $
ORE,2017-11-03 21:00,-72.2886,42.5701,M,M,M,290.00,11.00,M,29.98,M,10.00,M,BKN,OVC,M,M,3300.00,9000.00,M,M,M,KORE 032100Z AUTO 29011KT 10SM BKN033 OVC090 A2998 RMK MADISHF
CQX,2017-11-03 21:00,-69.9933,41.6875,M,M,M,220.00,10.00,M,29.96,M,6.00,16.00,OVC,M,M,M,200.00,M,M,M,BR,KCQX 032100Z AUTO 22010G16KT 6SM BR OVC002 A2996 RMK MADISHF
ORH,2017-11-03 21:00,-71.8757,42.2673,M,M,M,270.00,11.00,M,29.96,M,10.00,M,BKN,OVC,M,M,6000.00,7000.00,M,M,M,KORH 032100Z AUTO 27011KT 10SM BKN060 OVC070 A2996 RMK MADISHF
BED,2017-11-03 21:00,-71.2890,42.4699,M,M,M,240.00,11.00,M,29.91,M,10.00,M,BKN,OVC,M,M,6500.00,8500.00,M,M,M,KBED 032100Z AUTO 24011KT 10SM BKN065 OVC085 A2991 RMK MADISHF
HYA,2017-11-03 21:00,-70.2800,41.6700,M,M,M,210.00,12.00,M,29.94,M,8.00,M,OVC,M,M,M,400.00,M,M,M,M,KHYA 032100Z AUTO 21012KT 8SM OVC004 A2994 RMK MADISHF
OWD,2017-11-03 21:00,-71.1733,42.1912,M,M,M,230.00,9.00,M,29.91,M,10.00,M,BKN,OVC,M,M,5000.00,6000.00,M,M,-RA,KOWD 032100Z AUTO 23009KT 10SM -RA BKN050 OVC060 A2991 RMK MADISHF
FIT,2017-11-03 21:00,-71.7558,42.5519,M,M,M,280.00,8.00,M,29.95,M,10.00,M,BKN,OVC,M,M,7000.00,8500.00,M,M,M,KFIT 032100Z AUTO 28008KT 10SM BKN070 OVC085 A2995 RMK MADISHF
PVC,2017-11-03 21:00,-70.2200,42.0700,M,M,M,190.00,10.00,M,29.93,M,10.00,M,M,M,M,M,M,M,M,M,M,KPVC 032100Z AUTO 19010KT 10SM A2993 RMK MADISHF
TAN,2017-11-03 21:00,-71.0211,41.8756,M,M,M,210.00,6.00,M,29.92,M,10.00,M,BKN,M,M,M,10000.00,M,M,M,M,KTAN 032100Z AUTO 21006KT 10SM BKN100 A2992 RMK MADISHF
EWB,2017-11-03 21:00,-70.9583,41.6764,M,M,M,200.00,8.00,M,29.93,M,10.00,M,CLR,M,M,M,M,M,M,M,M,KEWB 032100Z AUTO 20008KT 10SM CLR A2993 RMK MADISHF
BOS,2017-11-03 21:00,-71.0097,42.3606,M,M,M,270.00,10.00,M,29.91,M,10.00,M,FEW,BKN,OVC,M,4900.00,6000.00,7500.00,M,M,KBOS 032100Z AUTO 27010KT 10SM FEW049 BKN060 OVC075 A2991 RMK MADISHF
PYM,2017-11-03 21:00,-70.7288,41.9090,M,M,M,200.00,8.00,M,29.92,M,10.00,M,FEW,M,M,M,10000.00,M,M,M,M,KPYM 032100Z AUTO 20008KT 10SM FEW100 A2992 RMK MADISHF
OWD,2017-11-03 21:05,-71.1733,42.1912,M,M,M,260.00,7.00,M,29.92,M,10.00,M,BKN,OVC,M,M,5000.00,6000.00,M,M,M,KOWD 032105Z AUTO 26007KT 10SM BKN050 OVC060 A2992 RMK MADISHF
EWB,2017-11-03 21:05,-70.9583,41.6764,M,M,M,190.00,10.00,M,29.93,M,10.00,M,FEW,M,M,M,10000.00,M,M,M,M,KEWB 032105Z AUTO 19010KT 10SM FEW100 A2993 RMK MADISHF
ORH,2017-11-03 21:05,-71.8757,42.2673,M,M,M,260.00,8.00,M,29.96,M,10.00,M,FEW,OVC,M,M,4900.00,6000.00,M,M,M,KORH 032105Z AUTO 26008KT 10SM FEW049 OVC060 A2996 RMK MADISHF
CQX,2017-11-03 21:05,-69.9933,41.6875,M,M,M,220.00,10.00,M,29.96,M,5.00,16.00,OVC,M,M,M,200.00,M,M,M,BR,KCQX 032105Z AUTO 22010G16KT 5SM BR OVC002 A2996 RMK MADISHF
TAN,2017-11-03 21:05,-71.0211,41.8756,M,M,M,210.00,4.00,M,29.92,M,10.00,M,BKN,M,M,M,10000.00,M,M,M,M,KTAN 032105Z AUTO 21004KT 10SM BKN100 A2992 RMK VRB04KT  MADISHF
PVC,2017-11-03 21:05,-70.2200,42.0700,M,M,M,190.00,11.00,M,29.92,M,10.00,M,M,M,M,M,M,M,M,M,M,KPVC 032105Z AUTO 19011KT 10SM A2992 RMK MADISHF
ORE,2017-11-03 21:05,-72.2886,42.5701,M,M,M,300.00,11.00,M,29.98,M,10.00,16.00,BKN,BKN,M,M,3300.00,9000.00,M,M,M,KORE 032105Z AUTO 30011G16KT 10SM BKN033 BKN090 A2998 RMK MADISHF
FIT,2017-11-03 21:05,-71.7558,42.5519,M,M,M,270.00,8.00,M,29.95,M,10.00,M,BKN,OVC,M,M,7000.00,8500.00,M,M,M,KFIT 032105Z AUTO 27008KT 10SM BKN070 OVC085 A2995 RMK MADISHF
BED,2017-11-03 21:05,-71.2890,42.4699,M,M,M,260.00,11.00,M,29.91,M,10.00,M,SCT,OVC,M,M,6500.00,7999.00,M,M,M,KBED 032105Z AUTO 26011KT 10SM SCT065 OVC079 A2991 RMK MADISHF
BOS,2017-11-03 21:05,-71.0097,42.3606,M,M,M,280.00,9.00,M,29.91,M,10.00,M,FEW,BKN,OVC,M,4400.00,6000.00,7500.00,M,M,KBOS 032105Z AUTO 28009KT 10SM FEW044 BKN060 OVC075 A2991 RMK MADISHF
HYA,2017-11-03 21:05,-70.2800,41.6700,M,M,M,210.00,12.00,M,29.94,M,8.00,M,OVC,M,M,M,400.00,M,M,M,M,KHYA 032105Z AUTO 21012KT 8SM OVC004 A2994 RMK MADISHF
FIT,2017-11-03 21:10,-71.7558,42.5519,M,M,M,270.00,8.00,M,29.95,M,10.00,M,FEW,SCT,OVC,M,4100.00,7000.00,8500.00,M,M,KFIT 032110Z AUTO 27008KT 10SM FEW041 SCT070 OVC085 A2995 RMK MADISHF
PVC,2017-11-03 21:10,-70.2200,42.0700,M,M,M,200.00,10.00,M,29.92,M,10.00,M,M,M,M,M,M,M,M,M,M,KPVC 032110Z AUTO 20010KT 10SM A2992 RMK MADISHF
BOS,2017-11-03 21:10,-71.0097,42.3606,M,M,M,270.00,11.00,M,29.91,M,10.00,M,SCT,OVC,M,M,4600.00,6500.00,M,M,M,KBOS 032110Z AUTO 27011KT 10SM SCT046 OVC065 A2991 RMK MADISHF
HYA,2017-11-03 21:10,-70.2800,41.6700,M,M,M,210.00,12.00,M,29.94,M,8.00,M,OVC,M,M,M,400.00,M,M,M,M,KHYA 032110Z AUTO 21012KT 8SM OVC004 A2994 RMK MADISHF
ORE,2017-11-03 21:10,-72.2886,42.5701,M,M,M,270.00,10.00,M,29.98,M,10.00,M,SCT,BKN,OVC,M,3000.00,3600.00,9000.00,M,M,KORE 032110Z AUTO 27010KT 10SM SCT030 BKN036 OVC090 A2998 RMK MADISHF
CQX,2017-11-03 21:10,-69.9933,41.6875,M,M,M,220.00,9.00,M,29.96,M,4.00,16.00,OVC,M,M,M,200.00,M,M,M,BR,KCQX 032110Z AUTO 22009G16KT 4SM BR OVC002 A2996 RMK MADISHF
OWD,2017-11-03 21:10,-71.1733,42.1912,M,M,M,260.00,4.00,M,29.92,M,10.00,M,SCT,OVC,M,M,4900.00,6000.00,M,M,M,KOWD 032110Z AUTO 26004KT 10SM SCT049 OVC060 A2992 RMK MADISHF
BED,2017-11-03 21:10,-71.2890,42.4699,M,M,M,260.00,9.00,M,29.92,M,10.00,M,SCT,OVC,M,M,6500.00,7999.00,M,M,M,KBED 032110Z AUTO 26009KT 10SM SCT065 OVC079 A2992 RMK MADISHF
ORH,2017-11-03 21:10,-71.8757,42.2673,M,M,M,270.00,11.00,M,29.96,M,10.00,M,OVC,M,M,M,6000.00,M,M,M,M,KORH 032110Z AUTO 27011KT 10SM OVC060 A2996 RMK MADISHF
PYM,2017-11-03 21:10,-70.7288,41.9090,M,M,M,200.00,7.00,M,29.92,M,10.00,M,FEW,M,M,M,11000.00,M,M,M,M,KPYM 032110Z AUTO 20007KT 10SM FEW110 A2992 RMK MADISHF
EWB,2017-11-03 21:10,-70.9583,41.6764,M,M,M,200.00,10.00,M,29.93,M,10.00,M,SCT,M,M,M,9500.00,M,M,M,M,KEWB 032110Z AUTO 20010KT 10SM SCT095 A2993 RMK MADISHF
PVC,2017-11-03 21:15,-70.2200,42.0700,M,M,M,200.00,10.00,M,29.92,M,10.00,M,M,M,M,M,M,M,M,M,M,KPVC 032115Z AUTO 20010KT 10SM A2992 RMK MADISHF
CQX,2017-11-03 21:15,-69.9933,41.6875,M,M,M,220.00,9.00,M,29.96,M,4.00,M,OVC,M,M,M,200.00,M,M,M,BR,KCQX 032115Z AUTO 22009KT 4SM BR OVC002 A2996 RMK MADISHF
ORE,2017-11-03 21:15,-72.2886,42.5701,M,M,M,290.00,8.00,M,29.98,M,10.00,M,BKN,M,M,M,3200.00,M,M,M,M,KORE 032115Z AUTO 29008KT 10SM BKN032 A2998 RMK MADISHF
BED,2017-11-03 21:15,-71.2890,42.4699,M,M,M,250.00,9.00,M,29.92,M,10.00,M,BKN,OVC,M,M,6500.00,7999.00,M,M,M,KBED 032115Z AUTO 25009KT 10SM BKN065 OVC079 A2992 RMK MADISHF
ORH,2017-11-03 21:15,-71.8757,42.2673,M,M,M,260.00,11.00,M,29.97,M,10.00,M,FEW,OVC,M,M,3000.00,6500.00,M,M,M,KORH 032115Z AUTO 26011KT 10SM FEW030 OVC065 A2997 RMK MADISHF
BOS,2017-11-03 21:15,-71.0097,42.3606,M,M,M,280.00,14.00,M,29.92,M,10.00,M,SCT,BKN,OVC,M,4600.00,6500.00,7999.00,M,M,KBOS 032115Z AUTO 28014KT 10SM SCT046 BKN065 OVC079 A2992 RMK MADISHF
HYA,2017-11-03 21:15,-70.2800,41.6700,M,M,M,210.00,12.00,M,29.94,M,7.00,M,OVC,M,M,M,400.00,M,M,M,M,KHYA 032115Z AUTO 21012KT 7SM OVC004 A2994 RMK MADISHF
EWB,2017-11-03 21:15,-70.9583,41.6764,M,M,M,200.00,8.00,M,29.93,M,10.00,M,BKN,M,M,M,10000.00,M,M,M,M,KEWB 032115Z AUTO 20008KT 10SM BKN100 A2993 RMK MADISHF
PYM,2017-11-03 21:15,-70.7288,41.9090,M,M,M,200.00,6.00,M,29.92,M,10.00,M,SCT,M,M,M,10000.00,M,M,M,M,KPYM 032115Z AUTO 20006KT 10SM SCT100 A2992 RMK MADISHF
TAN,2017-11-03 21:15,-71.0211,41.8756,M,M,M,210.00,6.00,M,29.92,M,10.00,M,FEW,BKN,M,M,7999.00,10000.00,M,M,M,KTAN 032115Z AUTO 21006KT 10SM FEW079 BKN100 A2992 RMK MADISHF
OWD,2017-11-03 21:15,-71.1733,42.1912,M,M,M,250.00,4.00,M,29.92,M,10.00,M,FEW,OVC,M,M,4700.00,6000.00,M,M,M,KOWD 032115Z AUTO 25004KT 10SM FEW047 OVC060 A2992 RMK MADISHF
GHG,2017-11-03 21:15,-70.6721,42.0982,71.60,60.80,68.75,230.00,8.00,0.00,29.91,M,10.00,M,SCT,M,M,M,10000.00,M,M,M,M,KGHG 032115Z AUTO 23008KT 10SM SCT100 22/16 A2991 RMK AO2
FMH,2017-11-03 21:15,-70.5215,41.6585,62.60,60.80,93.83,220.00,8.00,0.00,29.96,M,10.00,M,FEW,M,M,M,1000.00,M,M,M,M,KFMH 032115Z AUTO 22008KT 10SM FEW010 17/16 A2996 RMK AO2
TAN,2017-11-03 21:20,-71.0211,41.8756,M,M,M,210.00,6.00,M,29.92,M,10.00,M,FEW,BKN,M,M,7999.00,10000.00,M,M,M,KTAN 032120Z AUTO 21006KT 10SM FEW079 BKN100 A2992 RMK MADISHF
HYA,2017-11-03 21:20,-70.2800,41.6700,M,M,M,210.00,12.00,M,29.94,M,7.00,M,OVC,M,M,M,400.00,M,M,M,M,KHYA 032120Z AUTO 21012KT 7SM OVC004 A2994 RMK MADISHF
OWD,2017-11-03 21:20,-71.1733,42.1912,M,M,M,250.00,5.00,M,29.92,M,10.00,M,FEW,OVC,M,M,4900.00,6000.00,M,M,M,KOWD 032120Z AUTO 25005KT 10SM FEW049 OVC060 A2992 RMK MADISHF
ORH,2017-11-03 21:20,-71.8757,42.2673,M,M,M,280.00,10.00,M,29.97,M,10.00,M,FEW,SCT,OVC,M,1999.00,3200.00,6500.00,M,M,KORH 032120Z AUTO 28010KT 10SM FEW019 SCT032 OVC065 A2997 RMK MADISHF
BOS,2017-11-03 21:20,-71.0097,42.3606,M,M,M,M,M,M,29.92,M,10.00,M,FEW,BKN,OVC,M,4600.00,6000.00,7999.00,M,M,KBOS 032120Z AUTO /////KT 10SM FEW046 BKN060 OVC079 A2992 RMK MADISHF
PYM,2017-11-03 21:20,-70.7288,41.9090,M,M,M,190.00,6.00,M,29.93,M,10.00,M,SCT,M,M,M,10000.00,M,M,M,M,KPYM 032120Z AUTO 19006KT 10SM SCT100 A2993 RMK MADISHF
PVC,2017-11-03 21:20,-70.2200,42.0700,M,M,M,200.00,9.00,M,29.93,M,10.00,M,M,M,M,M,M,M,M,M,M,KPVC 032120Z AUTO 20009KT 10SM A2993 RMK MADISHF
EWB,2017-11-03 21:20,-70.9583,41.6764,M,M,M,210.00,9.00,M,29.94,M,10.00,M,BKN,M,M,M,10000.00,M,M,M,M,KEWB 032120Z AUTO 21009KT 10SM BKN100 A2994 RMK MADISHF
ORE,2017-11-03 21:20,-72.2886,42.5701,M,M,M,290.00,8.00,M,29.99,M,10.00,M,BKN,M,M,M,3200.00,M,M,M,M,KORE 032120Z AUTO 29008KT 10SM BKN032 A2999 RMK MADISHF
CQX,2017-11-03 21:20,-69.9933,41.6875,M,M,M,220.00,9.00,M,29.96,M,2.50,M,OVC,M,M,M,200.00,M,M,M,BR,KCQX 032120Z AUTO 22009KT 2 1/2SM BR OVC002 A2996 RMK MADISHF
FIT,2017-11-03 21:20,-71.7558,42.5519,M,M,M,270.00,7.00,M,29.96,M,10.00,M,FEW,BKN,OVC,M,2800.00,4700.00,8500.00,M,M,KFIT 032120Z AUTO 27007KT 10SM FEW028 BKN047 OVC085 A2996 RMK MADISHF
BED,2017-11-03 21:20,-71.2890,42.4699,M,M,M,270.00,8.00,M,29.92,M,10.00,M,SCT,OVC,M,M,6500.00,7999.00,M,M,M,KBED 032120Z AUTO 27008KT 10SM SCT065 OVC079 A2992 RMK MADISHF
HYA,2017-11-03 21:25,-70.2800,41.6700,M,M,M,210.00,11.00,M,29.94,M,7.00,M,OVC,M,M,M,300.00,M,M,M,M,KHYA 032125Z AUTO 21011KT 7SM OVC003 A2994 RMK MADISHF
TAN,2017-11-03 21:25,-71.0211,41.8756,M,M,M,200.00,5.00,M,29.92,M,10.00,M,FEW,BKN,M,M,9000.00,10000.00,M,M,M,KTAN 032125Z AUTO 20005KT 10SM FEW090 BKN100 A2992 RMK MADISHF
FIT,2017-11-03 21:25,-71.7558,42.5519,M,M,M,280.00,8.00,M,29.96,M,10.00,M,SCT,BKN,BKN,M,2800.00,3800.00,4700.00,M,M,KFIT 032125Z AUTO 28008KT 10SM SCT028 BKN038 BKN047 A2996 RMK MADISHF
PYM,2017-11-03 21:25,-70.7288,41.9090,M,M,M,200.00,7.00,M,29.93,M,10.00,M,FEW,M,M,M,10000.00,M,M,M,M,KPYM 032125Z AUTO 20007KT 10SM FEW100 A2993 RMK MADISHF
ORH,2017-11-03 21:25,-71.8757,42.2673,M,M,M,M,M,M,29.97,M,10.00,M,FEW,BKN,OVC,M,2200.00,3399.00,6500.00,M,M,KORH 032125Z AUTO /////KT 10SM FEW022 BKN033 OVC065 A2997 RMK MADISHF
BED,2017-11-03 21:25,-71.2890,42.4699,M,M,M,260.00,10.00,M,29.92,M,10.00,M,FEW,OVC,M,M,6500.00,7999.00,M,M,M,KBED 032125Z AUTO 26010KT 10SM FEW065 OVC079 A2992 RMK MADISHF
PVC,2017-11-03 21:25,-70.2200,42.0700,M,M,M,200.00,12.00,M,29.93,M,10.00,M,M,M,M,M,M,M,M,M,M,KPVC 032125Z AUTO 20012KT 10SM A2993 RMK MADISHF
EWB,2017-11-03 21:25,-70.9583,41.6764,M,M,M,210.00,8.00,M,29.94,M,10.00,M,BKN,M,M,M,10000.00,M,M,M,M,KEWB 032125Z AUTO 21008KT 10SM BKN100 A2994 RMK MADISHF
OWD,2017-11-03 21:25,-71.1733,42.1912,M,M,M,270.00,5.00,M,29.92,M,10.00,M,FEW,OVC,M,M,4900.00,6000.00,M,M,M,KOWD 032125Z AUTO 27005KT 10SM FEW049 OVC060 A2992 RMK MADISHF
BOS,2017-11-03 21:25,-71.0097,42.3606,M,M,M,280.00,12.00,M,29.92,M,10.00,M,FEW,SCT,OVC,M,4600.00,6000.00,7999.00,M,M,KBOS 032125Z AUTO 28012KT 10SM FEW046 SCT060 OVC079 A2992 RMK MADISHF
CQX,2017-11-03 21:25,-69.9933,41.6875,61.00,61.00,100.00,230.00,10.00,0.00,29.96,M,2.00,17.00,OVC,M,M,M,200.00,M,M,M,BR,KCQX 032125Z AUTO 23010G17KT 2SM BR OVC002 16/16 A2996 RMK AO2 T01610161
BED,2017-11-03 21:30,-71.2890,42.4699,M,M,M,280.00,8.00,M,29.93,M,10.00,M,SCT,OVC,M,M,6500.00,7999.00,M,M,M,KBED 032130Z AUTO 28008KT 10SM SCT065 OVC079 A2993 RMK MADISHF
HYA,2017-11-03 21:30,-70.2800,41.6700,M,M,M,220.00,11.00,M,29.94,M,8.00,M,OVC,M,M,M,300.00,M,M,M,M,KHYA 032130Z AUTO 22011KT 8SM OVC003 A2994 RMK MADISHF
ORH,2017-11-03 21:30,-71.8757,42.2673,M,M,M,M,M,M,29.97,M,10.00,22.00,FEW,BKN,OVC,M,2200.00,3100.00,6500.00,M,M,KORH 032130Z AUTO /////G22KT 10SM FEW022 BKN031 OVC065 A2997 RMK MADISHF
ORE,2017-11-03 21:30,-72.2886,42.5701,M,M,M,M,M,M,29.99,M,10.00,M,SCT,M,M,M,3200.00,M,M,M,M,KORE 032130Z AUTO /////KT 10SM SCT032 A2999 RMK MADISHF
PYM,2017-11-03 21:30,-70.7288,41.9090,M,M,M,190.00,6.00,M,29.93,M,10.00,M,FEW,SCT,M,M,8500.00,10000.00,M,M,M,KPYM 032130Z AUTO 19006KT 10SM FEW085 SCT100 A2993 RMK MADISHF
EWB,2017-11-03 21:30,-70.9583,41.6764,M,M,M,210.00,9.00,M,29.94,M,10.00,M,OVC,M,M,M,10000.00,M,M,M,M,KEWB 032130Z AUTO 21009KT 10SM OVC100 A2994 RMK MADISHF
OWD,2017-11-03 21:30,-71.1733,42.1912,M,M,M,270.00,8.00,M,29.93,M,10.00,M,FEW,BKN,OVC,M,4900.00,6000.00,7500.00,M,M,KOWD 032130Z AUTO 27008KT 10SM FEW049 BKN060 OVC075 A2993 RMK MADISHF
BOS,2017-11-03 21:30,-71.0097,42.3606,M,M,M,270.00,11.00,M,29.92,M,10.00,M,FEW,OVC,M,M,4500.00,7999.00,M,M,M,KBOS 032130Z AUTO 27011KT 10SM FEW045 OVC079 A2992 RMK MADISHF
FIT,2017-11-03 21:30,-71.7558,42.5519,M,M,M,300.00,10.00,M,29.97,M,10.00,17.00,FEW,BKN,BKN,M,2600.00,3300.00,4300.00,M,M,KFIT 032130Z AUTO 30010G17KT 10SM FEW026 BKN033 BKN043 A2997 RMK MADISHF
CQX,2017-11-03 21:30,-69.9933,41.6875,M,M,M,220.00,7.00,M,29.96,M,2.00,M,OVC,M,M,M,200.00,M,M,M,BR,KCQX 032130Z AUTO 22007KT 2SM BR OVC002 A2996 RMK MADISHF
ORH,2017-11-03 21:35,-71.8757,42.2673,M,M,M,M,M,M,29.98,M,10.00,M,FEW,BKN,OVC,M,2200.00,3300.00,8500.00,M,M,KORH 032135Z AUTO /////KT 10SM FEW022 BKN033 OVC085 A2998 RMK MADISHF
BED,2017-11-03 21:35,-71.2890,42.4699,M,M,M,280.00,6.00,M,29.93,M,10.00,M,BKN,OVC,M,M,6500.00,7999.00,M,M,M,KBED 032135Z AUTO 28006KT 10SM BKN065 OVC079 A2993 RMK MADISHF
EWB,2017-11-03 21:35,-70.9583,41.6764,M,M,M,210.00,9.00,M,29.94,M,10.00,M,OVC,M,M,M,10000.00,M,M,M,M,KEWB 032135Z AUTO 21009KT 10SM OVC100 A2994 RMK MADISHF
ORE,2017-11-03 21:35,-72.2886,42.5701,M,M,M,290.00,9.00,M,29.99,M,10.00,M,FEW,M,M,M,3100.00,M,M,M,M,KORE 032135Z AUTO 29009KT 10SM FEW031 A2999 RMK MADISHF
FMH,2017-11-03 21:35,-70.5215,41.6585,60.80,60.80,100.00,210.00,9.00,0.00,29.96,M,10.00,M,CLR,M,M,M,M,M,M,M,M,KFMH 032135Z AUTO 21009KT 10SM CLR 16/16 A2996 RMK AO2
PVC,2017-11-03 21:35,-70.2200,42.0700,M,M,M,210.00,12.00,M,29.93,M,10.00,M,M,M,M,M,M,M,M,M,M,KPVC 032135Z AUTO 21012KT 10SM A2993 RMK MADISHF
CQX,2017-11-03 21:35,-69.9933,41.6875,M,M,M,220.00,11.00,M,29.96,M,2.50,M,OVC,M,M,M,200.00,M,M,M,BR,KCQX 032135Z AUTO 22011KT 2 1/2SM BR OVC002 A2996 RMK MADISHF
BOS,2017-11-03 21:35,-71.0097,42.3606,M,M,M,260.00,13.00,M,29.92,M,10.00,18.00,FEW,OVC,M,M,4500.00,7999.00,M,M,M,KBOS 032135Z AUTO 26013G18KT 10SM FEW045 OVC079 A2992 RMK MADISHF
HYA,2017-11-03 21:35,-70.2800,41.6700,M,M,M,220.00,13.00,M,29.94,M,8.00,M,OVC,M,M,M,300.00,M,M,M,M,KHYA 032135Z AUTO 22013KT 8SM OVC003 A2994 RMK MADISHF
OWD,2017-11-03 21:35,-71.1733,42.1912,M,M,M,270.00,11.00,M,29.93,M,10.00,M,FEW,OVC,M,M,5000.00,7000.00,M,M,M,KOWD 032135Z AUTO 27011KT 10SM FEW050 OVC070 A2993 RMK MADISHF
PYM,2017-11-03 21:35,-70.7288,41.9090,M,M,M,180.00,6.00,M,29.93,M,10.00,M,SCT,BKN,M,M,8500.00,10000.00,M,M,M,KPYM 032135Z AUTO 18006KT 10SM SCT085 BKN100 A2993 RMK MADISHF
TAN,2017-11-03 21:35,-71.0211,41.8756,M,M,M,220.00,7.00,M,29.93,M,10.00,M,BKN,BKN,M,M,8500.00,10000.00,M,M,M,KTAN 032135Z AUTO 22007KT 10SM BKN085 BKN100 A2993 RMK MADISHF
GHG,2017-11-03 21:35,-70.6721,42.0982,69.80,60.80,73.09,240.00,6.00,0.00,29.91,M,10.00,13.00,SCT,M,M,M,10000.00,M,M,M,M,KGHG 032135Z AUTO 24006G13KT 10SM SCT100 21/16 A2991 RMK AO2
FIT,2017-11-03 21:40,-71.7558,42.5519,M,M,M,M,M,M,29.97,M,10.00,M,SCT,SCT,M,M,2800.00,3800.00,M,M,M,KFIT 032140Z AUTO /////KT 10SM SCT028 SCT038 A2997 RMK MADISHF
PVC,2017-11-03 21:40,-70.2200,42.0700,M,M,M,210.00,12.00,M,29.93,M,10.00,M,M,M,M,M,M,M,M,M,M,KPVC 032140Z AUTO 21012KT 10SM A2993 RMK MADISHF
ORH,2017-11-03 21:40,-71.8757,42.2673,M,M,M,M,M,M,29.98,M,10.00,M,FEW,BKN,OVC,M,2200.00,3300.00,8500.00,M,M,KORH 032140Z AUTO /////KT 10SM FEW022 BKN033 OVC085 A2998 RMK MADISHF
PYM,2017-11-03 21:40,-70.7288,41.9090,M,M,M,190.00,6.00,M,29.93,M,10.00,M,SCT,BKN,M,M,8500.00,10000.00,M,M,M,KPYM 032140Z AUTO 19006KT 10SM SCT085 BKN100 A2993 RMK MADISHF
EWB,2017-11-03 21:40,-70.9583,41.6764,M,M,M,220.00,9.00,M,29.94,M,10.00,M,OVC,M,M,M,10000.00,M,M,M,M,KEWB 032140Z AUTO 22009KT 10SM OVC100 A2994 RMK MADISHF
ORE,2017-11-03 21:40,-72.2886,42.5701,M,M,M,270.00,12.00,M,29.99,M,10.00,M,FEW,M,M,M,3100.00,M,M,M,M,KORE 032140Z AUTO 27012KT 10SM FEW031 A2999 RMK MADISHF
CQX,2017-11-03 21:40,-69.9933,41.6875,M,M,M,220.00,8.00,M,29.96,M,3.00,M,OVC,M,M,M,200.00,M,M,M,BR,KCQX 032140Z AUTO 22008KT 3SM BR OVC002 A2996 RMK MADISHF
TAN,2017-11-03 21:40,-71.0211,41.8756,M,M,M,230.00,4.00,M,29.94,M,10.00,M,BKN,OVC,M,M,7999.00,10000.00,M,M,M,KTAN 032140Z AUTO 23004KT 10SM BKN079 OVC100 A2994 RMK MADISHF
HYA,2017-11-03 21:40,-70.2800,41.6700,M,M,M,220.00,12.00,M,29.94,M,8.00,M,OVC,M,M,M,300.00,M,M,M,M,KHYA 032140Z AUTO 22012KT 8SM OVC003 A2994 RMK MADISHF
OWD,2017-11-03 21:40,-71.1733,42.1912,M,M,M,270.00,9.00,M,29.93,M,10.00,M,BKN,OVC,M,M,7000.00,7999.00,M,M,M,KOWD 032140Z AUTO 27009KT 10SM BKN070 OVC079 A2993 RMK MADISHF
BOS,2017-11-03 21:40,-71.0097,42.3606,M,M,M,270.00,13.00,M,29.92,M,10.00,M,OVC,M,M,M,7999.00,M,M,M,M,KBOS 032140Z AUTO 27013KT 10SM OVC079 A2992 RMK MADISHF
BED,2017-11-03 21:40,-71.2890,42.4699,M,M,M,280.00,8.00,M,29.93,M,10.00,M,BKN,OVC,M,M,7000.00,7999.00,M,M,M,KBED 032140Z AUTO 28008KT 10SM BKN070 OVC079 A2993 RMK MADISHF
TAN,2017-11-03 21:45,-71.0211,41.8756,M,M,M,240.00,7.00,M,29.94,M,10.00,M,BKN,BKN,OVC,M,7500.00,9000.00,10000.00,M,M,KTAN 032145Z AUTO 24007KT 10SM BKN075 BKN090 OVC100 A2994 RMK MADISHF
FIT,2017-11-03 21:45,-71.7558,42.5519,M,M,M,300.00,10.00,M,29.97,M,10.00,M,FEW,SCT,BKN,M,2600.00,4500.00,9000.00,M,M,KFIT 032145Z AUTO 30010KT 10SM FEW026 SCT045 BKN090 A2997 RMK MADISHF
HYA,2017-11-03 21:45,-70.2800,41.6700,M,M,M,210.00,13.00,M,29.94,M,8.00,M,OVC,M,M,M,300.00,M,M,M,M,KHYA 032145Z AUTO 21013KT 8SM OVC003 A2994 RMK MADISHF
OWD,2017-11-03 21:45,-71.1733,42.1912,M,M,M,270.00,13.00,M,29.93,M,10.00,20.00,BKN,OVC,M,M,7000.00,7999.00,M,M,M,KOWD 032145Z AUTO 27013G20KT 10SM BKN070 OVC079 A2993 RMK MADISHF
BED,2017-11-03 21:45,-71.2890,42.4699,M,M,M,270.00,11.00,M,29.93,M,10.00,M,OVC,M,M,M,7500.00,M,M,M,M,KBED 032145Z AUTO 27011KT 10SM OVC075 A2993 RMK MADISHF
CQX,2017-11-03 21:45,-69.9933,41.6875,61.00,61.00,100.00,220.00,8.00,0.00,29.96,M,3.00,16.00,OVC,M,M,M,200.00,M,M,M,BR,KCQX 032145Z AUTO 22008G16KT 3SM BR OVC002 16/16 A2996 RMK AO2 T01610161
EWB,2017-11-03 21:45,-70.9583,41.6764,M,M,M,210.00,9.00,M,29.94,M,10.00,M,FEW,OVC,M,M,7999.00,10000.00,M,M,M,KEWB 032145Z AUTO 21009KT 10SM FEW079 OVC100 A2994 RMK MADISHF
PVC,2017-11-03 21:45,-70.2200,42.0700,M,M,M,210.00,11.00,M,29.93,M,10.00,M,M,M,M,M,M,M,M,M,M,KPVC 032145Z AUTO 21011KT 10SM A2993 RMK MADISHF
PYM,2017-11-03 21:45,-70.7288,41.9090,M,M,M,200.00,5.00,M,29.94,M,10.00,M,SCT,BKN,M,M,8500.00,10000.00,M,M,M,KPYM 032145Z AUTO 20005KT 10SM SCT085 BKN100 A2994 RMK MADISHF
ORE,2017-11-03 21:45,-72.2886,42.5701,M,M,M,290.00,11.00,M,30.00,M,10.00,16.00,CLR,M,M,M,M,M,M,M,M,KORE 032145Z AUTO 29011G16KT 10SM CLR A3000 RMK MADISHF
ORH,2017-11-03 21:45,-71.8757,42.2673,M,M,M,M,M,M,29.98,M,10.00,20.00,FEW,SCT,OVC,M,2200.00,3000.00,7999.00,M,M,KORH 032145Z AUTO /////G20KT 10SM FEW022 SCT030 OVC079 A2998 RMK MADISHF
BOS,2017-11-03 21:45,-71.0097,42.3606,M,M,M,M,M,M,29.93,M,10.00,M,OVC,M,M,M,7500.00,M,M,M,M,KBOS 032145Z AUTO /////KT 10SM OVC075 A2993 RMK MADISHF
BED,2017-11-03 21:50,-71.2890,42.4699,M,M,M,280.00,10.00,M,29.94,M,10.00,M,SCT,OVC,M,M,4500.00,8500.00,M,M,M,KBED 032150Z AUTO 28010KT 10SM SCT045 OVC085 A2994 RMK MADISHF
CQX,2017-11-03 21:50,-69.9933,41.6875,M,M,M,220.00,10.00,M,29.96,M,3.00,M,OVC,M,M,M,200.00,M,M,M,BR,KCQX 032150Z AUTO 22010KT 3SM BR OVC002 A2996 RMK MADISHF
PVC,2017-11-03 21:50,-70.2200,42.0700,M,M,M,220.00,13.00,M,29.94,M,10.00,M,M,M,M,M,M,M,M,M,M,KPVC 032150Z AUTO 22013KT 10SM A2994 RMK MADISHF
FIT,2017-11-03 21:50,-71.7558,42.5519,M,M,M,310.00,9.00,M,29.98,M,10.00,M,FEW,BKN,M,M,2600.00,9000.00,M,M,M,KFIT 032150Z AUTO 31009KT 10SM FEW026 BKN090 A2998 RMK MADISHF
ORE,2017-11-03 21:50,-72.2886,42.5701,M,M,M,M,M,M,30.00,M,10.00,M,CLR,M,M,M,M,M,M,M,M,KORE 032150Z AUTO /////KT 10SM CLR A3000 RMK MADISHF
ORH,2017-11-03 21:50,-71.8757,42.2673,M,M,M,270.00,14.00,M,29.98,M,10.00,20.00,FEW,SCT,OVC,M,2500.00,3200.00,7999.00,M,M,KORH 032150Z AUTO 27014G20KT 10SM FEW025 SCT032 OVC079 A2998 RMK MADISHF
EWB,2017-11-03 21:50,-70.9583,41.6764,M,M,M,220.00,7.00,M,29.94,M,10.00,M,BKN,OVC,M,M,8500.00,10000.00,M,M,M,KEWB 032150Z AUTO 22007KT 10SM BKN085 OVC100 A2994 RMK MADISHF
BOS,2017-11-03 21:50,-71.0097,42.3606,M,M,M,270.00,12.00,M,29.93,M,10.00,M,BKN,OVC,M,M,7500.00,9000.00,M,M,M,KBOS 032150Z AUTO 27012KT 10SM BKN075 OVC090 A2993 RMK MADISHF
HYA,2017-11-03 21:50,-70.2800,41.6700,M,M,M,210.00,12.00,M,29.94,M,8.00,M,OVC,M,M,M,300.00,M,M,M,M,KHYA 032150Z AUTO 21012KT 8SM OVC003 A2994 RMK MADISHF
OWD,2017-11-03 21:50,-71.1733,42.1912,M,M,M,260.00,11.00,M,29.93,M,10.00,M,BKN,OVC,M,M,6500.00,7999.00,M,M,M,KOWD 032150Z AUTO 26011KT 10SM BKN065 OVC079 A2993 RMK MADISHF
TAN,2017-11-03 21:50,-71.0211,41.8756,M,M,M,230.00,6.00,M,29.94,M,10.00,M,BKN,OVC,M,M,7500.00,9000.00,M,M,-RA,KTAN 032150Z AUTO 23006KT 10SM -RA BKN075 OVC090 A2994 RMK MADISHF
PYM,2017-11-03 21:50,-70.7288,41.9090,M,M,M,210.00,6.00,M,29.94,M,10.00,M,BKN,OVC,M,M,9000.00,10000.00,M,M,M,KPYM 032150Z AUTO 21006KT 10SM BKN090 OVC100 A2994 RMK MADISHF
CQX,2017-11-03 21:52,-69.9933,41.6875,60.10,60.10,100.00,220.00,8.00,0.00,29.96,1014.70,3.00,16.00,OVC,M,M,M,200.00,M,M,M,BR,KCQX 032152Z AUTO 22008G16KT 3SM BR OVC002 16/16 A2996 RMK AO2 SLP147 T01560156
PYM,2017-11-03 21:52,-70.7288,41.9090,66.00,61.00,83.91,200.00,6.00,0.00,29.94,1013.90,10.00,M,BKN,OVC,M,M,9000.00,10000.00,M,M,M,KPYM 032152Z AUTO 20006KT 10SM BKN090 OVC100 19/16 A2994 RMK AO2 SLP139 T01890161
ORE,2017-11-03 21:52,-72.2886,42.5701,61.00,52.00,72.22,310.00,13.00,0.00,30.00,1015.90,10.00,21.00,CLR,M,M,M,M,M,M,M,M,KORE 032152Z AUTO 31013G21KT 10SM CLR 16/11 A3000 RMK AO2 SLP159 T01610111 TSNO
TAN,2017-11-03 21:52,-71.0211,41.8756,66.90,59.00,75.74,230.00,6.00,0.00,29.95,1014.00,10.00,M,BKN,OVC,M,M,7500.00,9000.00,M,M,-RA,KTAN 032152Z AUTO 23006KT 10SM -RA BKN075 OVC090 19/15 A2995 RMK AO2 RAB49 SLP140 P0000 T01940150
FIT,2017-11-03 21:52,-71.7558,42.5519,66.90,57.90,72.81,310.00,12.00,0.00,29.98,1015.20,10.00,M,FEW,FEW,BKN,M,2900.00,4100.00,9000.00,M,M,KFIT 032152Z AUTO 31012KT 10SM FEW029 FEW041 BKN090 19/14 A2998 RMK AO2 SLP152 T01940144
EWB,2017-11-03 21:53,-70.9583,41.6764,64.00,60.10,87.14,220.00,7.00,0.00,29.95,1014.00,10.00,M,BKN,BKN,M,M,8000.00,10000.00,M,M,M,KEWB 032153Z 22007KT 10SM BKN080 BKN100 18/16 A2995 RMK AO2 SLP140 T01780156
OWD,2017-11-03 21:53,-71.1733,42.1912,72.00,59.00,63.61,280.00,11.00,0.00,29.93,1013.40,10.00,20.00,BKN,OVC,M,M,7000.00,8000.00,M,M,M,KOWD 032153Z 28011G20KT 10SM BKN070 OVC080 22/15 A2993 RMK AO2 RAE01 SLP134 P0000 T02220150
ORH,2017-11-03 21:54,-71.8757,42.2673,62.10,54.00,74.75,290.00,14.00,0.00,29.99,1015.40,10.00,21.00,FEW,FEW,BKN,M,2500.00,3200.00,8000.00,M,M,KORH 032154Z 29014G21KT 10SM FEW025 FEW032 BKN080 17/12 A2999 RMK AO2 SLP154 T01670122
BOS,2017-11-03 21:54,-71.0097,42.3606,70.00,59.00,68.09,280.00,14.00,0.00,29.93,1013.50,10.00,M,FEW,BKN,BKN,BKN,3200.00,6000.00,9500.00,20000.00,M,KBOS 032154Z 28014KT 10SM FEW032 BKN060 BKN095 BKN200 21/15 A2993 RMK AO2 SLP135 T02110150 $
ORE,2017-11-03 21:55,-72.2886,42.5701,M,M,M,M,M,M,30.00,M,10.00,M,CLR,M,M,M,M,M,M,M,M,KORE 032155Z AUTO /////KT 10SM CLR A3000 RMK MADISHF
PVC,2017-11-03 21:55,-70.2200,42.0700,M,M,M,220.00,13.00,M,29.94,M,10.00,M,M,M,M,M,M,M,M,M,M,KPVC 032155Z AUTO 22013KT 10SM A2994 RMK MADISHF
CQX,2017-11-03 21:55,-69.9933,41.6875,M,M,M,220.00,9.00,M,29.97,M,3.00,M,OVC,M,M,M,200.00,M,M,M,BR,KCQX 032155Z AUTO 22009KT 3SM BR OVC002 A2997 RMK WND 20V26  MADISHF
BOS,2017-11-03 21:55,-71.0097,42.3606,M,M,M,280.00,13.00,M,29.93,M,10.00,M,BKN,OVC,M,M,7000.00,9500.00,M,M,M,KBOS 032155Z AUTO 28013KT 10SM BKN070 OVC095 A2993 RMK MADISHF
OWD,2017-11-03 21:55,-71.1733,42.1912,M,M,M,280.00,9.00,M,29.93,M,10.00,M,BKN,OVC,M,M,7000.00,10000.00,M,M,M,KOWD 032155Z AUTO 28009KT 10SM BKN070 OVC100 A2993 RMK MADISHF
HYA,2017-11-03 21:55,-70.2800,41.6700,M,M,M,210.00,14.00,M,29.94,M,8.00,M,OVC,M,M,M,300.00,M,M,M,M,KHYA 032155Z AUTO 21014KT 8SM OVC003 A2994 RMK MADISHF
ORH,2017-11-03 21:55,-71.8757,42.2673,M,M,M,M,M,M,29.99,M,10.00,M,FEW,FEW,BKN,M,2500.00,3200.00,7999.00,M,M,KORH 032155Z AUTO /////KT 10SM FEW025 FEW032 BKN079 A2999 RMK MADISHF
EWB,2017-11-03 21:55,-70.9583,41.6764,M,M,M,220.00,8.00,M,29.95,M,10.00,M,BKN,OVC,M,M,7999.00,10000.00,M,M,M,KEWB 032155Z AUTO 22008KT 10SM BKN079 OVC100 A2995 RMK MADISHF
BED,2017-11-03 21:55,-71.2890,42.4699,M,M,M,280.00,11.00,M,29.94,M,10.00,M,SCT,OVC,M,M,4500.00,8500.00,M,M,M,KBED 032155Z AUTO 28011KT 10SM SCT045 OVC085 A2994 RMK MADISHF
TAN,2017-11-03 21:55,-71.0211,41.8756,M,M,M,230.00,5.00,M,29.95,M,10.00,M,OVC,M,M,M,7500.00,M,M,M,-RA,KTAN 032155Z AUTO 23005KT 10SM -RA OVC075 A2995 RMK MADISHF
GHG,2017-11-03 21:55,-70.6721,42.0982,69.80,60.80,73.09,260.00,7.00,0.00,29.94,M,10.00,M,M,M,M,M,M,M,M,M,M,KGHG 032155Z AUTO 26007KT 230V290 10SM 21/16 A2994 RMK AO2
FMH,2017-11-03 21:55,-70.5215,41.6585,60.80,59.00,93.79,220.00,7.00,0.00,29.97,M,10.00,M,FEW,M,M,M,900.00,M,M,M,M,KFMH 032155Z AUTO 22007KT 10SM FEW009 16/15 A2997 RMK AO2
PVC,2017-11-03 21:56,-70.2200,42.0700,60.10,59.00,96.15,220.00,12.00,0.00,29.94,1013.70,10.00,M,M,M,M,M,M,M,M,M,M,KPVC 032156Z AUTO 22012KT 10SM 16/15 A2994 RMK AO2 SLP137 T01560150 $
MQE,2017-11-03 21:56,-71.1142,42.2121,66.90,57.00,70.49,280.00,13.00,0.00,29.94,1014.70,M,M,M,M,M,M,M,M,M,M,M,KMQE 032156Z AUTO 28013KT 19/14 A2994 RMK AO1 SLP147 T01940139
BED,2017-11-03 21:56,-71.2890,42.4699,68.00,57.00,67.86,280.00,10.00,0.00,29.94,1015.00,10.00,M,SCT,OVC,M,M,4500.00,8500.00,M,M,M,KBED 032156Z 28010KT 10SM SCT045 OVC085 20/14 A2994 RMK AO2 SLP150 T02000139
HYA,2017-11-03 21:56,-70.2800,41.6700,62.10,60.10,93.16,220.00,13.00,0.00,29.94,1013.90,8.00,M,OVC,M,M,M,300.00,M,M,M,M,KHYA 032156Z 22013KT 8SM OVC003 17/16 A2994 RMK AO2 SLP139 T01670156
CQX,2017-11-03 22:00,-69.9933,41.6875,M,M,M,220.00,9.00,M,29.97,M,3.00,M,OVC,M,M,M,200.00,M,M,M,BR,KCQX 032200Z AUTO 22009KT 3SM BR OVC002 A2997 RMK MADISHF
BOS,2017-11-03 22:00,-71.0097,42.3606,M,M,M,280.00,11.00,M,29.94,M,10.00,M,FEW,BKN,M,M,3100.00,6000.00,M,M,M,KBOS 032200Z AUTO 28011KT 10SM FEW031 BKN060 A2994 RMK MADISHF
OWD,2017-11-03 22:00,-71.1733,42.1912,M,M,M,280.00,9.00,M,29.93,M,10.00,M,BKN,BKN,OVC,M,7000.00,7999.00,10000.00,M,M,KOWD 032200Z AUTO 28009KT 10SM BKN070 BKN079 OVC100 A2993 RMK MADISHF
EWB,2017-11-03 22:00,-70.9583,41.6764,M,M,M,220.00,6.00,M,29.95,M,10.00,M,BKN,OVC,M,M,7999.00,10000.00,M,M,M,KEWB 032200Z AUTO 22006KT 10SM BKN079 OVC100 A2995 RMK MADISHF
ORH,2017-11-03 22:00,-71.8757,42.2673,M,M,M,290.00,11.00,M,29.99,M,10.00,M,FEW,SCT,BKN,M,2300.00,2800.00,7999.00,M,M,KORH 032200Z AUTO 29011KT 10SM FEW023 SCT028 BKN079 A2999 RMK MADISHF
FIT,2017-11-03 22:00,-71.7558,42.5519,M,M,M,M,M,M,29.98,M,10.00,M,SCT,BKN,M,M,4100.00,9000.00,M,M,M,KFIT 032200Z AUTO /////KT 10SM SCT041 BKN090 A2998 RMK MADISHF
PYM,2017-11-03 22:00,-70.7288,41.9090,M,M,M,210.00,6.00,M,29.95,M,10.00,M,BKN,OVC,M,M,8500.00,10000.00,M,M,M,KPYM 032200Z AUTO 21006KT 10SM BKN085 OVC100 A2995 RMK MADISHF
HYA,2017-11-03 22:00,-70.2800,41.6700,M,M,M,210.00,12.00,M,29.94,M,7.00,M,OVC,M,M,M,300.00,M,M,M,M,KHYA 032200Z AUTO 21012KT 7SM OVC003 A2994 RMK MADISHF
BED,2017-11-03 22:00,-71.2890,42.4699,M,M,M,290.00,13.00,M,29.94,M,10.00,M,FEW,OVC,M,M,4900.00,7999.00,M,M,M,KBED 032200Z AUTO 29013KT 10SM FEW049 OVC079 A2994 RMK MADISHF
ORE,2017-11-03 22:00,-72.2886,42.5701,M,M,M,M,M,M,30.00,M,10.00,M,CLR,M,M,M,M,M,M,M,M,KORE 032200Z AUTO /////KT 10SM CLR A3000 RMK MADISHF
PVC,2017-11-03 22:00,-70.2200,42.0700,M,M,M,210.00,13.00,M,29.94,M,10.00,M,M,M,M,M,M,M,M,M,M,KPVC 032200Z AUTO 21013KT 10SM A2994 RMK MADISHF
TAN,2017-11-03 22:00,-71.0211,41.8756,M,M,M,230.00,6.00,M,29.95,M,10.00,M,OVC,M,M,M,7999.00,M,M,M,-RA,KTAN 032200Z AUTO 23006KT 10SM -RA OVC079 A2995 RMK MADISHF
CQX,2017-11-03 22:05,-69.9933,41.6875,M,M,M,220.00,8.00,M,29.97,M,2.50,M,OVC,M,M,M,200.00,M,M,M,BR,KCQX 032205Z AUTO 22008KT 2 1/2SM BR OVC002 A2997 RMK MADISHF
ORE,2017-11-03 22:05,-72.2886,42.5701,M,M,M,M,M,M,30.01,M,10.00,20.00,CLR,M,M,M,M,M,M,M,M,KORE 032205Z AUTO /////G20KT 10SM CLR A3001 RMK MADISHF
BOS,2017-11-03 22:05,-71.0097,42.3606,M,M,M,280.00,10.00,M,29.94,M,10.00,M,FEW,BKN,M,M,3100.00,6000.00,M,M,M,KBOS 032205Z AUTO 28010KT 10SM FEW031 BKN060 A2994 RMK MADISHF
HYA,2017-11-03 22:05,-70.2800,41.6700,M,M,M,210.00,12.00,M,29.94,M,8.00,M,OVC,M,M,M,300.00,M,M,M,M,KHYA 032205Z AUTO 21012KT 8SM OVC003 A2994 RMK MADISHF
OWD,2017-11-03 22:05,-71.1733,42.1912,M,M,M,300.00,12.00,M,29.94,M,10.00,M,BKN,OVC,M,M,7000.00,10000.00,M,M,M,KOWD 032205Z AUTO 30012KT 10SM BKN070 OVC100 A2994 RMK MADISHF
BED,2017-11-03 22:05,-71.2890,42.4699,M,M,M,290.00,10.00,M,29.94,M,10.00,M,BKN,OVC,M,M,7999.00,9500.00,M,M,M,KBED 032205Z AUTO 29010KT 10SM BKN079 OVC095 A2994 RMK MADISHF
PVC,2017-11-03 22:05,-70.2200,42.0700,M,M,M,220.00,12.00,M,29.94,M,10.00,M,M,M,M,M,M,M,M,M,M,KPVC 032205Z AUTO 22012KT 10SM A2994 RMK MADISHF
TAN,2017-11-03 22:05,-71.0211,41.8756,M,M,M,230.00,4.00,M,29.95,M,10.00,M,BKN,OVC,M,M,7000.00,8500.00,M,M,-RA,KTAN 032205Z AUTO 23004KT 10SM -RA BKN070 OVC085 A2995 RMK MADISHF
EWB,2017-11-03 22:05,-70.9583,41.6764,M,M,M,230.00,7.00,M,29.95,M,10.00,M,BKN,OVC,M,M,7999.00,9500.00,M,M,M,KEWB 032205Z AUTO 23007KT 10SM BKN079 OVC095 A2995 RMK MADISHF
PYM,2017-11-03 22:05,-70.7288,41.9090,M,M,M,210.00,6.00,M,29.95,M,10.00,M,BKN,OVC,M,M,9000.00,10000.00,M,M,M,KPYM 032205Z AUTO 21006KT 10SM BKN090 OVC100 A2995 RMK MADISHF
ORH,2017-11-03 22:05,-71.8757,42.2673,M,M,M,M,M,M,30.00,M,10.00,M,SCT,SCT,OVC,M,2200.00,3100.00,7999.00,M,M,KORH 032205Z AUTO /////KT 10SM SCT022 SCT031 OVC079 A3000 RMK MADISHF
FIT,2017-11-03 22:05,-71.7558,42.5519,M,M,M,280.00,8.00,M,29.99,M,10.00,M,SCT,BKN,M,M,4100.00,9000.00,M,M,M,KFIT 032205Z AUTO 28008KT 10SM SCT041 BKN090 A2999 RMK MADISHF
CQX,2017-11-03 22:09,-69.9933,41.6875,60.10,60.10,100.00,230.00,9.00,0.00,29.97,M,2.50,15.00,OVC,M,M,M,200.00,M,M,M,BR,KCQX 032209Z AUTO 23009G15KT 2 1/2SM BR OVC002 16/16 A2997 RMK AO2 T01560156
FIT,2017-11-03 22:10,-71.7558,42.5519,M,M,M,M,M,M,29.99,M,10.00,M,FEW,SCT,M,M,4100.00,9000.00,M,M,M,KFIT 032210Z AUTO /////KT 10SM FEW041 SCT090 A2999 RMK MADISHF
PVC,2017-11-03 22:10,-70.2200,42.0700,M,M,M,220.00,13.00,M,29.95,M,10.00,M,M,M,M,M,M,M,M,M,M,KPVC 032210Z AUTO 22013KT 10SM A2995 RMK MADISHF
HYA,2017-11-03 22:10,-70.2800,41.6700,M,M,M,210.00,12.00,M,29.95,M,8.00,M,OVC,M,M,M,300.00,M,M,M,M,KHYA 032210Z AUTO 21012KT 8SM OVC003 A2995 RMK MADISHF
EWB,2017-11-03 22:10,-70.9583,41.6764,M,M,M,240.00,7.00,M,29.95,M,10.00,M,OVC,M,M,M,7999.00,M,M,M,M,KEWB 032210Z AUTO 24007KT 10SM OVC079 A2995 RMK MADISHF
TAN,2017-11-03 22:10,-71.0211,41.8756,M,M,M,230.00,3.00,M,29.95,M,10.00,M,FEW,SCT,BKN,M,6000.00,7500.00,9000.00,M,M,KTAN 032210Z AUTO 23003KT 10SM FEW060 SCT075 BKN090 A2995 RMK MADISHF
PYM,2017-11-03 22:10,-70.7288,41.9090,M,M,M,220.00,6.00,M,29.96,M,10.00,M,BKN,OVC,M,M,9000.00,10000.00,M,M,M,KPYM 032210Z AUTO 22006KT 10SM BKN090 OVC100 A2996 RMK MADISHF
OWD,2017-11-03 22:10,-71.1733,42.1912,M,M,M,280.00,11.00,M,29.94,M,10.00,M,BKN,OVC,M,M,7000.00,10000.00,M,M,M,KOWD 032210Z AUTO 28011KT 10SM BKN070 OVC100 A2994 RMK MADISHF
BED,2017-11-03 22:10,-71.2890,42.4699,M,M,M,290.00,11.00,M,29.94,M,10.00,M,FEW,BKN,OVC,M,2700.00,7999.00,9500.00,M,M,KBED 032210Z AUTO 29011KT 10SM FEW027 BKN079 OVC095 A2994 RMK MADISHF
CQX,2017-11-03 22:10,-69.9933,41.6875,M,M,M,230.00,7.00,M,29.97,M,2.00,M,OVC,M,M,M,200.00,M,M,M,BR,KCQX 032210Z AUTO 23007KT 2SM BR OVC002 A2997 RMK MADISHF
BOS,2017-11-03 22:10,-71.0097,42.3606,M,M,M,M,M,M,29.94,M,10.00,19.00,FEW,BKN,M,M,3100.00,6000.00,M,M,M,KBOS 032210Z AUTO /////G19KT 10SM FEW031 BKN060 A2994 RMK MADISHF
ORE,2017-11-03 22:10,-72.2886,42.5701,M,M,M,M,M,M,30.01,M,10.00,M,CLR,M,M,M,M,M,M,M,M,KORE 032210Z AUTO /////KT 10SM CLR A3001 RMK MADISHF
ORH,2017-11-03 22:10,-71.8757,42.2673,M,M,M,300.00,18.00,M,30.00,M,10.00,M,SCT,BKN,OVC,M,2200.00,3300.00,7999.00,M,M,KORH 032210Z AUTO 30018KT 10SM SCT022 BKN033 OVC079 A3000 RMK MADISHF
PVC,2017-11-03 22:15,-70.2200,42.0700,M,M,M,220.00,12.00,M,29.95,M,10.00,M,M,M,M,M,M,M,M,M,M,KPVC 032215Z AUTO 22012KT 10SM A2995 RMK MADISHF
CQX,2017-11-03 22:15,-69.9933,41.6875,M,M,M,220.00,8.00,M,29.97,M,2.50,M,OVC,M,M,M,200.00,M,M,M,BR,KCQX 032215Z AUTO 22008KT 2 1/2SM BR OVC002 A2997 RMK MADISHF
ORE,2017-11-03 22:15,-72.2886,42.5701,M,M,M,M,M,M,30.02,M,10.00,M,CLR,M,M,M,M,M,M,M,M,KORE 032215Z AUTO /////KT 10SM CLR A3002 RMK MADISHF
HYA,2017-11-03 22:15,-70.2800,41.6700,M,M,M,220.00,11.00,M,29.95,M,8.00,M,OVC,M,M,M,300.00,M,M,M,M,KHYA 032215Z AUTO 22011KT 8SM OVC003 A2995 RMK MADISHF
OWD,2017-11-03 22:15,-71.1733,42.1912,M,M,M,280.00,11.00,M,29.95,M,10.00,M,FEW,BKN,OVC,M,3500.00,7000.00,10000.00,M,M,KOWD 032215Z AUTO 28011KT 10SM FEW035 BKN070 OVC100 A2995 RMK MADISHF
BED,2017-11-03 22:15,-71.2890,42.4699,M,M,M,290.00,13.00,M,29.95,M,10.00,M,FEW,SCT,OVC,M,2700.00,3900.00,9000.00,M,M,KBED 032215Z AUTO 29013KT 10SM FEW027 SCT039 OVC090 A2995 RMK MADISHF
PYM,2017-11-03 22:15,-70.7288,41.9090,M,M,M,230.00,4.00,M,29.96,M,10.00,M,OVC,M,M,M,8500.00,M,M,M,M,KPYM 032215Z AUTO 23004KT 10SM OVC085 A2996 RMK MADISHF
ORH,2017-11-03 22:15,-71.8757,42.2673,M,M,M,M,M,M,30.00,M,10.00,M,FEW,BKN,OVC,M,2200.00,2900.00,7999.00,M,M,KORH 032215Z AUTO /////KT 10SM FEW022 BKN029 OVC079 A3000 RMK MADISHF
TAN,2017-11-03 22:15,-71.0211,41.8756,M,M,M,250.00,4.00,M,29.95,M,10.00,M,FEW,BKN,M,M,6000.00,8500.00,M,M,M,KTAN 032215Z AUTO 25004KT 10SM FEW060 BKN085 A2995 RMK MADISHF
BOS,2017-11-03 22:15,-71.0097,42.3606,M,M,M,M,M,M,29.94,M,10.00,M,FEW,BKN,M,M,3100.00,6000.00,M,M,M,KBOS 032215Z AUTO /////KT 10SM FEW031 BKN060 A2994 RMK MADISHF
GHG,2017-11-03 22:15,-70.6721,42.0982,68.00,62.60,82.86,230.00,5.00,0.00,29.94,M,10.00,M,M,M,M,M,M,M,M,M,M,KGHG 032215Z AUTO 23005KT 10SM 20/17 A2994 RMK AO2
EWB,2017-11-03 22:15,-70.9583,41.6764,M,M,M,220.00,7.00,M,29.96,M,10.00,M,OVC,M,M,M,7999.00,M,M,M,M,KEWB 032215Z AUTO 22007KT 10SM OVC079 A2996 RMK MADISHF
FMH,2017-11-03 22:15,-70.5215,41.6585,60.80,60.80,100.00,230.00,11.00,0.00,29.97,M,10.00,M,SCT,BKN,M,M,800.00,11000.00,M,M,M,KFMH 032215Z AUTO 23011KT 10SM SCT008 BKN110 16/16 A2997 RMK AO2
CQX,2017-11-03 22:20,-69.9933,41.6875,M,M,M,220.00,10.00,M,29.97,M,2.50,M,OVC,M,M,M,200.00,M,M,M,BR,KCQX 032220Z AUTO 22010KT 2 1/2SM BR OVC002 A2997 RMK MADISHF
EWB,2017-11-03 22:20,-70.9583,41.6764,M,M,M,230.00,6.00,M,29.96,M,10.00,M,OVC,M,M,M,7999.00,M,M,M,M,KEWB 032220Z AUTO 23006KT 10SM OVC079 A2996 RMK MADISHF
OWD,2017-11-03 22:20,-71.1733,42.1912,M,M,M,280.00,8.00,M,29.95,M,10.00,M,FEW,SCT,OVC,M,3500.00,7000.00,9500.00,M,M,KOWD 032220Z AUTO 28008KT 10SM FEW035 SCT070 OVC095 A2995 RMK MADISHF
BED,2017-11-03 22:20,-71.2890,42.4699,M,M,M,M,M,M,29.95,M,10.00,M,FEW,FEW,OVC,M,2700.00,3700.00,9000.00,M,M,KBED 032220Z AUTO /////KT 10SM FEW027 FEW037 OVC090 A2995 RMK MADISHF
PVC,2017-11-03 22:20,-70.2200,42.0700,M,M,M,220.00,13.00,M,29.95,M,10.00,M,M,M,M,M,M,M,M,M,M,KPVC 032220Z AUTO 22013KT 10SM A2995 RMK MADISHF
TAN,2017-11-03 22:20,-71.0211,41.8756,M,M,M,260.00,4.00,M,29.95,M,10.00,M,SCT,BKN,M,M,6500.00,8500.00,M,M,M,KTAN 032220Z AUTO 26004KT 10SM SCT065 BKN085 A2995 RMK MADISHF
BOS,2017-11-03 22:20,-71.0097,42.3606,M,M,M,M,M,M,29.94,M,10.00,17.00,FEW,BKN,M,M,3100.00,6000.00,M,M,M,KBOS 032220Z AUTO /////G17KT 10SM FEW031 BKN060 A2994 RMK MADISHF
PYM,2017-11-03 22:20,-70.7288,41.9090,M,M,M,230.00,5.00,M,29.96,M,10.00,M,OVC,M,M,M,8500.00,M,M,M,M,KPYM 032220Z AUTO 23005KT 10SM OVC085 A2996 RMK MADISHF
ORE,2017-11-03 22:20,-72.2886,42.5701,M,M,M,M,M,M,30.03,M,10.00,M,CLR,M,M,M,M,M,M,M,M,KORE 032220Z AUTO /////KT 10SM CLR A3003 RMK MADISHF
ORH,2017-11-03 22:20,-71.8757,42.2673,M,M,M,M,M,M,30.01,M,10.00,20.00,FEW,BKN,OVC,M,2200.00,2800.00,7999.00,M,M,KORH 032220Z AUTO /////G20KT 10SM FEW022 BKN028 OVC079 A3001 RMK MADISHF
FIT,2017-11-03 22:20,-71.7558,42.5519,M,M,M,290.00,11.00,M,30.00,M,10.00,M,FEW,SCT,M,M,3600.00,4400.00,M,M,M,KFIT 032220Z AUTO 29011KT 10SM FEW036 SCT044 A3000 RMK MADISHF
HYA,2017-11-03 22:20,-70.2800,41.6700,M,M,M,220.00,12.00,M,29.95,M,7.00,M,OVC,M,M,M,300.00,M,M,M,M,KHYA 032220Z AUTO 22012KT 7SM OVC003 A2995 RMK MADISHF
TAN,2017-11-03 22:25,-71.0211,41.8756,M,M,M,260.00,3.00,M,29.95,M,10.00,M,FEW,SCT,BKN,M,4200.00,6500.00,9000.00,M,M,KTAN 032225Z AUTO 26003KT 10SM FEW042 SCT065 BKN090 A2995 RMK MADISHF
PVC,2017-11-03 22:25,-70.2200,42.0700,M,M,M,220.00,12.00,M,29.95,M,10.00,M,M,M,M,M,M,M,M,M,M,KPVC 032225Z AUTO 22012KT 10SM A2995 RMK MADISHF
FIT,2017-11-03 22:25,-71.7558,42.5519,M,M,M,270.00,9.00,M,30.00,M,10.00,M,FEW,FEW,M,M,3399.00,4400.00,M,M,M,KFIT 032225Z AUTO 27009KT 10SM FEW033 FEW044 A3000 RMK MADISHF
BOS,2017-11-03 22:25,-71.0097,42.3606,M,M,M,M,M,M,29.94,M,10.00,M,FEW,BKN,M,M,3100.00,6000.00,M,M,M,KBOS 032225Z AUTO /////KT 10SM FEW031 BKN060 A2994 RMK MADISHF
HYA,2017-11-03 22:25,-70.2800,41.6700,M,M,M,220.00,13.00,M,29.96,M,7.00,M,OVC,M,M,M,300.00,M,M,M,M,KHYA 032225Z AUTO 22013KT 7SM OVC003 A2996 RMK MADISHF
PYM,2017-11-03 22:25,-70.7288,41.9090,M,M,M,230.00,6.00,M,29.96,M,10.00,M,OVC,M,M,M,8500.00,M,M,M,M,KPYM 032225Z AUTO 23006KT 10SM OVC085 A2996 RMK MADISHF
BED,2017-11-03 22:25,-71.2890,42.4699,M,M,M,290.00,11.00,M,29.96,M,10.00,M,FEW,FEW,OVC,M,2700.00,3700.00,9000.00,M,M,KBED 032225Z AUTO 29011KT 10SM FEW027 FEW037 OVC090 A2996 RMK MADISHF
EWB,2017-11-03 22:25,-70.9583,41.6764,M,M,M,220.00,6.00,M,29.95,M,10.00,M,OVC,M,M,M,8500.00,M,M,M,M,KEWB 032225Z AUTO 22006KT 10SM OVC085 A2995 RMK MADISHF
ORH,2017-11-03 22:25,-71.8757,42.2673,M,M,M,M,M,M,30.01,M,10.00,M,FEW,SCT,OVC,M,1999.00,2700.00,3500.00,M,M,KORH 032225Z AUTO /////KT 10SM FEW019 SCT027 OVC035 A3001 RMK MADISHF
CQX,2017-11-03 22:25,-69.9933,41.6875,M,M,M,220.00,10.00,M,29.97,M,3.00,M,OVC,M,M,M,200.00,M,M,M,BR,KCQX 032225Z AUTO 22010KT 3SM BR OVC002 A2997 RMK MADISHF
ORE,2017-11-03 22:25,-72.2886,42.5701,M,M,M,M,M,M,30.03,M,10.00,19.00,CLR,M,M,M,M,M,M,M,M,KORE 032225Z AUTO /////G19KT 10SM CLR A3003 RMK MADISHF
OWD,2017-11-03 22:25,-71.1733,42.1912,M,M,M,270.00,9.00,M,29.96,M,10.00,M,FEW,BKN,OVC,M,3300.00,7000.00,9500.00,M,M,KOWD 032225Z AUTO 27009KT 10SM FEW033 BKN070 OVC095 A2996 RMK MADISHF
FIT,2017-11-03 22:30,-71.7558,42.5519,M,M,M,280.00,11.00,M,30.00,M,10.00,M,FEW,M,M,M,3200.00,M,M,M,M,KFIT 032230Z AUTO 28011KT 10SM FEW032 A3000 RMK MADISHF
HYA,2017-11-03 22:30,-70.2800,41.6700,M,M,M,220.00,12.00,M,29.96,M,6.00,M,OVC,M,M,M,300.00,M,M,M,BR,KHYA 032230Z AUTO 22012KT 6SM BR OVC003 A2996 RMK MADISHF
ORH,2017-11-03 22:30,-71.8757,42.2673,M,M,M,M,M,M,30.01,M,10.00,M,FEW,BKN,OVC,M,2200.00,3500.00,8500.00,M,M,KORH 032230Z AUTO /////KT 10SM FEW022 BKN035 OVC085 A3001 RMK MADISHF
OWD,2017-11-03 22:30,-71.1733,42.1912,M,M,M,280.00,8.00,M,29.96,M,10.00,M,FEW,BKN,OVC,M,3300.00,7000.00,9000.00,M,M,KOWD 032230Z AUTO 28008KT 10SM FEW033 BKN070 OVC090 A2996 RMK MADISHF
BOS,2017-11-03 22:30,-71.0097,42.3606,M,M,M,M,M,M,29.95,M,10.00,M,FEW,BKN,M,M,3100.00,6000.00,M,M,M,KBOS 032230Z AUTO /////KT 10SM FEW031 BKN060 A2995 RMK MADISHF
ORE,2017-11-03 22:30,-72.2886,42.5701,M,M,M,M,M,M,30.04,M,10.00,M,CLR,M,M,M,M,M,M,M,M,KORE 032230Z AUTO /////KT 10SM CLR A3004 RMK MADISHF
EWB,2017-11-03 22:30,-70.9583,41.6764,M,M,M,220.00,6.00,M,29.95,M,10.00,M,OVC,M,M,M,9000.00,M,M,M,M,KEWB 032230Z AUTO 22006KT 10SM OVC090 A2995 RMK MADISHF
PYM,2017-11-03 22:30,-70.7288,41.9090,M,M,M,240.00,7.00,M,29.97,M,10.00,M,FEW,OVC,M,M,3500.00,8500.00,M,M,M,KPYM 032230Z AUTO 24007KT 10SM FEW035 OVC085 A2997 RMK MADISHF
PVC,2017-11-03 22:30,-70.2200,42.0700,M,M,M,230.00,13.00,M,29.96,M,10.00,M,M,M,M,M,M,M,M,M,M,KPVC 032230Z AUTO 23013KT 10SM A2996 RMK MADISHF
BED,2017-11-03 22:30,-71.2890,42.4699,M,M,M,280.00,13.00,M,29.96,M,10.00,M,FEW,FEW,OVC,M,2700.00,3700.00,9000.00,M,M,KBED 032230Z AUTO 28013KT 10SM FEW027 FEW037 OVC090 A2996 RMK MADISHF
CQX,2017-11-03 22:30,-69.9933,41.6875,M,M,M,220.00,6.00,M,29.97,M,3.00,M,OVC,M,M,M,200.00,M,M,M,BR,KCQX 032230Z AUTO 22006KT 3SM BR OVC002 A2997 RMK MADISHF
CQX,2017-11-03 22:31,-69.9933,41.6875,60.10,60.10,100.00,220.00,8.00,0.00,29.97,M,3.00,15.00,OVC,M,M,M,200.00,M,M,M,BR,KCQX 032231Z AUTO 22008G15KT 3SM BR OVC002 16/16 A2997 RMK AO2 T01560156
TAN,2017-11-03 22:35,-71.0211,41.8756,M,M,M,0.00,0.00,M,29.96,M,10.00,M,SCT,SCT,M,M,5500.00,7000.00,M,M,M,KTAN 032235Z AUTO 00000KT 10SM SCT055 SCT070 A2996 RMK MADISHF
PVC,2017-11-03 22:35,-70.2200,42.0700,M,M,M,230.00,14.00,M,29.96,M,10.00,M,M,M,M,M,M,M,M,M,M,KPVC 032235Z AUTO 23014KT 10SM A2996 RMK MADISHF
CQX,2017-11-03 22:35,-69.9933,41.6875,M,M,M,220.00,8.00,M,29.97,M,3.00,M,OVC,M,M,M,200.00,M,M,M,BR,KCQX 032235Z AUTO 22008KT 3SM BR OVC002 A2997 RMK WND 19V25  MADISHF
BOS,2017-11-03 22:35,-71.0097,42.3606,M,M,M,M,M,M,29.96,M,10.00,M,FEW,BKN,M,M,3100.00,6000.00,M,M,M,KBOS 032235Z AUTO /////KT 10SM FEW031 BKN060 A2996 RMK MADISHF
EWB,2017-11-03 22:35,-70.9583,41.6764,M,M,M,230.00,6.00,M,29.96,M,10.00,M,OVC,M,M,M,9000.00,M,M,M,M,KEWB 032235Z AUTO 23006KT 10SM OVC090 A2996 RMK MADISHF
HYA,2017-11-03 22:35,-70.2800,41.6700,M,M,M,220.00,13.00,M,29.96,M,6.00,M,OVC,M,M,M,300.00,M,M,M,BR,KHYA 032235Z AUTO 22013KT 6SM BR OVC003 A2996 RMK MADISHF
PYM,2017-11-03 22:35,-70.7288,41.9090,M,M,M,240.00,6.00,M,29.97,M,10.00,M,FEW,SCT,OVC,M,3500.00,6000.00,8500.00,M,M,KPYM 032235Z AUTO 24006KT 10SM FEW035 SCT060 OVC085 A2997 RMK MADISHF
ORE,2017-11-03 22:35,-72.2886,42.5701,M,M,M,M,M,M,30.04,M,10.00,M,CLR,M,M,M,M,M,M,M,M,KORE 032235Z AUTO /////KT 10SM CLR A3004 RMK MADISHF
ORH,2017-11-03 22:35,-71.8757,42.2673,M,M,M,M,M,M,30.01,M,10.00,M,FEW,SCT,BKN,M,2900.00,3500.00,7999.00,M,M,KORH 032235Z AUTO /////KT 10SM FEW029 SCT035 BKN079 A3001 RMK MADISHF
OWD,2017-11-03 22:35,-71.1733,42.1912,M,M,M,290.00,9.00,M,29.96,M,10.00,14.00,FEW,BKN,OVC,M,3300.00,7500.00,9000.00,M,M,KOWD 032235Z AUTO 29009G14KT 10SM FEW033 BKN075 OVC090 A2996 RMK MADISHF
BED,2017-11-03 22:35,-71.2890,42.4699,M,M,M,280.00,11.00,M,29.97,M,10.00,M,FEW,FEW,OVC,M,2700.00,3700.00,9000.00,M,M,KBED 032235Z AUTO 28011KT 10SM FEW027 FEW037 OVC090 A2997 RMK MADISHF
GHG,2017-11-03 22:35,-70.6721,42.0982,66.20,62.60,88.18,230.00,5.00,0.00,29.94,M,10.00,M,FEW,SCT,BKN,M,2000.00,4100.00,6000.00,M,M,KGHG 032235Z AUTO 23005KT 10SM FEW020 SCT041 BKN060 19/17 A2994 RMK AO2
FMH,2017-11-03 22:35,-70.5215,41.6585,62.60,60.80,93.83,240.00,12.00,0.00,29.98,M,10.00,M,BKN,OVC,M,M,700.00,10000.00,M,M,M,KFMH 032235Z AUTO 24012KT 10SM BKN007 OVC100 17/16 A2998 RMK AO2
CQX,2017-11-03 22:40,-69.9933,41.6875,M,M,M,220.00,6.00,M,29.98,M,2.50,M,OVC,M,M,M,200.00,M,M,M,BR,KCQX 032240Z AUTO 22006KT 2 1/2SM BR OVC002 A2998 RMK MADISHF
PYM,2017-11-03 22:40,-70.7288,41.9090,M,M,M,220.00,6.00,M,29.96,M,10.00,M,SCT,SCT,OVC,M,4100.00,6000.00,9000.00,M,M,KPYM 032240Z AUTO 22006KT 10SM SCT041 SCT060 OVC090 A2996 RMK MADISHF
FIT,2017-11-03 22:40,-71.7558,42.5519,M,M,M,M,M,M,30.00,M,10.00,M,FEW,M,M,M,3200.00,M,M,M,M,KFIT 032240Z AUTO /////KT 10SM FEW032 A3000 RMK MADISHF
PVC,2017-11-03 22:40,-70.2200,42.0700,M,M,M,230.00,13.00,M,29.96,M,10.00,M,M,M,M,M,M,M,M,M,M,KPVC 032240Z AUTO 23013KT 10SM A2996 RMK MADISHF
TAN,2017-11-03 22:40,-71.0211,41.8756,M,M,M,0.00,0.00,M,29.96,M,10.00,M,SCT,BKN,M,M,5500.00,7000.00,M,M,M,KTAN 032240Z AUTO 00000KT 10SM SCT055 BKN070 A2996 RMK MADISHF
OWD,2017-11-03 22:40,-71.1733,42.1912,M,M,M,290.00,11.00,M,29.96,M,10.00,M,FEW,OVC,M,M,3300.00,8500.00,M,M,M,KOWD 032240Z AUTO 29011KT 10SM FEW033 OVC085 A2996 RMK MADISHF
BED,2017-11-03 22:40,-71.2890,42.4699,M,M,M,280.00,13.00,M,29.97,M,10.00,M,FEW,OVC,M,M,3700.00,9000.00,M,M,M,KBED 032240Z AUTO 28013KT 10SM FEW037 OVC090 A2997 RMK MADISHF
EWB,2017-11-03 22:40,-70.9583,41.6764,M,M,M,240.00,6.00,M,29.96,M,10.00,M,OVC,M,M,M,9500.00,M,M,M,M,KEWB 032240Z AUTO 24006KT 10SM OVC095 A2996 RMK MADISHF
ORE,2017-11-03 22:40,-72.2886,42.5701,M,M,M,M,M,M,30.05,M,10.00,M,CLR,M,M,M,M,M,M,M,M,KORE 032240Z AUTO /////KT 10SM CLR A3005 RMK MADISHF
ORH,2017-11-03 22:40,-71.8757,42.2673,M,M,M,M,M,M,30.01,M,10.00,M,FEW,SCT,BKN,M,2900.00,3500.00,7999.00,M,M,KORH 032240Z AUTO /////KT 10SM FEW029 SCT035 BKN079 A3001 RMK MADISHF
BOS,2017-11-03 22:40,-71.0097,42.3606,M,M,M,M,M,M,29.96,M,10.00,M,FEW,BKN,M,M,3100.00,6000.00,M,M,M,KBOS 032240Z AUTO /////KT 10SM FEW031 BKN060 A2996 RMK MADISHF
HYA,2017-11-03 22:40,-70.2800,41.6700,M,M,M,230.00,12.00,M,29.96,M,7.00,M,OVC,M,M,M,300.00,M,M,M,M,KHYA 032240Z AUTO 23012KT 7SM OVC003 A2996 RMK MADISHF
CQX,2017-11-03 22:42,-69.9933,41.6875,60.10,60.10,100.00,230.00,7.00,0.00,29.98,M,2.50,15.00,OVC,M,M,M,200.00,M,M,M,BR,KCQX 032242Z AUTO 23007G15KT 2 1/2SM BR OVC002 16/16 A2998 RMK AO2 T01560156
TAN,2017-11-03 22:45,-71.0211,41.8756,M,M,M,0.00,0.00,M,29.97,M,10.00,M,SCT,BKN,M,M,5500.00,7000.00,M,M,M,KTAN 032245Z AUTO 00000KT 10SM SCT055 BKN070 A2997 RMK MADISHF
PVC,2017-11-03 22:45,-70.2200,42.0700,M,M,M,230.00,12.00,M,29.96,M,10.00,M,M,M,M,M,M,M,M,M,M,KPVC 032245Z AUTO 23012KT 10SM A2996 RMK MADISHF
FIT,2017-11-03 22:45,-71.7558,42.5519,M,M,M,M,M,M,30.01,M,10.00,M,CLR,M,M,M,M,M,M,M,M,KFIT 032245Z AUTO /////KT 10SM CLR A3001 RMK MADISHF
PYM,2017-11-03 22:45,-70.7288,41.9090,M,M,M,230.00,5.00,M,29.97,M,10.00,M,FEW,BKN,OVC,M,3600.00,6000.00,9500.00,M,M,KPYM 032245Z AUTO 23005KT 10SM FEW036 BKN060 OVC095 A2997 RMK MADISHF
ORH,2017-11-03 22:45,-71.8757,42.2673,M,M,M,M,M,M,30.01,M,10.00,M,FEW,SCT,M,M,3200.00,7999.00,M,M,M,KORH 032245Z AUTO /////KT 10SM FEW032 SCT079 A3001 RMK MADISHF
OWD,2017-11-03 22:45,-71.1733,42.1912,M,M,M,300.00,9.00,M,29.96,M,10.00,15.00,OVC,M,M,M,8500.00,M,M,M,M,KOWD 032245Z AUTO 30009G15KT 10SM OVC085 A2996 RMK MADISHF
BED,2017-11-03 22:45,-71.2890,42.4699,M,M,M,290.00,14.00,M,29.97,M,10.00,M,OVC,M,M,M,9000.00,M,M,M,M,KBED 032245Z AUTO 29014KT 10SM OVC090 A2997 RMK MADISHF
ORE,2017-11-03 22:45,-72.2886,42.5701,M,M,M,M,M,M,30.05,M,10.00,23.00,CLR,M,M,M,M,M,M,M,M,KORE 032245Z AUTO /////G23KT 10SM CLR A3005 RMK WND 28V34  MADISHF
BOS,2017-11-03 22:45,-71.0097,42.3606,M,M,M,M,M,M,29.96,M,10.00,20.00,FEW,BKN,M,M,3100.00,6000.00,M,M,M,KBOS 032245Z AUTO /////G20KT 10SM FEW031 BKN060 A2996 RMK MADISHF
HYA,2017-11-03 22:45,-70.2800,41.6700,M,M,M,230.00,10.00,M,29.96,M,7.00,M,OVC,M,M,M,300.00,M,M,M,M,KHYA 032245Z AUTO 23010KT 7SM OVC003 A2996 RMK MADISHF
EWB,2017-11-03 22:45,-70.9583,41.6764,M,M,M,260.00,7.00,M,29.96,M,10.00,M,OVC,M,M,M,9500.00,M,M,M,M,KEWB 032245Z AUTO 26007KT 10SM OVC095 A2996 RMK MADISHF
PYM,2017-11-03 22:50,-70.7288,41.9090,M,M,M,230.00,7.00,M,29.97,M,10.00,M,FEW,BKN,BKN,M,3600.00,6000.00,10000.00,M,M,KPYM 032250Z AUTO 23007KT 10SM FEW036 BKN060 BKN100 A2997 RMK MADISHF
HYA,2017-11-03 22:50,-70.2800,41.6700,M,M,M,220.00,10.00,M,29.96,M,8.00,M,BKN,OVC,M,M,300.00,7999.00,M,M,M,KHYA 032250Z AUTO 22010KT 8SM BKN003 OVC079 A2996 RMK MADISHF
EWB,2017-11-03 22:50,-70.9583,41.6764,M,M,M,250.00,6.00,M,29.96,M,10.00,M,FEW,OVC,M,M,5000.00,9500.00,M,M,M,KEWB 032250Z AUTO 25006KT 10SM FEW050 OVC095 A2996 RMK MADISHF
ORE,2017-11-03 22:50,-72.2886,42.5701,M,M,M,310.00,13.00,M,30.06,M,10.00,M,CLR,M,M,M,M,M,M,M,M,KORE 032250Z AUTO 31013KT 10SM CLR A3006 RMK MADISHF
FIT,2017-11-03 22:50,-71.7558,42.5519,M,M,M,290.00,11.00,M,30.01,M,10.00,M,CLR,M,M,M,M,M,M,M,M,KFIT 032250Z AUTO 29011KT 10SM CLR A3001 RMK MADISHF
PVC,2017-11-03 22:50,-70.2200,42.0700,M,M,M,230.00,12.00,M,29.95,M,10.00,M,M,M,M,M,M,M,M,M,M,KPVC 032250Z AUTO 23012KT 10SM A2995 RMK MADISHF
CQX,2017-11-03 22:50,-69.9933,41.6875,M,M,M,230.00,9.00,M,29.98,M,2.50,15.00,OVC,M,M,M,200.00,M,M,M,BR,KCQX 032250Z AUTO 23009G15KT 2 1/2SM BR OVC002 A2998 RMK MADISHF
ORH,2017-11-03 22:50,-71.8757,42.2673,M,M,M,290.00,14.00,M,30.02,M,10.00,19.00,FEW,SCT,M,M,3399.00,7999.00,M,M,M,KORH 032250Z AUTO 29014G19KT 10SM FEW033 SCT079 A3002 RMK MADISHF
BOS,2017-11-03 22:50,-71.0097,42.3606,M,M,M,300.00,13.00,M,29.97,M,10.00,19.00,FEW,BKN,M,M,3300.00,9500.00,M,M,M,KBOS 032250Z AUTO 30013G19KT 10SM FEW033 BKN095 A2997 RMK MADISHF
OWD,2017-11-03 22:50,-71.1733,42.1912,M,M,M,290.00,10.00,M,29.97,M,10.00,15.00,OVC,M,M,M,8500.00,M,M,M,M,KOWD 032250Z AUTO 29010G15KT 10SM OVC085 A2997 RMK MADISHF
BED,2017-11-03 22:50,-71.2890,42.4699,M,M,M,270.00,10.00,M,29.97,M,10.00,M,OVC,M,M,M,9000.00,M,M,M,M,KBED 032250Z AUTO 27010KT 10SM OVC090 A2997 RMK MADISHF
CQX,2017-11-03 22:52,-69.9933,41.6875,60.10,60.10,100.00,240.00,8.00,0.00,29.98,1015.30,2.00,16.00,OVC,M,M,M,200.00,M,M,M,BR,KCQX 032252Z AUTO 24008G16KT 2SM BR OVC002 16/16 A2998 RMK AO2 SLP153 T01560156
TAN,2017-11-03 22:52,-71.0211,41.8756,64.00,59.00,83.78,290.00,3.00,0.00,29.97,1014.90,10.00,M,SCT,BKN,M,M,5500.00,7000.00,M,M,M,KTAN 032252Z AUTO 29003KT 10SM SCT055 BKN070 18/15 A2997 RMK AO2 RAE07 SLP149 P0000 T01780150
ORE,2017-11-03 22:52,-72.2886,42.5701,57.00,46.90,68.90,320.00,15.00,0.00,30.06,1018.00,10.00,24.00,CLR,M,M,M,M,M,M,M,M,KORE 032252Z AUTO 32015G24KT 10SM CLR 14/08 A3006 RMK AO2 PK WND 30029/2211 SLP180 T01390083 TSNO
PYM,2017-11-03 22:52,-70.7288,41.9090,64.90,60.10,84.44,230.00,7.00,0.00,29.97,1014.80,10.00,M,FEW,BKN,BKN,M,3600.00,6000.00,10000.00,M,M,KPYM 032252Z AUTO 23007KT 10SM FEW036 BKN060 BKN100 18/16 A2997 RMK AO2 SLP148 T01830156
FIT,2017-11-03 22:52,-71.7558,42.5519,64.90,55.00,70.28,280.00,9.00,0.00,30.01,1016.20,10.00,M,CLR,M,M,M,M,M,M,M,M,KFIT 032252Z AUTO 28009KT 10SM CLR 18/13 A3001 RMK AO2 SLP162 T01830128
EWB,2017-11-03 22:53,-70.9583,41.6764,64.00,60.10,87.14,250.00,6.00,0.00,29.96,1014.50,10.00,M,FEW,OVC,M,M,4800.00,9500.00,M,M,M,KEWB 032253Z 25006KT 10SM FEW048 OVC095 18/16 A2996 RMK AO2 SLP145 T01780156
OWD,2017-11-03 22:53,-71.1733,42.1912,70.00,59.00,68.09,290.00,12.00,0.00,29.97,1014.80,10.00,M,BKN,M,M,M,8500.00,M,M,M,M,KOWD 032253Z 29012KT 10SM BKN085 21/15 A2997 RMK AO2 SLP148 T02110150
ORH,2017-11-03 22:54,-71.8757,42.2673,59.00,48.90,69.12,280.00,11.00,0.00,30.02,1016.50,10.00,24.00,FEW,M,M,M,8000.00,M,M,M,M,KORH 032254Z 28011G24KT 10SM FEW080 15/09 A3002 RMK AO2 PK WND 31028/2208 SLP165 T01500094
BOS,2017-11-03 22:54,-71.0097,42.3606,66.90,57.90,72.81,300.00,17.00,0.00,29.97,1014.70,10.00,M,FEW,BKN,BKN,M,3300.00,9500.00,20000.00,M,M,KBOS 032254Z 30017KT 10SM FEW033 BKN095 BKN200 19/14 A2997 RMK AO2 SLP147 T01940144 $
PVC,2017-11-03 22:55,-70.2200,42.0700,M,M,M,230.00,11.00,M,29.96,M,10.00,M,M,M,M,M,M,M,M,M,M,KPVC 032255Z AUTO 23011KT 10SM A2996 RMK MADISHF
CQX,2017-11-03 22:55,-69.9933,41.6875,M,M,M,230.00,7.00,M,29.98,M,2.50,M,OVC,M,M,M,200.00,M,M,M,BR,KCQX 032255Z AUTO 23007KT 2 1/2SM BR OVC002 A2998 RMK MADISHF
BOS,2017-11-03 22:55,-71.0097,42.3606,M,M,M,M,M,M,29.97,M,10.00,M,FEW,BKN,M,M,4400.00,9500.00,M,M,M,KBOS 032255Z AUTO /////KT 10SM FEW044 BKN095 A2997 RMK MADISHF
PYM,2017-11-03 22:55,-70.7288,41.9090,M,M,M,230.00,6.00,M,29.97,M,10.00,M,FEW,BKN,BKN,M,3900.00,6500.00,10000.00,M,M,KPYM 032255Z AUTO 23006KT 10SM FEW039 BKN065 BKN100 A2997 RMK MADISHF
ORH,2017-11-03 22:55,-71.8757,42.2673,M,M,M,280.00,10.00,M,30.02,M,10.00,M,FEW,M,M,M,7999.00,M,M,M,M,KORH 032255Z AUTO 28010KT 10SM FEW079 A3002 RMK MADISHF
EWB,2017-11-03 22:55,-70.9583,41.6764,M,M,M,250.00,6.00,M,29.96,M,10.00,M,FEW,SCT,OVC,M,4800.00,5500.00,9500.00,M,M,KEWB 032255Z AUTO 25006KT 10SM FEW048 SCT055 OVC095 A2996 RMK MADISHF
OWD,2017-11-03 22:55,-71.1733,42.1912,M,M,M,280.00,11.00,M,29.97,M,10.00,M,BKN,M,M,M,8500.00,M,M,M,M,KOWD 032255Z AUTO 28011KT 10SM BKN085 A2997 RMK MADISHF
BED,2017-11-03 22:55,-71.2890,42.4699,M,M,M,270.00,9.00,M,29.98,M,10.00,M,BKN,M,M,M,9000.00,M,M,M,M,KBED 032255Z AUTO 27009KT 10SM BKN090 A2998 RMK MADISHF
HYA,2017-11-03 22:55,-70.2800,41.6700,M,M,M,220.00,11.00,M,29.96,M,9.00,M,BKN,BKN,OVC,M,300.00,7999.00,10000.00,M,M,KHYA 032255Z AUTO 22011KT 9SM BKN003 BKN079 OVC100 A2996 RMK MADISHF
TAN,2017-11-03 22:55,-71.0211,41.8756,M,M,M,240.00,3.00,M,29.97,M,10.00,M,BKN,BKN,M,M,6000.00,7000.00,M,M,M,KTAN 032255Z AUTO 24003KT 10SM BKN060 BKN070 A2997 RMK MADISHF
GHG,2017-11-03 22:55,-70.6721,42.0982,66.20,62.60,88.18,270.00,4.00,0.00,29.96,M,10.00,M,SCT,BKN,SCT,M,6500.00,9500.00,11000.00,M,M,KGHG 032255Z AUTO 27004KT 10SM SCT065 BKN095 SCT110 19/17 A2996 RMK AO2
FMH,2017-11-03 22:55,-70.5215,41.6585,62.60,60.80,93.83,230.00,11.00,0.00,29.98,M,10.00,17.00,OVC,M,M,M,600.00,M,M,M,M,KFMH 032255Z AUTO 23011G17KT 10SM OVC006 17/16 A2998 RMK AO2
PVC,2017-11-03 22:56,-70.2200,42.0700,60.10,59.00,96.15,230.00,11.00,0.00,29.96,1014.30,10.00,M,M,M,M,M,M,M,M,M,M,KPVC 032256Z AUTO 23011KT 10SM 16/15 A2996 RMK AO2 SLP143 T01560150 $
MQE,2017-11-03 22:56,-71.1142,42.2121,64.90,55.90,72.61,300.00,15.00,0.00,29.97,1015.90,M,23.00,M,M,M,M,M,M,M,M,M,KMQE 032256Z AUTO 30015G23KT 270V340 18/13 A2997 RMK AO1 SLP159 T01830133
BED,2017-11-03 22:56,-71.2890,42.4699,66.00,53.10,63.10,270.00,9.00,0.00,29.98,1016.20,10.00,17.00,BKN,M,M,M,9000.00,M,M,M,M,KBED 032256Z 27009G17KT 10SM BKN090 19/12 A2998 RMK AO2 SLP162 T01890117
HYA,2017-11-03 22:56,-70.2800,41.6700,62.10,60.10,93.16,220.00,11.00,0.00,29.96,1014.70,9.00,M,BKN,OVC,M,M,300.00,10000.00,M,M,M,KHYA 032256Z 22011KT 9SM BKN003 OVC100 17/16 A2996 RMK AO2 SLP147 T01670156
FIT,2017-11-03 23:00,-71.7558,42.5519,M,M,M,M,M,M,30.02,M,10.00,18.00,CLR,M,M,M,M,M,M,M,M,KFIT 032300Z AUTO /////G18KT 10SM CLR A3002 RMK MADISHF
PVC,2017-11-03 23:00,-70.2200,42.0700,M,M,M,230.00,12.00,M,29.96,M,10.00,M,M,M,M,M,M,M,M,M,M,KPVC 032300Z AUTO 23012KT 10SM A2996 RMK MADISHF
TAN,2017-11-03 23:00,-71.0211,41.8756,M,M,M,240.00,3.00,M,29.97,M,10.00,M,BKN,BKN,M,M,6000.00,7000.00,M,M,M,KTAN 032300Z AUTO 24003KT 10SM BKN060 BKN070 A2997 RMK MADISHF
PYM,2017-11-03 23:00,-70.7288,41.9090,M,M,M,230.00,7.00,M,29.97,M,10.00,M,FEW,BKN,BKN,M,3500.00,6000.00,10000.00,M,M,KPYM 032300Z AUTO 23007KT 10SM FEW035 BKN060 BKN100 A2997 RMK MADISHF
BED,2017-11-03 23:00,-71.2890,42.4699,M,M,M,290.00,10.00,M,29.98,M,10.00,M,BKN,M,M,M,9000.00,M,M,M,M,KBED 032300Z AUTO 29010KT 10SM BKN090 A2998 RMK MADISHF
BOS,2017-11-03 23:00,-71.0097,42.3606,M,M,M,M,M,M,29.97,M,10.00,M,FEW,SCT,BKN,M,3600.00,4400.00,9500.00,M,M,KBOS 032300Z AUTO /////KT 10SM FEW036 SCT044 BKN095 A2997 RMK MADISHF
CQX,2017-11-03 23:00,-69.9933,41.6875,M,M,M,230.00,7.00,M,29.98,M,2.50,M,OVC,M,M,M,200.00,M,M,M,BR,KCQX 032300Z AUTO 23007KT 2 1/2SM BR OVC002 A2998 RMK MADISHF
ORH,2017-11-03 23:00,-71.8757,42.2673,M,M,M,290.00,12.00,M,30.02,M,10.00,M,FEW,M,M,M,7999.00,M,M,M,M,KORH 032300Z AUTO 29012KT 10SM FEW079 A3002 RMK MADISHF
HYA,2017-11-03 23:00,-70.2800,41.6700,M,M,M,230.00,12.00,M,29.96,M,9.00,M,BKN,BKN,OVC,M,300.00,7999.00,10000.00,M,M,KHYA 032300Z AUTO 23012KT 9SM BKN003 BKN079 OVC100 A2996 RMK CIG 2V6  MADISHF
ORE,2017-11-03 23:00,-72.2886,42.5701,M,M,M,320.00,12.00,M,30.07,M,10.00,M,CLR,M,M,M,M,M,M,M,M,KORE 032300Z AUTO 32012KT 10SM CLR A3007 RMK MADISHF
EWB,2017-11-03 23:00,-70.9583,41.6764,M,M,M,250.00,8.00,M,29.97,M,10.00,M,FEW,SCT,OVC,M,4200.00,5000.00,9500.00,M,M,KEWB 032300Z AUTO 25008KT 10SM FEW042 SCT050 OVC095 A2997 RMK MADISHF
OWD,2017-11-03 23:00,-71.1733,42.1912,M,M,M,290.00,11.00,M,29.97,M,10.00,M,FEW,BKN,M,M,3999.00,8500.00,M,M,M,KOWD 032300Z AUTO 29011KT 10SM FEW039 BKN085 A2997 RMK MADISHF
FIT,2017-11-03 23:05,-71.7558,42.5519,M,M,M,M,M,M,30.02,M,10.00,M,CLR,M,M,M,M,M,M,M,M,KFIT 032305Z AUTO /////KT 10SM CLR A3002 RMK MADISHF
OWD,2017-11-03 23:05,-71.1733,42.1912,M,M,M,290.00,10.00,M,29.98,M,10.00,16.00,FEW,BKN,M,M,3999.00,8500.00,M,M,M,KOWD 032305Z AUTO 29010G16KT 10SM FEW039 BKN085 A2998 RMK MADISHF
BOS,2017-11-03 23:05,-71.0097,42.3606,M,M,M,290.00,14.00,M,29.97,M,10.00,M,FEW,BKN,OVC,M,3600.00,4200.00,9500.00,M,M,KBOS 032305Z AUTO 29014KT 10SM FEW036 BKN042 OVC095 A2997 RMK MADISHF
PYM,2017-11-03 23:05,-70.7288,41.9090,M,M,M,230.00,6.00,M,29.97,M,10.00,M,FEW,BKN,BKN,M,3500.00,6000.00,10000.00,M,M,KPYM 032305Z AUTO 23006KT 10SM FEW035 BKN060 BKN100 A2997 RMK MADISHF
PVC,2017-11-03 23:05,-70.2200,42.0700,M,M,M,230.00,13.00,M,29.96,M,10.00,M,M,M,M,M,M,M,M,M,M,KPVC 032305Z AUTO 23013KT 10SM A2996 RMK MADISHF
TAN,2017-11-03 23:05,-71.0211,41.8756,M,M,M,250.00,4.00,M,29.98,M,10.00,M,BKN,BKN,M,M,6000.00,7000.00,M,M,M,KTAN 032305Z AUTO 25004KT 10SM BKN060 BKN070 A2998 RMK MADISHF
ORE,2017-11-03 23:05,-72.2886,42.5701,M,M,M,310.00,12.00,M,30.07,M,10.00,M,CLR,M,M,M,M,M,M,M,M,KORE 032305Z AUTO 31012KT 10SM CLR A3007 RMK MADISHF
ORH,2017-11-03 23:05,-71.8757,42.2673,M,M,M,M,M,M,30.03,M,10.00,M,CLR,M,M,M,M,M,M,M,M,KORH 032305Z AUTO /////KT 10SM CLR A3003 RMK MADISHF
HYA,2017-11-03 23:05,-70.2800,41.6700,M,M,M,230.00,11.00,M,29.97,M,10.00,M,SCT,BKN,OVC,M,300.00,7999.00,10000.00,M,M,KHYA 032305Z AUTO 23011KT 10SM SCT003 BKN079 OVC100 A2997 RMK MADISHF
EWB,2017-11-03 23:05,-70.9583,41.6764,M,M,M,250.00,6.00,M,29.97,M,10.00,M,SCT,BKN,OVC,M,3800.00,4600.00,10000.00,M,M,KEWB 032305Z AUTO 25006KT 10SM SCT038 BKN046 OVC100 A2997 RMK MADISHF
BED,2017-11-03 23:05,-71.2890,42.4699,M,M,M,280.00,9.00,M,29.98,M,10.00,M,BKN,M,M,M,9000.00,M,M,M,M,KBED 032305Z AUTO 28009KT 10SM BKN090 A2998 RMK MADISHF
CQX,2017-11-03 23:05,-69.9933,41.6875,M,M,M,230.00,7.00,M,29.98,M,2.50,M,OVC,M,M,M,200.00,M,M,M,BR,KCQX 032305Z AUTO 23007KT 2 1/2SM BR OVC002 A2998 RMK MADISHF
HYA,2017-11-03 23:07,-70.2800,41.6700,62.10,61.00,96.18,230.00,11.00,0.00,29.97,M,10.00,M,SCT,BKN,OVC,M,300.00,8000.00,10000.00,M,M,KHYA 032307Z 23011KT 10SM SCT003 BKN080 OVC100 17/16 A2997 RMK AO2 T01670161
ORE,2017-11-03 23:10,-72.2886,42.5701,M,M,M,M,M,M,30.08,M,10.00,22.00,CLR,M,M,M,M,M,M,M,M,KORE 032310Z AUTO /////G22KT 10SM CLR A3008 RMK MADISHF
FIT,2017-11-03 23:10,-71.7558,42.5519,M,M,M,M,M,M,30.03,M,10.00,M,CLR,M,M,M,M,M,M,M,M,KFIT 032310Z AUTO /////KT 10SM CLR A3003 RMK MADISHF
PVC,2017-11-03 23:10,-70.2200,42.0700,M,M,M,230.00,12.00,M,29.96,M,10.00,M,M,M,M,M,M,M,M,M,M,KPVC 032310Z AUTO 23012KT 10SM A2996 RMK MADISHF
BOS,2017-11-03 23:10,-71.0097,42.3606,M,M,M,290.00,13.00,M,29.97,M,10.00,M,SCT,BKN,M,M,4200.00,10000.00,M,M,M,KBOS 032310Z AUTO 29013KT 10SM SCT042 BKN100 A2997 RMK MADISHF
EWB,2017-11-03 23:10,-70.9583,41.6764,M,M,M,270.00,7.00,M,29.97,M,10.00,M,SCT,BKN,OVC,M,3999.00,4600.00,10000.00,M,M,KEWB 032310Z AUTO 27007KT 10SM SCT039 BKN046 OVC100 A2997 RMK MADISHF
ORH,2017-11-03 23:10,-71.8757,42.2673,M,M,M,M,M,M,30.03,M,10.00,M,CLR,M,M,M,M,M,M,M,M,KORH 032310Z AUTO /////KT 10SM CLR A3003 RMK MADISHF
BED,2017-11-03 23:10,-71.2890,42.4699,M,M,M,290.00,8.00,M,29.98,M,10.00,M,BKN,M,M,M,9000.00,M,M,M,M,KBED 032310Z AUTO 29008KT 10SM BKN090 A2998 RMK MADISHF
HYA,2017-11-03 23:10,-70.2800,41.6700,M,M,M,230.00,11.00,M,29.97,M,10.00,M,FEW,SCT,OVC,M,300.00,7999.00,10000.00,M,M,KHYA 032310Z AUTO 23011KT 10SM FEW003 SCT079 OVC100 A2997 RMK MADISHF
PYM,2017-11-03 23:10,-70.7288,41.9090,M,M,M,230.00,5.00,M,29.97,M,10.00,M,BKN,M,M,M,6500.00,M,M,M,M,KPYM 032310Z AUTO 23005KT 10SM BKN065 A2997 RMK MADISHF
OWD,2017-11-03 23:10,-71.1733,42.1912,M,M,M,290.00,11.00,M,29.98,M,10.00,M,FEW,BKN,M,M,4100.00,8500.00,M,M,M,KOWD 032310Z AUTO 29011KT 10SM FEW041 BKN085 A2998 RMK MADISHF
CQX,2017-11-03 23:10,-69.9933,41.6875,M,M,M,230.00,5.00,M,29.98,M,2.00,M,OVC,M,M,M,200.00,M,M,M,BR,KCQX 032310Z AUTO 23005KT 2SM BR OVC002 A2998 RMK MADISHF
HYA,2017-11-03 23:15,-70.2800,41.6700,M,M,M,230.00,11.00,M,29.97,M,10.00,M,FEW,SCT,OVC,M,499.00,7999.00,10000.00,M,M,KHYA 032315Z AUTO 23011KT 10SM FEW004 SCT079 OVC100 A2997 RMK MADISHF
PVC,2017-11-03 23:15,-70.2200,42.0700,M,M,M,230.00,12.00,M,29.97,M,10.00,M,M,M,M,M,M,M,M,M,M,KPVC 032315Z AUTO 23012KT 10SM A2997 RMK MADISHF
BOS,2017-11-03 23:15,-71.0097,42.3606,M,M,M,M,M,M,29.97,M,10.00,M,FEW,BKN,M,M,3300.00,9500.00,M,M,M,KBOS 032315Z AUTO /////KT 10SM FEW033 BKN095 A2997 RMK MADISHF
BED,2017-11-03 23:15,-71.2890,42.4699,M,M,M,280.00,9.00,M,29.98,M,10.00,M,BKN,M,M,M,9000.00,M,M,M,M,KBED 032315Z AUTO 28009KT 10SM BKN090 A2998 RMK MADISHF
ORE,2017-11-03 23:15,-72.2886,42.5701,M,M,M,M,M,M,30.08,M,10.00,M,CLR,M,M,M,M,M,M,M,M,KORE 032315Z AUTO /////KT 10SM CLR A3008 RMK MADISHF
ORH,2017-11-03 23:15,-71.8757,42.2673,M,M,M,M,M,M,30.03,M,10.00,M,CLR,M,M,M,M,M,M,M,M,KORH 032315Z AUTO /////KT 10SM CLR A3003 RMK MADISHF
TAN,2017-11-03 23:15,-71.0211,41.8756,M,M,M,260.00,4.00,M,29.98,M,10.00,M,BKN,OVC,M,M,6000.00,7000.00,M,M,M,KTAN 032315Z AUTO 26004KT 10SM BKN060 OVC070 A2998 RMK MADISHF
PYM,2017-11-03 23:15,-70.7288,41.9090,M,M,M,230.00,5.00,M,29.98,M,10.00,M,BKN,M,M,M,6500.00,M,M,M,M,KPYM 032315Z AUTO 23005KT 10SM BKN065 A2998 RMK MADISHF
CQX,2017-11-03 23:15,-69.9933,41.6875,M,M,M,230.00,6.00,M,29.98,M,2.00,M,OVC,M,M,M,200.00,M,M,M,BR,KCQX 032315Z AUTO 23006KT 2SM BR OVC002 A2998 RMK MADISHF
OWD,2017-11-03 23:15,-71.1733,42.1912,M,M,M,300.00,9.00,M,29.98,M,10.00,M,FEW,SCT,M,M,4100.00,8500.00,M,M,M,KOWD 032315Z AUTO 30009KT 10SM FEW041 SCT085 A2998 RMK MADISHF
EWB,2017-11-03 23:15,-70.9583,41.6764,M,M,M,290.00,6.00,M,29.97,M,10.00,M,SCT,BKN,OVC,M,3999.00,4900.00,10000.00,M,M,KEWB 032315Z AUTO 29006KT 10SM SCT039 BKN049 OVC100 A2997 RMK MADISHF
GHG,2017-11-03 23:15,-70.6721,42.0982,66.20,62.60,88.18,270.00,5.00,0.00,29.96,M,10.00,M,SCT,SCT,M,M,6500.00,8000.00,M,M,M,KGHG 032315Z AUTO 27005KT 10SM SCT065 SCT080 19/17 A2996 RMK AO2
FMH,2017-11-03 23:15,-70.5215,41.6585,62.60,60.80,93.83,240.00,10.00,0.00,29.99,M,10.00,16.00,OVC,M,M,M,600.00,M,M,M,M,KFMH 032315Z AUTO 24010G16KT 10SM OVC006 17/16 A2999 RMK AO2
PVC,2017-11-03 23:20,-70.2200,42.0700,M,M,M,240.00,11.00,M,29.97,M,10.00,M,M,M,M,M,M,M,M,M,M,KPVC 032320Z AUTO 24011KT 10SM A2997 RMK MADISHF
ORE,2017-11-03 23:20,-72.2886,42.5701,M,M,M,M,M,M,30.08,M,10.00,M,CLR,M,M,M,M,M,M,M,M,KORE 032320Z AUTO /////KT 10SM CLR A3008 RMK MADISHF
TAN,2017-11-03 23:20,-71.0211,41.8756,M,M,M,280.00,3.00,M,29.98,M,10.00,M,BKN,OVC,M,M,6000.00,7000.00,M,M,M,KTAN 032320Z AUTO 28003KT 10SM BKN060 OVC070 A2998 RMK MADISHF
ORH,2017-11-03 23:20,-71.8757,42.2673,M,M,M,M,M,M,30.04,M,10.00,M,CLR,M,M,M,M,M,M,M,M,KORH 032320Z AUTO /////KT 10SM CLR A3004 RMK MADISHF
BOS,2017-11-03 23:20,-71.0097,42.3606,M,M,M,M,M,M,29.98,M,10.00,M,FEW,BKN,M,M,3300.00,9500.00,M,M,M,KBOS 032320Z AUTO /////KT 10SM FEW033 BKN095 A2998 RMK MADISHF
BED,2017-11-03 23:20,-71.2890,42.4699,M,M,M,280.00,8.00,M,29.99,M,10.00,M,SCT,M,M,M,9000.00,M,M,M,M,KBED 032320Z AUTO 28008KT 10SM SCT090 A2999 RMK MADISHF
EWB,2017-11-03 23:20,-70.9583,41.6764,M,M,M,280.00,6.00,M,29.97,M,10.00,M,FEW,BKN,BKN,M,3999.00,4800.00,6000.00,M,M,KEWB 032320Z AUTO 28006KT 10SM FEW039 BKN048 BKN060 A2997 RMK MADISHF
FIT,2017-11-03 23:20,-71.7558,42.5519,M,M,M,M,M,M,30.04,M,10.00,M,CLR,M,M,M,M,M,M,M,M,KFIT 032320Z AUTO /////KT 10SM CLR A3004 RMK MADISHF
CQX,2017-11-03 23:20,-69.9933,41.6875,M,M,M,240.00,7.00,M,29.99,M,2.00,M,OVC,M,M,M,200.00,M,M,M,BR,KCQX 032320Z AUTO 24007KT 2SM BR OVC002 A2999 RMK MADISHF
OWD,2017-11-03 23:20,-71.1733,42.1912,M,M,M,300.00,10.00,M,29.98,M,10.00,M,FEW,SCT,M,M,4100.00,8500.00,M,M,M,KOWD 032320Z AUTO 30010KT 10SM FEW041 SCT085 A2998 RMK MADISHF
PYM,2017-11-03 23:20,-70.7288,41.9090,M,M,M,230.00,5.00,M,29.98,M,10.00,M,BKN,M,M,M,6500.00,M,M,M,M,KPYM 032320Z AUTO 23005KT 10SM BKN065 A2998 RMK MADISHF
HYA,2017-11-03 23:20,-70.2800,41.6700,M,M,M,230.00,12.00,M,29.97,M,10.00,M,FEW,FEW,OVC,M,499.00,7999.00,10000.00,M,M,KHYA 032320Z AUTO 23012KT 10SM FEW004 FEW079 OVC100 A2997 RMK MADISHF
PYM,2017-11-03 23:25,-70.7288,41.9090,M,M,M,230.00,5.00,M,29.98,M,10.00,M,BKN,BKN,M,M,7000.00,7999.00,M,M,M,KPYM 032325Z AUTO 23005KT 10SM BKN070 BKN079 A2998 RMK MADISHF
CQX,2017-11-03 23:25,-69.9933,41.6875,M,M,M,230.00,7.00,M,29.99,M,2.50,M,OVC,M,M,M,200.00,M,M,M,BR,KCQX 032325Z AUTO 23007KT 2 1/2SM BR OVC002 A2999 RMK MADISHF
ORE,2017-11-03 23:25,-72.2886,42.5701,M,M,M,M,M,M,30.08,M,10.00,M,CLR,M,M,M,M,M,M,M,M,KORE 032325Z AUTO /////KT 10SM CLR A3008 RMK MADISHF
TAN,2017-11-03 23:25,-71.0211,41.8756,M,M,M,280.00,3.00,M,29.98,M,10.00,M,BKN,OVC,M,M,6000.00,7000.00,M,M,M,KTAN 032325Z AUTO 28003KT 10SM BKN060 OVC070 A2998 RMK VRB03KT  MADISHF
PVC,2017-11-03 23:25,-70.2200,42.0700,M,M,M,240.00,11.00,M,29.97,M,10.00,M,M,M,M,M,M,M,M,M,M,KPVC 032325Z AUTO 24011KT 10SM A2997 RMK MADISHF
EWB,2017-11-03 23:25,-70.9583,41.6764,M,M,M,280.00,5.00,M,29.97,M,10.00,M,FEW,SCT,OVC,M,3999.00,4600.00,6500.00,M,M,KEWB 032325Z AUTO 28005KT 10SM FEW039 SCT046 OVC065 A2997 RMK MADISHF
ORH,2017-11-03 23:25,-71.8757,42.2673,M,M,M,M,M,M,30.04,M,10.00,M,CLR,M,M,M,M,M,M,M,M,KORH 032325Z AUTO /////KT 10SM CLR A3004 RMK MADISHF
BED,2017-11-03 23:25,-71.2890,42.4699,M,M,M,280.00,8.00,M,29.99,M,10.00,M,FEW,M,M,M,9000.00,M,M,M,M,KBED 032325Z AUTO 28008KT 10SM FEW090 A2999 RMK MADISHF
FIT,2017-11-03 23:25,-71.7558,42.5519,M,M,M,M,M,M,30.04,M,10.00,20.00,CLR,M,M,M,M,M,M,M,M,KFIT 032325Z AUTO /////G20KT 10SM CLR A3004 RMK MADISHF
BOS,2017-11-03 23:25,-71.0097,42.3606,M,M,M,M,M,M,29.98,M,10.00,M,FEW,BKN,M,M,3300.00,9500.00,M,M,M,KBOS 032325Z AUTO /////KT 10SM FEW033 BKN095 A2998 RMK MADISHF
HYA,2017-11-03 23:25,-70.2800,41.6700,M,M,M,230.00,12.00,M,29.97,M,10.00,M,FEW,SCT,OVC,M,499.00,7999.00,10000.00,M,M,KHYA 032325Z AUTO 23012KT 10SM FEW004 SCT079 OVC100 A2997 RMK MADISHF
OWD,2017-11-03 23:25,-71.1733,42.1912,M,M,M,290.00,9.00,M,29.98,M,10.00,M,FEW,BKN,M,M,4100.00,9000.00,M,M,M,KOWD 032325Z AUTO 29009KT 10SM FEW041 BKN090 A2998 RMK MADISHF
PVC,2017-11-03 23:30,-70.2200,42.0700,M,M,M,240.00,10.00,M,29.97,M,10.00,M,M,M,M,M,M,M,M,M,M,KPVC 032330Z AUTO 24010KT 10SM A2997 RMK MADISHF
BED,2017-11-03 23:30,-71.2890,42.4699,M,M,M,M,M,M,29.99,M,10.00,M,FEW,M,M,M,9000.00,M,M,M,M,KBED 032330Z AUTO /////KT 10SM FEW090 A2999 RMK MADISHF
OWD,2017-11-03 23:30,-71.1733,42.1912,M,M,M,300.00,8.00,M,29.98,M,10.00,M,FEW,BKN,M,M,4100.00,8500.00,M,M,M,KOWD 032330Z AUTO 30008KT 10SM FEW041 BKN085 A2998 RMK MADISHF
EWB,2017-11-03 23:30,-70.9583,41.6764,M,M,M,280.00,6.00,M,29.97,M,10.00,M,FEW,SCT,OVC,M,3999.00,4700.00,7000.00,M,M,KEWB 032330Z AUTO 28006KT 10SM FEW039 SCT047 OVC070 A2997 RMK MADISHF
CQX,2017-11-03 23:30,-69.9933,41.6875,M,M,M,240.00,7.00,M,29.99,M,2.50,M,OVC,M,M,M,200.00,M,M,M,BR,KCQX 032330Z AUTO 24007KT 2 1/2SM BR OVC002 A2999 RMK MADISHF
ORE,2017-11-03 23:30,-72.2886,42.5701,M,M,M,M,M,M,30.09,M,10.00,M,CLR,M,M,M,M,M,M,M,M,KORE 032330Z AUTO /////KT 10SM CLR A3009 RMK MADISHF
PYM,2017-11-03 23:30,-70.7288,41.9090,M,M,M,230.00,5.00,M,29.98,M,10.00,M,BKN,BKN,M,M,7000.00,8500.00,M,M,M,KPYM 032330Z AUTO 23005KT 10SM BKN070 BKN085 A2998 RMK MADISHF
HYA,2017-11-03 23:30,-70.2800,41.6700,M,M,M,230.00,11.00,M,29.97,M,10.00,M,FEW,OVC,M,M,499.00,9500.00,M,M,M,KHYA 032330Z AUTO 23011KT 10SM FEW004 OVC095 A2997 RMK MADISHF
BOS,2017-11-03 23:30,-71.0097,42.3606,M,M,M,M,M,M,29.98,M,10.00,M,FEW,BKN,M,M,3300.00,9500.00,M,M,M,KBOS 032330Z AUTO /////KT 10SM FEW033 BKN095 A2998 RMK MADISHF
TAN,2017-11-03 23:30,-71.0211,41.8756,M,M,M,290.00,6.00,M,29.98,M,10.00,M,BKN,OVC,M,M,6000.00,7000.00,M,M,M,KTAN 032330Z AUTO 29006KT 10SM BKN060 OVC070 A2998 RMK MADISHF
FIT,2017-11-03 23:30,-71.7558,42.5519,M,M,M,300.00,13.00,M,30.04,M,10.00,M,CLR,M,M,M,M,M,M,M,M,KFIT 032330Z AUTO 30013KT 10SM CLR A3004 RMK MADISHF
ORH,2017-11-03 23:30,-71.8757,42.2673,M,M,M,290.00,17.00,M,30.05,M,10.00,M,CLR,M,M,M,M,M,M,M,M,KORH 032330Z AUTO 29017KT 10SM CLR A3005 RMK MADISHF
PYM,2017-11-03 23:35,-70.7288,41.9090,M,M,M,230.00,5.00,M,29.98,M,10.00,M,SCT,OVC,M,M,6500.00,8500.00,M,M,M,KPYM 032335Z AUTO 23005KT 10SM SCT065 OVC085 A2998 RMK MADISHF
CQX,2017-11-03 23:35,-69.9933,41.6875,M,M,M,230.00,6.00,M,29.99,M,3.00,M,OVC,M,M,M,200.00,M,M,M,BR,KCQX 032335Z AUTO 23006KT 3SM BR OVC002 A2999 RMK VRB06KT  MADISHF
BED,2017-11-03 23:35,-71.2890,42.4699,M,M,M,280.00,13.00,M,30.00,M,10.00,18.00,FEW,M,M,M,9000.00,M,M,M,M,KBED 032335Z AUTO 28013G18KT 10SM FEW090 A3000 RMK MADISHF
HYA,2017-11-03 23:35,-70.2800,41.6700,M,M,M,220.00,10.00,M,29.97,M,10.00,M,FEW,OVC,M,M,499.00,10000.00,M,M,M,KHYA 032335Z AUTO 22010KT 10SM FEW004 OVC100 A2997 RMK MADISHF
BOS,2017-11-03 23:35,-71.0097,42.3606,M,M,M,290.00,14.00,M,29.98,M,10.00,M,FEW,SCT,M,M,3300.00,9500.00,M,M,M,KBOS 032335Z AUTO 29014KT 10SM FEW033 SCT095 A2998 RMK MADISHF
TAN,2017-11-03 23:35,-71.0211,41.8756,M,M,M,290.00,4.00,M,29.99,M,10.00,M,SCT,OVC,M,M,6000.00,7500.00,M,M,M,KTAN 032335Z AUTO 29004KT 10SM SCT060 OVC075 A2999 RMK MADISHF
PVC,2017-11-03 23:35,-70.2200,42.0700,M,M,M,240.00,10.00,M,29.97,M,10.00,M,M,M,M,M,M,M,M,M,M,KPVC 032335Z AUTO 24010KT 10SM A2997 RMK MADISHF
ORH,2017-11-03 23:35,-71.8757,42.2673,M,M,M,M,M,M,30.05,M,10.00,M,CLR,M,M,M,M,M,M,M,M,KORH 032335Z AUTO /////KT 10SM CLR A3005 RMK MADISHF
OWD,2017-11-03 23:35,-71.1733,42.1912,M,M,M,300.00,11.00,M,29.99,M,10.00,M,SCT,M,M,M,8500.00,M,M,M,M,KOWD 032335Z AUTO 30011KT 10SM SCT085 A2999 RMK MADISHF
EWB,2017-11-03 23:35,-70.9583,41.6764,M,M,M,290.00,5.00,M,29.97,M,10.00,M,FEW,BKN,M,M,4400.00,7000.00,M,M,M,KEWB 032335Z AUTO 29005KT 10SM FEW044 BKN070 A2997 RMK MADISHF
ORE,2017-11-03 23:35,-72.2886,42.5701,M,M,M,M,M,M,30.08,M,10.00,M,CLR,M,M,M,M,M,M,M,M,KORE 032335Z AUTO /////KT 10SM CLR A3008 RMK MADISHF
GHG,2017-11-03 23:35,-70.6721,42.0982,66.20,62.60,88.18,M,3.00,0.00,29.97,M,10.00,M,FEW,BKN,M,M,6500.00,8500.00,M,M,M,KGHG 032335Z AUTO VRB03KT 10SM FEW065 BKN085 19/17 A2997 RMK AO2
FMH,2017-11-03 23:35,-70.5215,41.6585,62.60,60.80,93.83,250.00,8.00,0.00,29.99,M,10.00,M,OVC,M,M,M,500.00,M,M,M,M,KFMH 032335Z AUTO 25008KT 10SM OVC005 17/16 A2999 RMK AO2
CQX,2017-11-03 23:39,-69.9933,41.6875,61.00,61.00,100.00,M,5.00,0.00,29.99,M,3.00,M,OVC,M,M,M,200.00,M,M,M,BR,KCQX 032339Z AUTO VRB05KT 3SM BR OVC002 16/16 A2999 RMK AO2 T01610161
FIT,2017-11-03 23:40,-71.7558,42.5519,M,M,M,300.00,9.00,M,30.05,M,10.00,M,CLR,M,M,M,M,M,M,M,M,KFIT 032340Z AUTO 30009KT 10SM CLR A3005 RMK MADISHF
CQX,2017-11-03 23:40,-69.9933,41.6875,M,M,M,230.00,6.00,M,29.99,M,4.00,M,OVC,M,M,M,200.00,M,M,M,BR,KCQX 032340Z AUTO 23006KT 4SM BR OVC002 A2999 RMK MADISHF
PVC,2017-11-03 23:40,-70.2200,42.0700,M,M,M,240.00,10.00,M,29.98,M,10.00,M,M,M,M,M,M,M,M,M,M,KPVC 032340Z AUTO 24010KT 10SM A2998 RMK MADISHF
TAN,2017-11-03 23:40,-71.0211,41.8756,M,M,M,290.00,7.00,M,29.99,M,10.00,M,SCT,OVC,M,M,6000.00,7999.00,M,M,M,KTAN 032340Z AUTO 29007KT 10SM SCT060 OVC079 A2999 RMK MADISHF
ORH,2017-11-03 23:40,-71.8757,42.2673,M,M,M,M,M,M,30.05,M,10.00,M,CLR,M,M,M,M,M,M,M,M,KORH 032340Z AUTO /////KT 10SM CLR A3005 RMK MADISHF
BED,2017-11-03 23:40,-71.2890,42.4699,M,M,M,280.00,8.00,M,30.00,M,10.00,M,FEW,M,M,M,4200.00,M,M,M,M,KBED 032340Z AUTO 28008KT 10SM FEW042 A3000 RMK MADISHF
EWB,2017-11-03 23:40,-70.9583,41.6764,M,M,M,270.00,5.00,M,29.98,M,10.00,M,SCT,BKN,M,M,6000.00,7500.00,M,M,M,KEWB 032340Z AUTO 27005KT 10SM SCT060 BKN075 A2998 RMK MADISHF
HYA,2017-11-03 23:40,-70.2800,41.6700,M,M,M,230.00,9.00,M,29.97,M,10.00,M,OVC,M,M,M,10000.00,M,M,M,M,KHYA 032340Z AUTO 23009KT 10SM OVC100 A2997 RMK MADISHF
OWD,2017-11-03 23:40,-71.1733,42.1912,M,M,M,300.00,12.00,M,29.99,M,10.00,M,FEW,M,M,M,9000.00,M,M,M,M,KOWD 032340Z AUTO 30012KT 10SM FEW090 A2999 RMK MADISHF
BOS,2017-11-03 23:40,-71.0097,42.3606,M,M,M,300.00,15.00,M,29.99,M,10.00,M,FEW,SCT,M,M,3300.00,9500.00,M,M,M,KBOS 032340Z AUTO 30015KT 10SM FEW033 SCT095 A2999 RMK MADISHF
PYM,2017-11-03 23:40,-70.7288,41.9090,M,M,M,240.00,5.00,M,29.98,M,10.00,M,SCT,OVC,M,M,6500.00,8500.00,M,M,M,KPYM 032340Z AUTO 24005KT 10SM SCT065 OVC085 A2998 RMK MADISHF
ORE,2017-11-03 23:40,-72.2886,42.5701,M,M,M,280.00,13.00,M,30.08,M,10.00,M,CLR,M,M,M,M,M,M,M,M,KORE 032340Z AUTO 28013KT 10SM CLR A3008 RMK MADISHF
ORH,2017-11-03 23:45,-71.8757,42.2673,M,M,M,M,M,M,30.06,M,10.00,M,CLR,M,M,M,M,M,M,M,M,KORH 032345Z AUTO /////KT 10SM CLR A3006 RMK MADISHF
PYM,2017-11-03 23:45,-70.7288,41.9090,M,M,M,260.00,4.00,M,29.99,M,10.00,M,FEW,OVC,M,M,6500.00,7999.00,M,M,M,KPYM 032345Z AUTO 26004KT 10SM FEW065 OVC079 A2999 RMK MADISHF
TAN,2017-11-03 23:45,-71.0211,41.8756,M,M,M,300.00,4.00,M,29.99,M,10.00,M,BKN,OVC,M,M,7000.00,7999.00,M,M,M,KTAN 032345Z AUTO 30004KT 10SM BKN070 OVC079 A2999 RMK MADISHF
PVC,2017-11-03 23:45,-70.2200,42.0700,M,M,M,240.00,9.00,M,29.98,M,10.00,M,M,M,M,M,M,M,M,M,M,KPVC 032345Z AUTO 24009KT 10SM A2998 RMK MADISHF
FIT,2017-11-03 23:45,-71.7558,42.5519,M,M,M,M,M,M,30.05,M,10.00,18.00,CLR,M,M,M,M,M,M,M,M,KFIT 032345Z AUTO /////G18KT 10SM CLR A3005 RMK MADISHF
OWD,2017-11-03 23:45,-71.1733,42.1912,M,M,M,290.00,11.00,M,29.99,M,10.00,M,FEW,M,M,M,9000.00,M,M,M,M,KOWD 032345Z AUTO 29011KT 10SM FEW090 A2999 RMK MADISHF
BOS,2017-11-03 23:45,-71.0097,42.3606,M,M,M,M,M,M,29.99,M,10.00,M,FEW,SCT,M,M,3300.00,9500.00,M,M,M,KBOS 032345Z AUTO /////KT 10SM FEW033 SCT095 A2999 RMK MADISHF
BED,2017-11-03 23:45,-71.2890,42.4699,M,M,M,290.00,10.00,M,30.00,M,10.00,M,SCT,M,M,M,3999.00,M,M,M,M,KBED 032345Z AUTO 29010KT 10SM SCT039 A3000 RMK MADISHF
EWB,2017-11-03 23:45,-70.9583,41.6764,M,M,M,270.00,4.00,M,29.98,M,10.00,M,SCT,M,M,M,7000.00,M,M,M,M,KEWB 032345Z AUTO 27004KT 10SM SCT070 A2998 RMK MADISHF
HYA,2017-11-03 23:45,-70.2800,41.6700,M,M,M,230.00,8.00,M,29.98,M,10.00,M,OVC,M,M,M,10000.00,M,M,M,M,KHYA 032345Z AUTO 23008KT 10SM OVC100 A2998 RMK MADISHF
ORE,2017-11-03 23:45,-72.2886,42.5701,M,M,M,310.00,13.00,M,30.07,M,10.00,M,CLR,M,M,M,M,M,M,M,M,KORE 032345Z AUTO 31013KT 10SM CLR A3007 RMK MADISHF
PVC,2017-11-03 23:50,-70.2200,42.0700,M,M,M,240.00,8.00,M,29.98,M,10.00,M,M,M,M,M,M,M,M,M,M,KPVC 032350Z AUTO 24008KT 10SM A2998 RMK MADISHF
FIT,2017-11-03 23:50,-71.7558,42.5519,M,M,M,M,M,M,30.06,M,10.00,17.00,CLR,M,M,M,M,M,M,M,M,KFIT 032350Z AUTO /////G17KT 10SM CLR A3006 RMK MADISHF
EWB,2017-11-03 23:50,-70.9583,41.6764,M,M,M,280.00,4.00,M,29.98,M,10.00,M,FEW,SCT,M,M,6000.00,7500.00,M,M,M,KEWB 032350Z AUTO 28004KT 10SM FEW060 SCT075 A2998 RMK MADISHF
OWD,2017-11-03 23:50,-71.1733,42.1912,M,M,M,300.00,11.00,M,30.00,M,10.00,M,FEW,M,M,M,9000.00,M,M,M,M,KOWD 032350Z AUTO 30011KT 10SM FEW090 A3000 RMK MADISHF
PYM,2017-11-03 23:50,-70.7288,41.9090,M,M,M,M,M,M,29.98,M,10.00,M,FEW,OVC,M,M,6000.00,7999.00,M,M,M,KPYM 032350Z AUTO /////KT 10SM FEW060 OVC079 A2998 RMK MADISHF
ORE,2017-11-03 23:50,-72.2886,42.5701,M,M,M,300.00,11.00,M,30.07,M,10.00,16.00,CLR,M,M,M,M,M,M,M,M,KORE 032350Z AUTO 30011G16KT 10SM CLR A3007 RMK MADISHF
CQX,2017-11-03 23:50,-69.9933,41.6875,M,M,M,240.00,7.00,M,29.99,M,7.00,M,OVC,M,M,M,200.00,M,M,M,M,KCQX 032350Z AUTO 24007KT 7SM OVC002 A2999 RMK MADISHF
ORH,2017-11-03 23:50,-71.8757,42.2673,M,M,M,M,M,M,30.06,M,10.00,M,CLR,M,M,M,M,M,M,M,M,KORH 032350Z AUTO /////KT 10SM CLR A3006 RMK MADISHF
TAN,2017-11-03 23:50,-71.0211,41.8756,M,M,M,300.00,5.00,M,29.99,M,10.00,M,BKN,M,M,M,7000.00,M,M,M,M,KTAN 032350Z AUTO 30005KT 10SM BKN070 A2999 RMK MADISHF
BED,2017-11-03 23:50,-71.2890,42.4699,M,M,M,280.00,11.00,M,30.01,M,10.00,M,SCT,M,M,M,3999.00,M,M,M,M,KBED 032350Z AUTO 28011KT 10SM SCT039 A3001 RMK MADISHF
BOS,2017-11-03 23:50,-71.0097,42.3606,M,M,M,290.00,19.00,M,29.99,M,10.00,M,FEW,SCT,M,M,3300.00,9500.00,M,M,M,KBOS 032350Z AUTO 29019KT 10SM FEW033 SCT095 A2999 RMK MADISHF
HYA,2017-11-03 23:50,-70.2800,41.6700,M,M,M,230.00,9.00,M,29.98,M,10.00,M,OVC,M,M,M,10000.00,M,M,M,M,KHYA 032350Z AUTO 23009KT 10SM OVC100 A2998 RMK MADISHF
TAN,2017-11-03 23:52,-71.0211,41.8756,66.00,57.00,72.72,M,3.00,0.00,29.99,1015.60,10.00,M,BKN,M,M,M,7000.00,M,M,M,M,KTAN 032352Z AUTO VRB03KT 10SM BKN070 19/14 A2999 RMK AO2 SLP156 60000 T01890139 10233 20172 51025
ORE,2017-11-03 23:52,-72.2886,42.5701,54.00,44.10,69.09,290.00,12.00,0.00,30.07,1018.40,10.00,23.00,CLR,M,M,M,M,M,M,M,M,KORE 032352Z AUTO 29012G23KT 10SM CLR 12/07 A3007 RMK AO2 SLP184 60000 T01220067 10189 20122 51033 TSNO
PYM,2017-11-03 23:52,-70.7288,41.9090,64.90,60.10,84.44,M,M,0.00,29.99,1015.30,10.00,M,OVC,M,M,M,8000.00,M,M,M,M,KPYM 032352Z AUTO 10SM OVC080 18/16 A2999 RMK AO2 SLP153 T01830156 10222 20178 51021 $
CQX,2017-11-03 23:52,-69.9933,41.6875,61.00,61.00,100.00,240.00,6.00,0.00,29.99,1015.70,7.00,M,OVC,M,M,M,200.00,M,M,M,M,KCQX 032352Z AUTO 24006KT 7SM OVC002 16/16 A2999 RMK AO2 SLP157 T01610161 10167 20156 53013
FIT,2017-11-03 23:52,-71.7558,42.5519,60.10,48.90,66.46,310.00,11.00,0.00,30.06,1017.90,10.00,19.00,CLR,M,M,M,M,M,M,M,M,KFIT 032352Z AUTO 31011G19KT 10SM CLR 16/09 A3006 RMK AO2 PK WND 29027/2311 SLP179 60000 T01560094 10244 20156 53039
OWD,2017-11-03 23:53,-71.1733,42.1912,66.90,54.00,63.21,290.00,11.00,0.00,30.00,1015.80,10.00,21.00,FEW,M,M,M,9000.00,M,M,M,M,KOWD 032353Z 29011G21KT 10SM FEW090 19/12 A3000 RMK AO2 SLP158 60000 T01940122 10256 20194 53030
EWB,2017-11-03 23:53,-70.9583,41.6764,63.00,59.00,86.77,290.00,5.00,0.00,29.98,1015.30,10.00,M,FEW,SCT,M,M,5500.00,7500.00,M,M,M,KEWB 032353Z 29005KT 10SM FEW055 SCT075 17/15 A2998 RMK AO2 SLP153 T01720150 10206 20172 53017
ORH,2017-11-03 23:54,-71.8757,42.2673,54.00,43.00,66.24,290.00,20.00,0.00,30.06,1017.90,10.00,27.00,CLR,M,M,M,M,M,M,M,M,KORH 032354Z 29020G27KT 10SM CLR 12/06 A3006 RMK AO2 PK WND 30027/2353 SLP179 60000 T01220061 10217 20122 53031
BOS,2017-11-03 23:54,-71.0097,42.3606,64.90,53.10,65.56,290.00,19.00,0.00,30.00,1015.70,10.00,28.00,FEW,FEW,M,M,3300.00,9500.00,M,M,M,KBOS 032354Z 29019G28KT 10SM FEW033 FEW095 18/12 A3000 RMK AO2 PK WND 29028/2349 SLP157 60001 T01830117 10239 20183 51031 $
PVC,2017-11-03 23:55,-70.2200,42.0700,M,M,M,240.00,9.00,M,29.98,M,10.00,M,M,M,M,M,M,M,M,M,M,KPVC 032355Z AUTO 24009KT 10SM A2998 RMK MADISHF
PYM,2017-11-03 23:55,-70.7288,41.9090,M,M,M,290.00,3.00,M,29.99,M,10.00,M,OVC,M,M,M,7999.00,M,M,M,M,KPYM 032355Z AUTO 29003KT 10SM OVC079 A2999 RMK MADISHF
ORE,2017-11-03 23:55,-72.2886,42.5701,M,M,M,M,M,M,30.08,M,10.00,M,CLR,M,M,M,M,M,M,M,M,KORE 032355Z AUTO /////KT 10SM CLR A3008 RMK MADISHF
CQX,2017-11-03 23:55,-69.9933,41.6875,M,M,M,240.00,6.00,M,29.99,M,8.00,M,OVC,M,M,M,200.00,M,M,M,M,KCQX 032355Z AUTO 24006KT 8SM OVC002 A2999 RMK MADISHF
ORH,2017-11-03 23:55,-71.8757,42.2673,M,M,M,M,M,M,30.06,M,10.00,M,CLR,M,M,M,M,M,M,M,M,KORH 032355Z AUTO /////KT 10SM CLR A3006 RMK MADISHF
EWB,2017-11-03 23:55,-70.9583,41.6764,M,M,M,280.00,5.00,M,29.98,M,10.00,M,FEW,FEW,M,M,5500.00,7500.00,M,M,M,KEWB 032355Z AUTO 28005KT 10SM FEW055 FEW075 A2998 RMK MADISHF
BED,2017-11-03 23:55,-71.2890,42.4699,M,M,M,270.00,16.00,M,30.01,M,10.00,M,BKN,M,M,M,3999.00,M,M,M,M,KBED 032355Z AUTO 27016KT 10SM BKN039 A3001 RMK MADISHF
BOS,2017-11-03 23:55,-71.0097,42.3606,M,M,M,M,M,M,30.00,M,10.00,M,FEW,M,M,M,3999.00,M,M,M,M,KBOS 032355Z AUTO /////KT 10SM FEW039 A3000 RMK MADISHF
OWD,2017-11-03 23:55,-71.1733,42.1912,M,M,M,290.00,14.00,M,30.00,M,10.00,M,FEW,M,M,M,8500.00,M,M,M,M,KOWD 032355Z AUTO 29014KT 10SM FEW085 A3000 RMK MADISHF
HYA,2017-11-03 23:55,-70.2800,41.6700,M,M,M,230.00,7.00,M,29.98,M,10.00,M,FEW,OVC,M,M,1100.00,10000.00,M,M,M,KHYA 032355Z AUTO 23007KT 10SM FEW011 OVC100 A2998 RMK MADISHF
TAN,2017-11-03 23:55,-71.0211,41.8756,M,M,M,300.00,6.00,M,29.99,M,10.00,M,BKN,M,M,M,7500.00,M,M,M,M,KTAN 032355Z AUTO 30006KT 10SM BKN075 A2999 RMK MADISHF
GHG,2017-11-03 23:55,-70.6721,42.0982,66.20,62.60,88.18,M,3.00,0.00,29.98,M,10.00,M,BKN,M,M,M,8000.00,M,M,M,M,KGHG 032355Z AUTO VRB03KT 10SM BKN080 19/17 A2998 RMK AO2
FMH,2017-11-03 23:55,-70.5215,41.6585,60.80,60.80,100.00,270.00,6.00,0.00,30.00,M,10.00,M,OVC,M,M,M,500.00,M,M,M,M,KFMH 032355Z AUTO 27006KT 10SM OVC005 16/16 A3000 RMK AO2
HYA,2017-11-03 23:56,-70.2800,41.6700,62.10,61.00,96.18,230.00,8.00,0.00,29.98,1015.30,10.00,M,FEW,OVC,M,M,1100.00,10000.00,M,M,M,KHYA 032356Z 23008KT 10SM FEW011 OVC100 17/16 A2998 RMK AO2 SLP153 T01670161 10183 20161 53015
BED,2017-11-03 23:56,-71.2890,42.4699,63.00,51.10,65.09,280.00,16.00,0.00,30.01,1017.40,10.00,22.00,BKN,M,M,M,4000.00,M,M,M,M,KBED 032356Z 28016G22KT 10SM BKN040 17/11 A3001 RMK AO2 SLP174 60000 T01720106 10244 20172 53034
PVC,2017-11-03 23:56,-70.2200,42.0700,60.10,59.00,96.15,250.00,9.00,0.00,29.98,1015.20,10.00,M,M,M,M,M,M,M,M,M,M,KPVC 032356Z AUTO 25009KT 10SM 16/15 A2998 RMK AO2 SLP152 T01560150 10178 20150 53018 $
MQE,2017-11-03 23:56,-71.1142,42.2121,62.10,52.00,69.46,300.00,15.00,0.00,30.00,1016.80,M,26.00,M,M,M,M,M,M,M,M,M,KMQE 032356Z AUTO 30015G26KT 17/11 A3000 RMK AO1 PK WND 28031/2301 SLP168 T01670111 10228 20167 53026
